SBUL 151500Z 03010KT CAVOK 25/10 Q1021
DAOB 151500Z 32012KT 9999 FEW026 35/M02 Q1018
EPBY 151500Z 27014KT CAVOK 20/06 Q1016
OJAI 151500Z 28015KT 5000 BLDU NSC 30/16 Q1009 NOSIG
OJAQ 151500Z 36013KT CAVOK 38/15 Q1002 NOSIG
BKPR 151500Z 05005KT 020V110 9999 FEW040 32/09 Q1015 NOSIG
UBEE 151500Z 16010KT CAVOK 37/16 Q1008 NOSIG
TFFF 151500Z AUTO 10018KT 9999 BKN027 BKN040 30/24 Q1015
FMMI 151500Z 10009KT 9999 FEW023 15/08 Q1022 NOSIG
FQLC 151500Z 13009KT 9999 BKN016 18/12 Q1024
SABE 151500Z 17003KT 120V240 5000 BR OVC005 11/10 Q1010 NOSIG RMK PP000
OEDF 151500Z 06009KT CAVOK 39/23 Q0994 NOSIG
OEJN 151500Z 27008KT 9999 FEW040 35/23 Q1002 NOSIG
MHRO 151500Z 10015KT 9999 SCT018 SCT220 29/25 Q1016 A3000 NOSIG
OJAM 151500Z 31010KT 6000 NSC 30/14 Q1009 NOSIG
SBMQ 151500Z 08007KT 9999 FEW020 32/25 Q1013
OPKC 151500Z 03014KT 5000 DZ FEW020 BKN030 OVC090 27/24 Q0997 TEMPO 2000 TSRA FEW025CB
OPMT 151500Z 09006KT 7000 FU FEW040 SCT100 BKN100 33/23 Q1000 NOSIG
OPPS 151500Z 05012KT 8000 HZ SCT040 SCT220 31/24 Q1003
SAWE 151500Z 26003KT 9999 SCT019 M00/M01 Q1028 RMK PP000
SAWH 151500Z 02007G18KT 320V070 9999 FEW032 02/M06 Q1023 RMK PP000
GBYD 151500Z 29008KT 9999 BKN013 30/25 Q1010
OEAB 151500Z 22012KT 9999 SCT020 25/14 Q1018 NOSIG
YPXM 151500Z AUTO 11010KT 9999 // BKN013 OVC019 25/22 Q1013
LDOS 151500Z 01012KT 330V040 CAVOK 28/11 Q1016
NFFN 151500Z 12003KT 9999 FEW030 21/20 Q1014 NOSIG
LDSP 151500Z 23013KT CAVOK 33/11 Q1012 NOSIG
MHTR 151500Z 06003KT 9999 FEW026 BKN250 30/22
NCRK 151500Z AUTO 11004KT //// ////// 27/22 Q1011
NFNA 151500Z 01004KT 9999 -SHRA FEW014 SCT018TCU BKN042 24/24 Q1015
OEDR 151500Z 06005KT 7000 NSC 37/25 Q0993
OMAL 151500Z 27014KT 5000 DU BKN030 37/20 Q0997 TEMPO 2000 SHRA BLDU FEW040TCU
SAWG 151500Z 35011KT 9999 FEW015 M01/M05 Q1028
WSSS 151500Z 15006KT 9999 FEW018 BKN300 28/24 Q1009 NOSIG
OMDB 151500Z 22003KT 170V270 7000 NSC 40/22 Q0994 NOSIG
SAME 151500Z 18006KT 6000 -DZ FEW018 SCT020 04/03 Q1018
SAAR 151500Z 20013KT 9999 SCT013 BKN015 13/08 Q1010 RMK PP000
SACO 151500Z 19017KT 9999 FEW012 SCT023 BKN100 10/03 Q1014 BECMG 18015KT 6000 TS BKN020 FEW040CB RMK PP000
SADF 151500Z 16004KT 4000 BR OVC004 11/10 Q1010 RMK PP000
SAEZ 151500Z 20004KT 9000 OVC007 11/10 Q1010 NOSIG RMK PP000
SANT 151500Z 23006KT 7000 OVC030 13/04 Q1012 RMK PP000
SAOC 151500Z 23012G22KT 9999 SCT025 OVC100 06/03 Q1016
SARC 151500Z 36005KT CAVOK 25/17 Q1003
SARI 151500Z 01010KT 340V040 9999 FEW040 BKN100 24/14 Q1008 RMK PP000
SASA 151500Z 08007KT 030V110 CAVOK 18/05 Q1008 RMK PP000
MDAB 151500Z 09006KT 9999 SCT018 BKN070 27/24 Q1018
MDCY 151500Z 16005KT 9999 SCT018 BKN070 28/24 Q1017
MDJB 151500Z 03008KT 9999 SCT020 31/24 Q1018
MDPC 151500Z 08013KT 9999 SCT020 SCT300 30/24 Q1017
MDPP 151500Z 12010KT 9999 FEW020 SCT070 29/24 Q1017
MDSD 151500Z 04006KT 9999 SCT018 SCT070 BKN300 30/25 Q1017 TEMPO 8000 -SHRA
MDBH 151500Z 16010KT 9999 FEW018CB SCT020 SCT080 31/27 Q1018 CB/S/SW/W
MDLR 151500Z 06006KT 9999 FEW020CB SCT022 SCT300 29/25 Q1016 CB/NE/SE/NW
MHNO 151500Z 02004KT 9999 FEW040 24/19
MHPL 151500Z 05008KT 9999 SCT024 31/24 Q1016
MDST 151500Z 11007KT 9999 SCT020 BKN300 28/23 Q1018
MHLE 151500Z 36004KT 9999 FEW024 BKN200 20/14
MHTE 151500Z 36008KT 8000 FEW024 SCT240 29/25 Q1014 A2994
MHYR 151500Z 27006KT 9999 SCT020 23/21
MHCH 151500Z 36008KT 9999 FEW030 SCT070 29/23
MHLC 151500Z 27003KT 9999 FEW025 SCT200 29/23 Q1015 A2997 NOSIG
MHLM 151500Z VRB03KT 8000 SCT020 BKN250 28/25 Q1015 A2997 NOSIG
MHTG 151500Z 05006KT 9999 FEW032 SCT090 23/16 Q1021 A3015 NOSIG
MYGF 151500Z 12007KT 9999 TS VCSH FEW012CB BKN100 25/22 A3015 RESHRA
MRLB 151500Z 12002KT 9999 FEW040 SCT200 28/26 A2991
MRLM 151500Z 23003KT 9999 SCT015 OVC090 25/24 A2997 REDZ
MROC 151500Z 13008KT 100V170 9999 SCT035 BKN200 24/19 A3012 NOSIG
MRPV 151500Z 11008KT 9999 SCT025 BKN180 22/17 A3011 NOSIG
SOCA 151500Z AUTO VRB02KT 6000 R08/1300D -RA BKN011/// OVC023/// ///CB 26/24 Q1014 TEMPO 2000 SHRA SCT008 FEW012CB BKN018TCU
SPGM 151500Z 18006KT 9999 FEW030 25/18 Q1016 RMK PP000
SPCL 151500Z 04010KT 9999 SCT020 30/24 Q1013 RMK BIRD HAZARD RWY 02/20 PP000
SPHO 151500Z VRB01KT 9999 FEW020 16/M07 Q1030 RMK PP000
SPJI 151500Z 00000KT 9999 FEW020 BKN080 27/24 Q1021 RMK PP000
SPJR 151500Z VRB02KT CAVOK 17/06 Q1029 RMK PP000
SPQT 151500Z 34004KT 300V050 9999 SCT015 29/24 Q1013 NOSIG RMK PP000
SPRU 151500Z 15007KT 8000 VCFG BKN015 16/13 Q1018 RMK PP000
SPST 151500Z 18003KT 9999 FEW015 30/23 Q1013 RMK BIRD HAZARD RWY 17/35 PP000
SPJL 151500Z 30003KT CAVOK 09/M14 Q1035 RMK PP000
SPME 151500Z 29003KT 9999 OVC011 22/19 Q1015 RMK BIRD HAZARD RWY 32/14 TX26.3/TN19.2 PP000
SPMS 151500Z 34004KT 9999 FEW015 29/23 Q1013 RMK BIRD HAZARD RWY 09/27 PP000
SPQU 151500Z 26008KT CAVOK 18/M03 Q1027 NOSIG RMK PP000
SPSO 151500Z 23005KT 140V300 9999 BKN020 17/12 Q1018 RMK BIRD HAZARD RWY 22/04 PP000
SPTN 151500Z 22004KT 9999 SCT008 OVC017 13/11 Q1021 RMK PP000
SKBO 151500Z 02005KT 9999 SCT020 18/10 Q1029 NOSIG RMK A3038
SPZO 151500Z VRB02KT 9999 NSC 13/M04 Q1032 NOSIG RMK FEW230 BIRD HAZARD RWY 28 PP000
SKBG 151500Z 31003KT 9999 SCT012TCU BKN025 23/19 Q1018 RMK TCU/NE A3008
SKBQ 151500Z 09004KT 030V140 9999 FEW015 30/25 Q1013 NOSIG RMK A2992
SKCC 151500Z 02005KT 6000 VCFG SCT012 BKN080 24/24 Q1017 RMK A3003
SKCL 151500Z 22004KT 160V270 8000 BKN015 SCT090 23/19 Q1020 NOSIG RMK HZ A3012
SPTU 151500Z 33008KT 300V360 9999 FEW015 28/23 Q1011 RMK BIRD HAZARD RWY 01/19 PP000
SPYL 151500Z 13021KT CAVOK 19/14 Q1016 RMK BIRD HAZARD RWY 17/35 PP000
NGTA 151500Z 10010KT 9999 FEW020 BKN300 27/24 Q1007
SKRG 151500Z 09005KT 9999 SCT016 19/13 Q1028 NOSIG RMK A3036
SKPE 151500Z 32006KT 9999 FEW020 23/18 Q1021 RMK A3016
NCPY 151500Z AUTO 08009KT //// ////// 27/22 Q1011
NCAI 151500Z AUTO 16010KT //// ////// 24/18 Q1018
SKLT 151500Z 34003KT 9999 FEW012 SCT200 29/23 Q1013 RMK A2992
SBBR 151500Z 04007KT 010V110 9999 FEW035 25/11 Q1022
SBCB 151500Z 05018KT CAVOK 26/19 Q1017
VOML 151500Z 25005KT 5000 BR FEW003 SCT012 BKN080 24/23 Q1007 NOSIG
VOCB 151500Z 23010KT 6000 SCT012 26/22 Q1008 BECMG 5000 BR
WIII 151500Z VRB03KT 4000 BR BKN020 25/24 Q1011 RERA NOSIG
YPDN 151500Z AUTO 19005KT 5000 HZ NCD 20/17 Q1015
YSRI 151500Z AUTO 00000KT 0600 // OVC001 02/02 Q1025
OKBK 151500Z 13006KT 5000 DU NSC 41/11 Q0995 NOSIG
UBBL 151500Z 12006KT 9999 NSC 29/19 Q1012 NOSIG RMK MT OP
UBBN 151500Z 11012KT 9999 NSC 35/07 Q1008 NOSIG RMK MT OP QFE681
UBBY 151500Z 14006KT 9999 NSC 32/19 Q1014 NOSIG RMK MT OP
AGGH 151500Z 14003KT 9999 FEW014 BKN100 24/22 Q1010
OBBI 151500Z 06007KT 8000 NSC 34/29 Q0995 NOSIG
OMDW 151500Z 09005KT 8000 NSC 38/22 Q0995 NOSIG
MPPA 151500Z 02004KT 9999 SCT017 SCT090 31/27 Q1013
TUPJ 151500Z 10015KT 10SM FEW021 30/24 A3004 RMK Q1017 VIS16KM
OMFJ 151500Z 10008KT 6000 NSC 34/27 Q0996 A2942
OMRK 151500Z 12010KT CAVOK 42/14 Q0994 A2938
OMSJ 151500Z VRB04KT 6000 NSC 42/18 Q0995 NOSIG
K79S 151500Z AUTO 00000KT 10SM 24/13 A3001
KS59 151500Z AUTO 00000KT 10SM 16/07 A3002
KAVK 151500Z AUTO 22011KT 10SM CLR 32/18 A3007 RMK AO2
HECA 151500Z 34007KT 9999 FEW025 32/14 Q1007 NOSIG
SCEL 151500Z VRB02KT 8000 BKN040 BKN060 BKN080 06/04 Q1016 RESHRA NOSIG
SUSO 151500Z 22012KT 0400 FG VV/// 16/15 Q1005
LBBG 151500Z 12011KT CAVOK 27/15 Q1013 NOSIG
LBPD 151500Z AUTO VRB03KT 9999 NCD 32/10 Q1013 NOSIG
LBWN 151500Z 13010KT CAVOK 28/15 Q1012 NOSIG
LBGO 151500Z AUTO 30007KT 260V350 9999 FEW120/// SCT190/// 33/09 Q1012 NOSIG
LBPG 151500Z 21006KT 9999 SCT100 33/09 Q1013
LBSF 151500Z 14004KT 100V220 CAVOK 31/09 Q1015 NOSIG
LDDU 151500Z 27006KT 220V320 CAVOK 29/13 Q1013 NOSIG
LDLO 151500Z 20006KT 170V230 CAVOK 30/09 Q1013
LDSB 151500Z 29008KT 250V320 CAVOK 32/08 Q1016
LEMO 151500Z 25005KT 170V340 CAVOK 41/08 Q1011 NOSIG
LHBP 151500Z 30015KT CAVOK 27/04 Q1016 NOSIG
TFFR 151500Z AUTO 13013KT 100V160 9999 BKN034 31/24 Q1016
SAVC 151500Z 23007KT 9999 BKN012 02/00 Q1032 RMK PP000
SPJC 151500Z 18007KT 9999 BKN005 OVC021 16/13 Q1018 NOSIG RMK PP000
MPMG 151500Z VRB02KT 9000 SCT018TCU 29/26 Q1013 NOSIG
MPDA 151500Z VRB01KT 9999 SCT018 SCT120 27/24 Q1013
SCVM 151500Z 36010KT 8000 RA SCT030 OVC070 08/06 Q1017
SMJP 151500Z 15007KT 9999 SCT020 29/24 Q1013 NOSIG
SMZO 151500Z 03006KT 9999 SCT015 30/24 Q1013 NOSIG
BIIS 151500Z 01005KT 9999 SCT040 14/06 Q1013
LZIB 151500Z 35011KT 310V030 CAVOK 25/07 Q1018 NOSIG
LZKZ 151500Z 01010KT CAVOK 25/08 Q1016 NOSIG
LZTT 151500Z 25014KT 9999 SCT066 22/06 Q1017 NOSIG
LWSK 151500Z VRB03KT CAVOK 32/11 Q1013 NOSIG
LWOH 151500Z 15005KT 9999 FEW043 27/11 Q1016
DIAP 151500Z 20005KT 160V220 3500 DZRA SCT010 BKN020 OVC030 25/25 Q1011 TEMPO 2200 DZRA
FQBR 151500Z 17012KT 9999 FEW019 23/15 Q1022
LUKK 151500Z 33008KT 310V010 9999 FEW049CB 34/10 Q1010 NOSIG
PLCH 151500Z 10009KT 9999 FEW020 26/22 Q1009
SECO 151500Z 33003KT 9999 FEW023 BKN100 26/23 Q1015 RMK A2999
SEGU 151500Z 22008KT 9999 OVC030 24/19 Q1014 NOSIG RMK A2995
SEAM 151500Z 18005KT 9999 SCT020 15/11 Q1031
SECU 151500Z 15002KT 9999 FEW020 SCT090 17/10 Q1027 RMK A3034
SEGS 151500Z 14012KT 9999 SC020 SCT080 23/19 Q1016 RMK A3002
SELT 151500Z 08002KT 9999 FEW026 12/08 Q1032
SEMT 151500Z 21006KT 9999 OVC020 23/19 Q1015 RMK A2999
SESA 151500Z 22008KT 9999 OVC011 20/18 Q1015 RMK A2999
SULS 151500Z 18009KT 0100 -DZ FG VV/// 13/13 Q1006
OSDI 151500Z 22022KT CAVOK 34/12 Q1005
OSLK 151500Z 21008KT 9999 FEW026 SCT030 29/24 Q1005
OMAA 151500Z 08012KT 5000 DU NSC 41/18 Q0993 BECMG 7000 NSW
OMAD 151500Z 04005KT 010V080 4000 DU NSC 38/26 Q0994 TEMPO 3000
OLBA 151500Z 22008KT 190V250 8000 FEW027 29/23 Q1007 NOSIG
NWWW 151500Z AUTO 15002KT 9999 SCT042 BKN052 16/14 Q1019 TEMPO SHRA
PKWA 151500Z AUTO 08013KT 10SM CLR 28/25 A2984 RMK AO2 T02770245
NGFU 151500Z 10012KT 9999 FEW018TCU BKN300 28/24 Q1010
SPLO 151500Z 15010KT 9999 OVC028 17/13 Q1020 RMK PP000
WADL 151500Z VRB01KT 7000 R31/2000 FEW016 23/22 Q1012 NOSIG
SEMC 151500Z 15004KT CAVOK 23/19 Q1019 RMK A3010
UBBQ 151500Z 17012KT 9999 NSC 34/13 Q1011 NOSIG RMK MT OP
YRMD 151500Z AUTO 09007KT 9999 // NCD 12/03 Q1022
SEQM 151500Z 27003KT 210V360 9999 FEW030 SCT100 19/10 Q1028 NOSIG RMK A3037
SERO 151500Z 22002KT 2000 DZ SCT010 OVC016 21/21 Q1015
SENL 151500Z 36005KT CAVOK 28/22 Q1016 RMK A3000
SETN 151500Z 25003KT 200V280 9999 SCT026 BKN100 27/23 Q1014 RMK A2995
FLKK 151500Z 10011KT 9999 FEW030 22/06 Q1023
NFTF 151500Z 06009KT 9999 FEW016 24/23 Q1017
YESP 151500Z AUTO 26011KT 9999 -RA BKN006 BKN026 BKN043 12/12 Q1018
NCMH 151500Z AUTO 12004KT //// ////// ///// Q1012
KFYM 151500Z AUTO 00000KT 10SM CLR 28/21 A3018 RMK A01
FDSK 151500Z 16005KT 9999 FEW040 21/10 Q1029 NOSIG
SEJD 151500Z 20002KT 9999 BKN100 25/22 Q1016 RMK A3000
SECA 151500Z 36002KT 9999 FEW040 BKN100 23/15 Q1020 RMK A3013
SESM 151500Z 09005KT 050V140 9999 FEW033 SCT100 24/19 Q1018 RMK A3008
LBIA 151500Z 03012KT 9999 SCT100 34/10 Q1012
LBPL 151500Z 31006KT 9999 FEW056 SCT100 34/16 Q1012
GOBD 151500Z 25011KT 9999 FEW016 31/24 Q1011 NOSIG
OPIS 151500Z 23006KT 7000 FEW040 27/24 Q1004 NOSIG
MHGS 151500Z 36006KT 9999 FEW032 BKN250 22/19
MYSM 151500Z AUTO 11012KT 9999 FEW031 30/23 A3011
K3U3 151500Z AUTO 24003KT 10SM 21/11 A3013
K38S 151500Z AUTO 30006KT 10SM 17/12 A3016
NCNS 151500Z AUTO 06005KT //// ////// 28/22 Q1012
MYCB 151500Z AUTO 11009KT //// R09///// // FEW025 //////CB 29/24 A3009
BIVO 151500Z 03014KT 9999 FEW050 11/06 Q1016
HSSK 151500Z 2201OKT 9999 FEW050 35/17 Q1008 NOSIG
ZMCK 151500Z 28004MPS 9999 FEW030CB BKN033 13/13 Q1009 NOSIG
KGLX 151500Z AUTO 04006KT 10SM CLR 31/23 A3014 RMK A01
CWQK 151500Z AUTO 24015KT 12/10 RMK AO1 PK WND 24017/1448 SLP168 T01220104 53010
CWVF 151500Z AUTO 12016KT 15/12 RMK AO1 PK WND 12020/1415 T01520119
CWXI 151500Z AUTO 24010KT 14/12 RMK AO1 SLP132 T01430115 57005
CWDA 151500Z AUTO 11008KT 15/ RMK AO1 T0149
CYCA 151500Z AUTO 01007KT 9SM SCT110 16/10 A2984 RMK SLP108 DENSITY ALT 400FT
CWZZ 151500Z AUTO 21004KT 190V260 ////SM BKN040 OVC050 ///// A2984
CXTP 151500Z AUTO 03003KT 20/14 RMK AO1 SLP132 T02030135 56014
CWBK 151500Z AUTO 33003KT 19/17 RMK AO1 SLP144 T01900169 55001
CWBV 151500Z AUTO 21007KT 15/14 RMK AO1 SLP135 T01540142 57005
CWVU 151500Z AUTO 24009KT 15/14 RMK AO1 SLP168 T01520142 53010
CWZQ 151500Z AUTO 34007KT 18/15 RMK AO1 SLP143 T01770150
CWSA 151500Z AUTO 24010KT 230V300 8SM OVC003 18/17 A2998 RMK SLP154 DENSITY ALT 300FT
CWRN 151500Z AUTO 13005KT 16/16 RMK AO1 SLP143 T01620157
CXIB 151500Z AUTO 09008KT 17/13 RMK AO1 6004 SLP141 T01650126 50006
CWWE 151500Z AUTO 17004KT 18/17 RMK AO1 SLP153 T01840166 58002
CWLI 151500Z AUTO 28013KT ////SM OVC008 02/00 A2985
CWOB 151500Z AUTO 23007KT 220V280 ////SM NCD ///// A////
CYUB 151500Z 33010KT 15SM OVC009 03/01 A2987 RMK SC8 SLP116
CYLT 151500Z 23020KT 15SM FEW060 BKN130 BKN160 13/08 A2960 RMK SC2AC3AC2 SLP025
CYCS 151500Z 16013KT 1/8SM FG VV002 10/10 A2962 RMK FG8 SLP034
CYXP 151500Z 27005KT 15SM SCT240 11/07 A2969 RMK CI4 SLP056
CWFD 151500Z AUTO 32017G25KT ////SM NCD 09/M02 A2962
CWWB 151500Z AUTO 11007KT 20/13 RMK AO1 SLP221 T01980127 56002
CWNC 151500Z AUTO 16001KT 22/18 RMK AO1 SLP222 T02190176 53004
CWAJ 151500Z AUTO 13006KT RMK AO1 53001
CWBE 151500Z AUTO 18008KT 18/14 RMK AO1 SLP216 T01780135 58001
CYAM 151500Z 07004KT 050V130 20SM FEW140 SCT170 BKN240 OVC280 19/12 A3014 RMK ACC1AC2CI3CI2 ACC E MOV SE SLP212 DENSITY ALT 1100FT
CWWZ 151500Z AUTO 33005KT 24/16 RMK AO1 SLP226 T02380160 53001
CWPC 151500Z AUTO 24010KT 19/16 RMK AO1 SLP232 T01920161 52003
CWQP 151500Z AUTO 13005KT 22/17 RMK AO1 SLP222 T02220166 54000
CYTZ 151500Z AUTO 12006KT 060V130 9SM CLR 23/13 A3017 RMK SLP219 DENSITY ALT 1000FT
CWEP 151500Z AUTO 05008KT 16/14 RMK AO1 SLP141 T01630135 55001
CWAF 151500Z AUTO 13/11 RMK AO1 T01300108
KHDC 151500Z AUTO 00000KT 10SM BKN026 30/24 A3011 RMK AO2
CYPH 151500Z AUTO 25005KT 190V270 9SM CLR 13/07 A2987 RMK SLP118
FMNM 151500Z 27004KT 230V310 9999 FEW040 26/18 Q1015 NOSIG
FMEP 151500Z AUTO 10012KT 9999 BKN084 22/15 Q1019 TEMPO 12016G28KT
FMMT 151500Z 24002KT 9999 VCSH FEW007 SCT017TCU 19/19 Q1019 TEMPO 3500 SHRA
FMNA 151500Z 14016KT 9999 FEW020 23/16 Q1014
FMNN 151500Z 25004KT 9999 SCT020 24/// Q1015
FMSD 151500Z 10010KT 9999 FEW016 SCT033 22/18 Q1020
FOON 151500Z /////KT 8000 BKN016 28/21 Q1011
FQNP 151500Z 20012KT 9999 FEW020 23/10 Q1020
CYUA 151500Z AUTO 33006KT 300V020 ////SM OVC006 04/03 A2987
FQVL 151500Z 14010KT 9999 FEW020 24/16 Q1023
FYRU 151500Z AUTO 12007KT //// // ////// 25/M00 Q1023
FYWW 151500Z 08007KT CAVOK 21/M04 Q1025
FQPB 151500Z 14015KT 9999 FEW020 25/20 Q1017
FQQL 151500Z 18009KT 9999 SCT020 23/16 Q1021
FYWB 151500Z 06002KT CAVOK 34/M00 Q1014
FYWE 151500Z 05009G19KT CAVOK 21/M08 Q1026
FYWH 151500Z 09012KT CAVOK 21/M04 Q1026 NOSIG
LCPH 151500Z 31015KT 250V320 CAVOK 27/22 Q1005
OEAH 151500Z 05008KT CAVOK 44/02 Q0995 NOSIG
OESK 151500Z 29014KT CAVOK 39/02 Q1007 NOSIG
OIAA 151500Z 09008KT CAVOK 47/03 Q0994
OIBL 151500Z 27006KT 4000 HZ NSC 36/28 Q0994
OICC 151500Z 03008KT CAVOK 38/M23 Q1009 A2980
OIAW 151500Z 24006KT CAVOK 46/07 Q0993
OIBK 151500Z 06004KT 6000 NSC 38/24 Q0994 NOSIG
OICS 151500Z 04008KT CAVOK 37/M03 Q1010 A2983
OIFS 151500Z 06010KT CAVOK 29/M06 Q1018
OIGG 151500Z 31004KT CAVOK 29/22 Q1011
OIHH 151500Z 10012KT CAVOK 31/M03 Q1014 A2995
OIIK 151500Z 31002KT CAVOK 31/13 Q1013
OIKK 151500Z 04016KT CAVOK 31/M04 Q1012 A2990
OIMB 151500Z 06020KT CAVOK 30/M08 Q1010 A2985
OIMS 151500Z 03018KT CAVOK 34/M02 Q1012
OIIP 151500Z 16006KT CAVOK 33/03 Q1012 A2988
OIKB 151500Z 11008KT 4000 HZ NSC 34/30 Q0995 A2939 NOSIG
OIKQ 151500Z 13010KT 7000 NSC 36/29 Q0994 NOSIG
OIMM 151500Z 05014KT CAVOK 32/09 Q1013 A2993
OIMN 151500Z 05006KT 9999 FEW030 32/M03 Q1015
OIMD 151500Z AUTO 05010KT //// // ////// 35/M01 Q1006
OITR 151500Z 31004KT CAVOK 32/07 Q1012
OISS 151500Z 36006KT CAVOK 35/M08 Q1009 A2980
OIBA 151500Z 15006KT 3500 HZ NSC 37/28 Q0993
OING 151500Z 27014KT 9999 FEW035 31/22 Q1012
OINN 151500Z 26006KT 9999 FEW025 28/24 Q1009
OINR 151500Z 34010KT 9999 FEW023CB BKN026 28/24 Q1009
OINZ 151500Z 26008KT CAVOK 30/22 Q1010
OISF 151500Z 36012KT CAVOK 37/M04 Q1007 A2974
OISL 151500Z 20014KT 9999 FEW040 BKN200 38/17 Q0999 A2951
OISR 151500Z 12010KT 9999 FEW035CB 39/21 Q0998 A2948
OITL 151500Z 07023KT CAVOK 22/14 Q1017
OITT 151500Z 08021KT CAVOK 33/07 Q1014 A2994
OITZ 151500Z 07025KT CAVOK 27/06 Q1015 A2999
OIZH 151500Z 03008KT 8000 NSC 33/01 Q1007 A2976 NOSIG
OIZI 151500Z 24010KT 9999 FEW040 BKN200 41/03 Q0998
OISY 151500Z 07006KT CAVOK 31/M03 Q1013
OITM 151500Z 09016KT CAVOK 33/04 Q1011
SBIL 151500Z 17008KT 9999 VCSH SCT020 FEW025TCU SCT035 25/23 Q1019
SBRF 151500Z 17013KT 9999 SCT015 FEW025TCU SCT070 27/23 Q1015
LEBL 151500Z 22012KT CAVOK 29/24 Q1015 NOSIG
CXVW 151500Z AUTO 13004KT 17/10 RMK AO1 SLP136 T01670101 58001
WMKE 151500Z AUTO 00000KT //// // ////// 27/26 Q1008
OIFM 151500Z 04018KT CAVOK 32/M02 Q1015 A2997
OIZB 151500Z 33021KT CAVOK 41/03 Q0997
UARR 151500Z 29007MPS CAVOK 27/12 Q1010 NOSIG RMK QFE754/1005
UTFF 151500Z 35002KT 9999 NSC 33/06 Q1006 R18/CLRD70
CZSP 151500Z AUTO 04006KT 15/14 RMK AO1 SLP148 T01530143 53005
ZGHA 151500Z 16003MPS CAVOK 31/25 Q1002 NOSIG
DAAY 151500Z 35008KT 9999 FEW030 36/01 Q1020
DABT 151500Z 04004KT 9999 SCT030 35/05 Q1018
CWGR 151500Z AUTO 07005KT 15/12 RMK AO1 SLP149 T01450116 55003
CWIG 151500Z AUTO 24009KT RMK AO1
CXHF 151500Z AUTO 23/10 RMK AO1 T02270104
CYMT 151500Z AUTO 25010G16KT 220V320 9SM CLR 21/08 A3008 RMK SLP191 DENSITY ALT 2200FT
CWPR 151500Z AUTO 12001KT 14/07 RMK AO1 SLP160 T01380067 50003
CYGR 151500Z 07005KT 20SM FEW010 BKN032 16/12 A2997 RMK SC1SC6 SLP152 DENSITY ALT 100FT
CWUX 151500Z AUTO 29009KT 22/12 RMK AO1 SLP184 T02160116
CYLU 151500Z VRB02KT 15SM SCT061 BKN071 OVC088 10/04 A2994 RMK SC4AC3AC1 SLP144
CYVP 151500Z VRB04KT 15SM FEW028 FEW050 FEW077 BKN250 14/07 A2993 RMK CU1SC1AC1CI4 SC TR SLP140
DAUO 151500Z VRB02KT CAVOK 39/09 Q1012
FBSK 151500Z 06006KT 010V080 CAVOK 22/01 Q1026 NOSIG
CYAH 151500Z AUTO VRB02KT 9SM CLR 17/09 A2994 RMK SLP147 DENSITY ALT 1500FT
CYGL 151500Z 20006KT 160V230 15SM FEW060 BKN240 23/10 A2988 RMK SC1CI6 SLP123 DENSITY ALT 1900FT
CYGW 151500Z AUTO 13011G16KT 9SM CLR 22/10 A2982 RMK SLP099 DENSITY ALT 1000FT
CWBS 151500Z AUTO 19004KT 20/12 RMK AO1 T02000115
VTBS 151500Z 20006KT 9999 FEW020 28/25 Q1006 NOSIG
CWDQ 151500Z AUTO 31002KT 21/10 RMK AO1 SLP202 T02120099 56007
CWST 151500Z AUTO 29004KT 23/12 RMK AO1 SLP176 T02290117 58002
CXSH 151500Z AUTO 29004KT 23/10 RMK AO1 SLP204 T02330096 55000
DTTR 151500Z VRB05KT CAVOK 36/07 Q1013
CWBT 151500Z AUTO 20004KT 16/11 RMK AO1 SLP121 T01590111 58012
CWMJ 151500Z AUTO 33002KT 22/07 RMK AO1 SLP214 T02240074 58005
CWQH 151500Z AUTO 20004KT 22/15 RMK AO1 SLP200 T02180146 56001
CYNM 151500Z AUTO 24009KT 220V290 9SM CLR 23/07 A3007 RMK SLP188 DENSITY ALT 1900FT
RJFR 151500Z 14003KT 9999 FEW020 SCT050 BKN060 26/22 Q0998
USPP 151500Z 35003MPS 310V030 9999 TS BKN039CB 20/18 Q1004 R21/290150 TEMPO VRB18MPS 1000 TSRAGR SQ BKN011CB RMK QFE742
USSS 151500Z 13003MPS 9999 FEW050CB 23/20 Q1008 R08R/010060 R08L/290032 NOSIG RMK QFE736/0981
UTSB 151500Z 33010KT CAVOK 35/09 Q1005 R01/CLRD70 NOSIG
UWUU 151500Z 27002MPS 240V300 9999 BKN040CB 22/17 Q1006 R32L/0///60 NOSIG
VTSB 151500Z 20005KT 160V220 8000 -RA SCT018 BKN100 25/25 Q1009 NOSIG
YPTN 151500Z AUTO 11008KT 9999 // NCD 18/11 Q1017 RF00.0/000.0
CWJI 151500Z AUTO 13008KT 20/18 RMK AO1 SLP152 T02000175 56003
CXBK 151500Z AUTO 14013KT 23/20 RMK AO1 PK WND 14017/1457 SLP159 T02300201 58004
CWCO 151500Z AUTO 36001KT 22/13 RMK AO1 SLP226 T02170127
CWDZ 151500Z AUTO 07002KT 18/12 RMK AO1 SLP123 T01770123 51001
CWJT 151500Z AUTO 21001KT 22/14 RMK AO1 SLP199 T02230138 58006
CWKH 151500Z AUTO 16/11 RMK AO1 SLP156 T01560109 52008
CWRH 151500Z AUTO 29011KT ////SM ////// ///// A2979
CYPE 151500Z 20004KT 160V220 15SM SCT120 BKN200 16/11 A2992 RMK AC3CI2 SLP140 DENSITY ALT 2500FT
CYVT 151500Z AUTO 00000KT 9SM CLR 21/12 A2995 RMK SLP146 DENSITY ALT 2400FT
EPRZ 151500Z 29013KT 260V320 CAVOK 23/09 Q1016
LFRL 151500Z AUTO 04012KT CAVOK 26/12 Q1022 NOSIG
CWZO 151500Z AUTO 17014KT RMK AO1 PK WND 16017/1410
YMHB 151500Z AUTO 33008KT 9999 // NCD 07/03 Q1018 RF00.0/000.0
YPAD 151500Z 36010KT CAVOK 13/02 Q1019
YSCB 151500Z AUTO 04003KT 9999 // NCD M02/M03 Q1025
URKA 151500Z 02008MPS CAVOK 26/16 Q1010 R04/010070 NOSIG RMK QFE754/1005
CWEH 151500Z AUTO 15005KT 24/11 RMK AO1 SLP144 T02400110 58002
CWBO 151500Z AUTO 25005KT 21/11 RMK AO1 SLP126 T02100108 53003
CWNQ 151500Z AUTO 28004KT 21/14 RMK AO1 SLP201 T02060136 53002
CWOD 151500Z AUTO 32005KT 22/12 RMK AO1 SLP188 T02150115 55004
CWRK 151500Z AUTO 13003KT 24/12 RMK AO1 SLP219 T02380124 58004
CWAQ 151500Z AUTO 12007KT 21/20 RMK AO1 SLP151 T02060199 57002
CYOW 151500Z 20005KT 120V240 15SM FEW050 FEW260 25/12 A3015 RMK CU1CI1 CU TR CI TR SLP212 DENSITY ALT 1400FT
GGOV 151500Z 22006KT 170V270 9999 BKN013 32/25 Q1011 NOSIG
CWJX 151500Z AUTO 12004KT 25/13 RMK AO1 SLP123 T02510132 56003
CXOX 151500Z AUTO 22003KT 23/10 RMK AO1 SLP147 T02320095 51009
CYEN 151500Z AUTO 11012G19KT 9SM BKN006 22/20 A3004 RMK SLP173 DENSITY ALT 3100FT
CYKJ 151500Z AUTO 25008KT 9SM 22/09 A2991 RMK CLD MISG SLP134 DENSITY ALT 3000FT
CYKY 151500Z 17003KT 130V200 15SM SKC 24/20 A2994 RMK SLP130 DENSITY ALT 3800FT
CWLE 151500Z AUTO 16004KT 25/18 RMK AO1 SLP143 T02480184 56003
CWFF 151500Z AUTO 18004KT 16/14 RMK AO1 1PAST HR 2001 SLP171 P0012 T01550139 50100
CYLJ 151500Z 13004KT 090V150 15SM FEW180 FEW300 20/15 A2996 RMK AC1CS1 CS TR SLP151 DENSITY ALT 2600FT
CYMJ 151500Z 11010KT 8SM FEW007 24/21 A2998 RMK SF1 HZ VIS LWR N SLP145
CWDJ 151500Z AUTO 15012G17KT 24/19 RMK AO1 PK WND 16019/1446 SLP155 T02430191 56004
CYYN 151500Z AUTO 20005KT 9SM CLR 25/18 A2997 RMK SLP136 DENSITY ALT 4400FT
CWDC 151500Z AUTO 26002KT 19/12 RMK AO1 SLP113 T01870115 51011
CWHT 151500Z AUTO 00000KT 10/08 RMK AO1 SLP123 T01010083
CWJH 151500Z AUTO 24005KT 23/10 RMK AO1 SLP134 T02300099 53004
CWKM 151500Z AUTO 31006KT ////SM OVC003 01/01 A2991
CWRJ 151500Z AUTO 16003KT 23/17 RMK AO1 SLP133 T02320171 56003
CWIW 151500Z AUTO 18007KT 23/20 RMK AO1 SLP152 T02330201 58006
CWOY 151500Z AUTO 17010KT 24/18 RMK AO1 SLP164 T02370181 50000
CWSR 151500Z AUTO 13006KT 22/15 RMK AO1 SLP151 T02160149 51002
CWWF 151500Z AUTO 16014KT 25/19 RMK AO1 PK WND 15019/1446 SLP163 T02460193 58002
CXCK 151500Z AUTO 11002KT 08/08 RMK AO1 SLP120 T00830081 51002
CYBU 151500Z AUTO 00000KT 9SM FEW045 SCT091 BKN120 18/16 A3000 RMK SLP164 DENSITY ALT 1800FT
CYDA 151500Z VRB02KT 20SM FEW070 SCT200 BKN230 07/05 A2981 RMK AC1CC2CI5 AC TR FU SLP107
CYDB 151500Z 00000KT 15SM FEW008 BKN050 OVC055 07/07 A2983 RMK SC2SF3ST3 SLP127
CYPA 151500Z 15006KT 110V170 15SM BKN040 19/17 A3000 RMK SC7 SLP165 DENSITY ALT 2100FT
CYQR 151500Z 14015KT 15SM FEW020 25/20 A3001 RMK CF1 CF TR SLP160 DENSITY ALT 3400FT
CYQV 151500Z AUTO 15008KT 9SM CLR 22/17 A3004 RMK SLP174 DENSITY ALT 2800FT
CYQW 151500Z AUTO VRB03KT 9SM CLR 22/18 A2997 RMK SLP151 DENSITY ALT 3000FT
CYSF 151500Z AUTO 28007KT 9SM CLR 20/13 A2983 RMK SLP107 DENSITY ALT 1800FT
CYXE 151500Z 06006KT 040V100 15SM FEW090 24/18 A2996 RMK AC1 SLP147 DENSITY ALT 3000FT
CZFA 151500Z 31004KT 30SM FEW008 SCT100 BKN140 09/08 A2983 RMK ST1AC2AC4 VIS SE 15 FU SLP125
CZMJ 151500Z AUTO 12008KT 24/20 RMK AO1 SLP156 T02390204 56007
CYOC 151500Z VRB02KT 35SM SCT037 BKN054 BKN095 BKN230 08/06 A2980 RMK SC3SC4AC1CI1 AC TR CI TR CU ASOCTD SLP106
CYMA 151500Z 03003KT 340V120 20SM OVC100 10/07 A2981 RMK AC8 SLP111
CWVH 151500Z AUTO 28006KT ////SM OVC005 05/04 A2985
CYQH 151500Z 04003KT 30SM OVC065 13/10 A2982 RMK SC8 SLP105 DENSITY ALT 2700FT
CYXY 151500Z 14003KT 8SM -RA FEW002 BKN007 OVC022 10/10 A2984 RMK SF2SC3SC3 VIS SE 3 SLP126 DENSITY ALT 2400FT
LEVT 151500Z 03012KT 340V060 6000 NSC 35/11 Q1018
LFKB 151500Z AUTO 07006KT 040V120 CAVOK 31/19 Q1014 NOSIG
LFKC 151500Z AUTO 20008KT 140V260 CAVOK 34/16 Q1014 NOSIG
LFKF 151500Z AUTO 24016KT CAVOK 35/14 Q1013 TEMPO 27015G25KT
LFKJ 151500Z AUTO 20011KT CAVOK 30/21 Q1015 NOSIG
LFKS 151500Z AUTO 11006KT 080V160 CAVOK 30/20 Q1014
LFLB 151500Z AUTO 29007KT 240V350 CAVOK 34/14 Q1016 NOSIG
LFLC 151500Z AUTO 02009KT 330V060 CAVOK 29/14 Q1019 NOSIG
LFLS 151500Z AUTO 34011KT 320V030 CAVOK 31/08 Q1018 NOSIG
LFRM 151500Z AUTO 33008KT 260V020 CAVOK 29/08 Q1021 NOSIG
LFMD 151500Z AUTO 17007KT 140V210 CAVOK 29/22 Q1013 NOSIG
LFOH 151500Z AUTO 36012KT 340V060 CAVOK 22/08 Q1024 NOSIG
MWCB 151500Z 12008KT 9999 SCT016TCU 29/24 Q1017
OEBH 151500Z 06010KT 9999 FEW030 38/08 Q1006 NOSIG
OEGS 151500Z 02010KT CAVOK 41/12 Q1003
OIII 151500Z 16012KT CAVOK 35/00 Q1012 A2991 NOSIG
RCKH 151500Z 00000KT 9999 FEW016 BKN100 29/24 Q1007 NOSIG RMK A2975
RCMQ 151500Z 18007KT 9999 FEW010 BKN100 26/22 Q1007 RMK A2976
RCNN 151500Z 10002KT 9999 FEW012 BKN080 27/23 Q1007 RMK A2976
RCSS 151500Z 29005KT 260V320 9999 FEW025 SCT150 31/20 Q1004 NOSIG RMK A2966
RCTP 151500Z 23018KT 9999 FEW020 BKN200 31/23 Q1004 NOSIG RMK A2965
RJAA 151500Z AUTO VRB01KT 9999 SCT005 BKN007 BKN013 23/23 Q1001 TEMPO 4000 BR FEW003 BKN005
RJAH 151500Z 06008KT 5000 BR FEW003 BKN004 BKN015 22/22 Q1002
RJCC 151500Z 15013KT 9999 -SHRA FEW015 BKN040 19/16 Q1008
RJFF 151500Z AUTO 16013KT 1600 R16/P2000N +RA BR FEW026 BKN050 OVC080 //////CB 25/22 Q0999 TEMPO TSRA BR
RJAW 151500Z 19012KT 9999 FEW007 SCT015 BKN100 27/26 Q1010 RMK 2ST007 3CU015 5AC100 A2984
RJBB 151500Z AUTO 14007KT 9999 NSC 27/22 Q1000 BECMG 18008KT
RJNK 151500Z VRB02KT 9999 FEW020 24/22 Q1000
RJOH 151500Z 19005KT 9999 FEW030 SCT050 BKN/// 24/22 Q0999
UGSB 151500Z 21004KT 170V240 9999 BKN043 24/19 Q1011 NOSIG
UTAV 151500Z 01008KT CAVOK 36/03 Q1005 R31/CLRD70 NOSIG
RJKA 151500Z AUTO 21015KT 9999 NCD 29/27 Q1002
RJGG 151500Z AUTO 17006KT 9999 -RA FEW022 OVC090 //////TCU 24/23 Q1001 NOSIG
RJKI 151500Z AUTO 22007KT 170V260 9999 SCT012 SCT024 28/27 Q1003
WAOO 151500Z AUTO VRB01KT 6000 NCD 25/25 Q1010
WARR 151500Z 10007KT 8000 SCT020CB 27/25 Q1010 NOSIG
YWLM 151500Z AUTO 33005KT 9999 // NCD 06/06 Q1026 RF00.0/000.0
ZBYN 151500Z 22001MPS 5000 -RA BR FEW026 21/18 Q1007 NOSIG
ZGGG 151500Z 04003MPS 9999 BKN043 27/26 Q1006 NOSIG
ZUGY 151500Z 19005MPS CAVOK 26/20 Q1009 NOSIG
FMMS 151500Z 17008KT 9999 VCSH FEW017 22/18 Q1019
OEWJ 151500Z 31014KT CAVOK 32/25 Q1002 NOSIG
ROIG 151500Z AUTO 22012KT 9999 FEW016 29/27 Q1004
ROMD 151500Z AUTO 22007KT 9999 SCT010 28/27 Q1006
RORY 151500Z AUTO 21009KT 9999 NCD 28/27 Q1003
RPLB 151500Z 04003KT 320V070 9999 FEW020 SCT080 BKN300 28/24 Q1011 NOSIG RMK A2985
RPLI 151500Z 14004KT 9999 FEW018 27/25 Q1009 NOSIG RMK A2980
CWGZ 151500Z 25003KT 200V270 15SM FEW170 OVC240 02/00 A2980 RMK AC1CI7 SLP097
CYYH 151500Z CCA 18003KT 15SM FEW050 FEW120 17/10 A2956 RMK SC1AC1 AC TR HZ ALQDS WIND ESTD SLP013 DENSITY ALT 800FT
WBKK 151500Z 10003KT 070V130 9999 FEW015 25/22 Q1010 NOSIG
SKPV 151500Z 03006KT 9999 SCT017 BKN200 29/25 Q1016 RMK A3000
LCLK 151500Z 20020KT 9999 FEW030 31/22 Q1003 NOSIG
COR WBGG 151500Z VRB02KT 9999 FEW015CB 24/24 Q1010 RETSRA NOSIG
LELC 151500Z 09006KT 050V130 CAVOK 31/20 Q1015 NOSIG
WBSB 151500Z 21003KT 9999 FEW015 BKN270 27/26 Q1010 NOSIG
SARF 151500Z 36009KT 9999 SCT030 SCT100 OVC200 27/17 Q1003
SARP 151500Z 36005KT 9999 BKN020 24/18 Q1005
SASJ 151500Z 18007KT CAVOK 18/07 Q1008
SAZM 151500Z 21008G19KT 180V250 9000 BR OVC005 12/12 Q1008 RMK PP///
SAZS 151500Z 14018KT 9999 VCSH BKN040 BKN050 00/M04 Q1023 RMK PP///
LPBJ 151500Z 17014KT 130V200 CAVOK 37/09 Q1013
MHCA 151500Z 05003KT 9999 SCT028 29/20
MGGT 151500Z 03016KT 9999 FEW018 SCT080 21/16 Q1024 A3024
MBPV 151500Z 12008KT 9999 SCT018 30/22 Q1017
MYNN 151500Z 33015KT 320V020 6000 SHRA FEW008 BKN012CB BKN015TCU 22/22 A3015
SYCJ 151500Z 18004KT 9999 SCT014CB BKN016 29/24 Q1014 NOSIG RMK CB-ALQDS
SKEJ 151500Z 17003KT 9999 SCT015 SCT200 26/25 Q1013 REDZ RMK A2991
FMCZ 151500Z AUTO 19009KT CAVOK 25/18 Q1016 NOSIG
OIBB 151500Z 25010KT 7000 NSC 35/27 Q0995 A2939
YPCC 151500Z AUTO 08013KT 9999 // SCT055 OVC064 27/26 Q1010
SKAR 151500Z 25003KT 180V330 9999 SCT015 SCT080 21/19 Q1022 RMK A3020
SKLC 151500Z 19003KT 9999 SCT017 BKN090 28/24 Q1014 RMK A2994
NTAA 151500Z 11005KT 9999 FEW023 20/16 Q1015 WS ALL RWY NOSIG
TKPK 151500Z 06012KT 9999 FEW018 31/24 Q1016
CWGB 151500Z AUTO 11012KT 16/ RMK AO1 SLP153 T0162 53010
CWEB 151500Z AUTO 00013KT 13/ RMK AO1 6PAST HR 1001 SLP149 P0002 T0128 50012
CWEK 151500Z AUTO 07008KT 12/ RMK AO1 2PAST HR 2006 SLP076 P0012 T0117 50054
CWEL 151500Z AUTO 11018KT 16/13 RMK AO1 PK WND 11022/1437 SLP158 T01550128 53010
SLJO 151500Z 03008KT 9999 FEW017 SCT200 29/23 Q1012
SBAF 151500Z 07005KT CAVOK 28/16 Q1016
SKRH 151500Z 10010KT 9999 FEW018 32/21 Q1013 RMK A2992
SKSM 151500Z 24006KT 9999 FEW020 30/23 Q1014 RMK A2994
SKVP 151500Z 07011KT 040V100 9999 FEW020 30/21 Q1014 RMK A2997
SKVV 151500Z 09004KT 9999 BKN020 27/23 Q1016 RMK A3001
SLCA 151500Z 00000KT 9999 NSC 22/15 Q1009
SLCB 151500Z 24003KT 9999 SCT070 BKN200 19/M02 Q1022
SLCO 151500Z 32006KT 9999 SCT020 SCT080 BKN200 32/23 Q1012
CWLC 151500Z AUTO 16006KT 12/12 RMK AO1 T01190118
CWLP 151500Z AUTO 12019KT 12/12 RMK AO1 PK WND 12023/1444 SLP113 T01150117 58002
CWPF 151500Z AUTO 16006KT 14/11 RMK AO1 SLP163 T01410106 51008
CWNE 151500Z AUTO 06007KT 18/15 RMK AO1 SLP150 T01750146 53001
CWQO 151500Z AUTO 22014KT 14/10 RMK AO1 PK WND 23021/1425 T01360102
CWQR 151500Z AUTO 16002KT 14/12 RMK AO1 T01410117
CWTY 151500Z AUTO 21008KT 21/14 RMK AO1 SLP201 T02060140 56001
SLCP 151500Z 36018KT 9999 BKN017 28/21 Q1015
SBBU 151500Z 02015KT CAVOK 27/14 Q1017
SBBV 151500Z 01005KT 9999 -DZ BKN008 BKN030 FEW035TCU 25/23 Q1015
SBAN 151500Z 03006KT CAVOK 26/10 Q1022
SBAR 151500Z 15010KT 9999 VCSH FEW020 BKN058 26/21 Q1017
SBAT 151500Z 06007KT CAVOK 36/18 Q1014
SBAX 151500Z AUTO 02006KT 300V110 CAVOK 25/11 Q1022
SBBE 151500Z 10007KT 9999 BKN030 31/24 Q1013
SBBW 151500Z 09012KT CAVOK 32/18 Q1016
SBCC 151500Z 04011KT 9999 SCT040 31/18 Q1015
SBBH 151500Z 02006KT 9999 BKN030 25/12 Q1022
SBBI 151500Z 33018KT CAVOK 22/12 Q1017
SBBQ 151500Z 35007KT 9999 SCT030 22/11 Q1024
SBRJ 151500Z 32003KT 280V360 CAVOK 26/17 Q1015
SBCA 151500Z 02020G30KT CAVOK 25/11 Q1013
SBCF 151500Z 02007KT 9999 SCT030 24/12 Q1023
SBCR 151500Z 35012KT 300V020 9999 FEW040 32/18 Q1010
SBCH 151500Z 36016KT 9999 SCT020 25/11 Q1010
SBCG 151500Z 34017KT CAVOK 29/12 Q1014
SBCJ 151500Z 00000KT 9999 FEW025 29/20 Q1017
SBCP 151500Z 06013KT 9999 SCT020 27/17 Q1019
SBDN 151500Z 01011KT CAVOK 28/12 Q1015
SBEG 151500Z 07006KT 010V100 9999 FEW020 32/22 Q1013
SBCO 151500Z 11006KT 5000 -RA BR FEW005 BKN100 18/18 Q1008
SBCY 151500Z 34010KT CAVOK 33/15 Q1014
SBES 151500Z 06021KT 9999 FEW020 27/19 Q1017
SBFI 151500Z 36017KT 9999 FEW020 BKN100 25/13 Q1010
SBFS 151500Z 04015KT 9999 FEW020 27/20 Q1019
SBGL 151500Z 12008KT CAVOK 27/18 Q1015
SBGM 151500Z 32008KT 9999 SCT028 31/23 Q1013
SBGO 151500Z 04009KT 360V090 CAVOK 29/09 Q1020
SBGR 151500Z 01013KT CAVOK 25/12 Q1018
SBGW 151500Z 07004KT 360V140 CAVOK 27/14 Q1018
SBIZ 151500Z 12010KT CAVOK 33/21 Q1013
SBIP 151500Z AUTO 01009KT 330V050 9999 BKN034 27/12 Q1021
SBJR 151500Z 02005KT CAVOK 32/18 Q1015
SBKG 151500Z 14012KT 9999 BKN023 26/18 Q1017
SBKP 151500Z 02013KT CAVOK 26/11 Q1018
SBLE 151500Z AUTO 20005KT 140V260 //// // SCT041/// 25/17 Q1021
SBME 151500Z 05013KT 9999 SCT020 29/19 Q1017
SBLO 151500Z 05005KT CAVOK 26/15 Q1016
SBLS 151500Z 04006KT 330V070 9999 BKN035 24/14 Q1022
SBMA 151500Z 10006KT 9999 SCT020 34/21 Q1013
SBMN 151500Z 11002KT 9999 FEW015 31/24 Q1013
SBMO 151500Z 15011KT 9999 BKN026 27/21 Q1016
SBMS 151500Z 15008KT 9999 FEW030 BKN100 33/18 Q1013
SBMT 151500Z 35009KT CAVOK 25/11 Q1018
SBMY 151500Z AUTO 03006KT 320V090 9999 BKN027 BKN031 31/25 Q1013
SBNF 151500Z 02005KT 9999 FEW015 22/19 Q1012
SBMG 151500Z 02015G25KT 350V080 CAVOK 27/13 Q1013
SBMK 151500Z 09009KT 060V120 CAVOK 26/09 Q1021
SBNM 151500Z 02018KT 9999 VCSH SCT030 SCT070 23/16 Q1006
SBNT 151500Z 15009KT 7000 -SHRA SCT016 BKN023 OVC050 27/24 Q1014
SBOI 151500Z 03006KT 9999 FEW015 BKN040 27/24 Q1014
SBPR 151500Z 36003KT 9999 SCT025 25/13 Q1023
SBPS 151500Z VRB05KT 1000 RA BR BKN006 BKN020 OVC035 21/21 Q1020
SBRB 151500Z 30005KT 9999 SCT025 30/24 Q1013
SBPV 151500Z 35004KT CAVOK 31/22 Q1012
SBTF 151500Z 04005KT 9999 FEW016 30/25 Q1013
SBRP 151500Z 34009KT CAVOK 29/10 Q1018
SBTE 151500Z 16011KT CAVOK 30/18 Q1013
ULLI 151500Z 23007MPS 9999 SCT030TCU 20/07 Q1003 R88/090060 TEMPO 3000 -TSRA BKN017CB
ULMM 151500Z 16004MPS 9999 SCT042 25/10 Q1000 R13/090070 NOSIG RMK QFE744
UNKL 151500Z 27001MPS CAVOK 12/10 Q1013 R29/CLRD65 NOSIG RMK QFE734
UACC 151500Z 07003MPS 9999 SCT046 25/13 Q1011 NOSIG RMK QFE727/0969
UERR 151500Z 32003MPS 9999 SCT030CB 17/15 Q1007 R25/CLRD60 NOSIG RMK QFE725/0966
UIUU 151500Z 32002MPS 9999 SCT050CB 15/12 Q1009 R26/CLRD60 NOSIG RMK QFE712/0950
UATT 151500Z 28007MPS CAVOK 31/10 Q1008 NOSIG RMK QFE736/0982
UEEE 151500Z 32001MPS CAVOK 20/19 Q1009 R23L/09//60 NOSIG RMK QFE748
ULAA 151500Z 00000MPS 9999 SCT026CB 23/18 Q1001 R08/CLRD70 NOSIG RMK QFE750/1000
UAAA 151500Z 16003MPS 9999 FEW100 27/10 Q1010 NOSIG
UASK 151500Z 06003MPS 9999 SCT046 BKN100 22/14 Q1010 NOSIG RMK QFE732/0977
UASP 151500Z 03004MPS 9999 FEW050CB 24/16 Q1009 NOSIG RMK QFE746/0994
UATE 151500Z 02008G14MPS CAVOK 33/14 Q1011 NOSIG RMK QFE756/1009
UATG 151500Z 31005MPS CAVOK 33/07 Q1011 NOSIG RMK QFE760/1014
UAUU 151500Z 12004MPS 080V150 5000 FU BKN043CB 25/18 Q1010 NOSIG RMK QFE742/0989
UERP 151500Z 04005G10MPS 5000 -SHRA BR BKN004 OVC020CB 09/08 Q1014 R35/290150 RMK QBB140 QFE716
URKK 151500Z 05005MPS CAVOK 27/17 Q1010 R05R/CLRD70 NOSIG RMK QFE754
URML 151500Z 13004MPS 9999 NSC 26/19 Q1012 R14/01//70 NOSIG RMK QFE759/1012
USRR 151500Z 12002MPS CAVOK 21/14 Q1012 R25/CLRD60 NOSIG RMK QFE753
USTR 151500Z 14003MPS 9999 FEW///CB 28/17 Q1008 R21/CLRD65 R30/////99 TEMPO VRB20MPS 3100 -TSRAGR SQ BKN007 BKN016CB
UWKD 151500Z VRB01MPS 9999 OVC008 18/16 Q1005 R29/2/0050 NOSIG RMK QFE742/0990
RKPC 151500Z 24005KT 9999 FEW015 24/23 Q0999 NOSIG
UUBP 151500Z 24002MPS 190V270 9999 SCT062CB 18/13 Q1011 R16/////// NOSIG RMK QFE740/0987
UUOO 151500Z 22003MPS 180V260 CAVOK 27/09 Q1011 R30/010070 NOSIG RMK QFE745
URWA 151500Z 07004MPS 040V100 CAVOK 31/12 Q1012 R09/010070 NOSIG RMK QFE761/1015
UUYY 151500Z 15003MPS 9999 SCT040CB 21/19 Q1002 R18/CLRD61 TEMPO 1000 TSRA RMK QFE743/0991
URMN 151500Z 25002MPS 9999 FEW/// 26/13 Q1013 R24/010070 NOSIG RMK QFE723
URWW 151500Z 02002MPS 350V060 CAVOK 29/10 Q1013 R06/010070 NOSIG
UUOB 151500Z 23004MPS CAVOK 28/14 Q1011 R29/010070 NOSIG
ZGNN 151500Z 20002MPS CAVOK 28/26 Q1005 NOSIG
UWLL 151500Z 27006MPS 9999 BKN020CB 19/18 Q1007 R20/090065 NOSIG RMK QFE745/0994
UWLW 151500Z 25005MPS 9999 BKN046CB 21/17 Q1007 R20/150055 NOSIG RMK QFE749/0999
UWOR 151500Z 30007MPS CAVOK 30/15 Q1007 R25/CLRD65 NOSIG RMK QFE732/0976
ZBAA 151500Z 09001MPS CAVOK 27/22 Q0999 NOSIG
ZBHH 151500Z 03002MPS CAVOK 23/09 Q1007 NOSIG
ZBTJ 151500Z VRB01MPS CAVOK 32/22 Q0999 NOSIG
ZYTL 151500Z 27003MPS CAVOK 23/19 Q1000 NOSIG
ZYTX 151500Z VRB01MPS 9999 BKN030 22/21 Q0998 NOSIG
RJOO 151500Z AUTO 24003KT 9999 NSC 26/24 Q1000
RJSM 151500Z 13010KT 3000 BR FEW000 BKN002 OVC015 19/19 Q1006
RJTT 151500Z 19004KT 9999 FEW006 SCT010 BKN020 24/24 Q1001 BECMG 32006KT
RKJB 151500Z AUTO 36003KT 6000 ///015/// 24/22 Q1000
URWI 151500Z AUTO 07002MPS 040V110 9999 // ///////// 30/08 Q1013
RKNY 151500Z AUTO 08002KT 9999 NCD 22/20 Q0997
RKSS 151500Z 24003KT 210V270 7000 FEW011 24/22 Q0998 NOSIG
RKTN 151500Z 14001KT CAVOK 24/18 Q0998
RKTU 151500Z 18001KT 9999 FEW030 22/20 Q0999
RPLC 151500Z 17006KT 8000 FEW020 SCT300 27/25 Q1011 NOSIG RMK A2985
RPMD 151500Z 36002KT 9999 FEW016 BKN090 OVC260 26/23 Q1010 RMK A2983
VAAH 151500Z 12003KT 3000 -TSRA SCT010 SCT015 FEW030CB OVC080 27/26 Q0996 TEMPO 1500 TSRA
VARK 151500Z 10003KT 5000 SCT012 SCT020 BKN080 27/26 Q0995 TEMPO 3000 RA
VIAR 151500Z VRB02KT 5000 BR SCT030 BKN090 28/23 Q1002 NOSIG
VOBG 151500Z 26013KT 6000 SCT008 SCT012 BKN080 22/20 Q1011 NOSIG
VTCT 151500Z 00000KT 9999 FEW045 27/27 Q1007 NOSIG
VOBL 151500Z 23010KT 6000 FEW008 SCT012 22/20 Q1011 NOSIG
VTBD 151500Z 19005KT 9999 FEW020 SCT090 29/26 Q1006 NOSIG
VTCC 151500Z VRB02KT 9999 FEW025CB BKN032 26/24 Q1007 NOSIG
VTSS 151500Z 00000KT 9999 FEW020 27/24 Q1008 NOSIG
VTSP 151500Z 24004KT 210V270 9999 FEW020 28/25 Q1008 NOSIG
VTUD 151500Z VRB01KT 9999 FEW025 26/26 Q1006 NOSIG
VTUK 151500Z 03002KT 9000 FEW025 SCT080 27/26 Q1007 NOSIG
WADD 151500Z 09010KT 9999 SCT016 26/24 Q1011 NOSIG
WAMM 151500Z VRB01KT 9999 SCT020 23/22 Q1011 NOSIG
WAPP 151500Z 18007KT 9999 SCT016 27/23 Q1011 NOSIG
WIBB 151500Z 00000KT 8000 FEW015 26/24 Q1008 NOSIG
WIDD 151500Z 18004KT 9999 FEW014 27/25 Q1011 NOSIG
WIMM 151500Z 11004KT 6000 SCT017 28/27 Q1008 NOSIG
WIOO 151500Z 30003KT 6000 FEW014 27/25 Q1009 NOSIG
WIPP 151500Z 17004KT 9999 FEW010 25/23 Q1010 NOSIG
WALL 151500Z 02002KT 9000 FEW020 27/25 Q1010 NOSIG
YBRM 151500Z AUTO 00000KT 9999 // NCD 12/10 Q1016 RF00.0/000.0
YMAV 151500Z AUTO 05007KT 9999 // NCD 09/07 Q1021 RF00.0/000.0
NCRG 151500Z AUTO 09012KT 9999 BKN042/// 23/15 Q1020
NIUE 151500Z AUTO 08006KT 24/21 Q1017
NLWW 151500Z AUTO 10009KT 9999 NCD 27/24 Q1012 TEMPO 2000 TSRA BKN014 SCT018CB
NVVV 151500Z 10005KT 9000 -SHRA FEW015 BKN018 OVC110 22/21 Q1015
UMMS 151500Z 28008G11MPS CAVOK 18/10 Q1011 TEMPO 3000 -TSRA BKN030CB
MWCR 151500Z 16003KT 090V190 9999 VCSH FEW016TCU 30/24 Q1017
WSAP 151500Z 17006KT 9999 FEW018 BKN300 28/24 Q1009
WSSL 151500Z 14005KT 100V170 9999 FEW018 SCT350 28/25 Q1009
UBBB 151500Z 34014KT CAVOK 27/20 Q1011 NOSIG
UBBG 151500Z 08020KT 9999 FEW100 34/15 Q1009 NOSIG
UTDD 151500Z 27003MPS 9999 NSC 33/09 Q1007 R09/CLRD// NOSIG RMK QFE687/0916
UTSA 151500Z 36008KT 9999 NSC 34/01 Q1006 R07/CLRD70 NOSIG
UTFN 151500Z 00000KT 9999 NSC 32/14 Q1005 R28/CLRD70 NOSIG
UTSK 151500Z 00000KT CAVOK 34/11 Q1004 R16/CLRD70
VDPP 151500Z 19005KT 9000 SCT015 SCT040 28/25 Q1006
VDSR 151500Z 22004KT 9000 SCT015 28/27 Q1005
CWHV 151500Z AUTO 09003KT 22/15 RMK AO1 SLP192 T02190147 56004
CYBC 151500Z AUTO 23016KT 9SM CLR 19/12 A2994 RMK SLP143 DENSITY ALT 600FT
CYBG 151500Z 29009KT 25SM FEW040 22/11 A3007 RMK CU1 SLP184
CYBX 151500Z 24004KT 15SM OVC130 14/12 A2993 RMK AC8 SLP137
CYLA 151500Z 32008KT 15SM FEW060 SCT250 20/06 A2989 RMK SC1CI2 WIND ESTD SLP127 DENSITY ALT 800FT
CWOC 151500Z AUTO 22003KT 18/13 RMK AO1 SLP148 T01820127 58007
CWPD 151500Z AUTO 01006KT 17/08 RMK AO1 SLP174 T01710075 55002
CWPK 151500Z AUTO 31002KT 20/09 RMK AO1 SLP212 T02040089 58002
CWTG 151500Z AUTO 26015KT 14/10 RMK AO1 PK WND 26018/1456 SLP137 T01360095 58007
CYQB 151500Z 21011KT 30SM FEW050 22/16 A3008 RMK CU1 CU TR SLP189 DENSITY ALT 1000FT
CYHU 151500Z AUTO 23005KT 170V270 9SM CLR 23/15 A3013 RMK SLP205 DENSITY ALT 900FT
CXZV 151500Z AUTO 18005KT 18/12 RMK AO1 SLP117 T01770115 58012
CYKL 151500Z AUTO 34010G15KT 320V080 9SM SCT027 BKN034 BKN041 OVC060 12/07 A2990 RMK SLP142 DENSITY ALT 1800FT
CYZV 151500Z 21011KT 30SM FEW055 FEW100 SCT260 19/13 A2988 RMK CU2AC1CI1 AC TR SLP121 DENSITY ALT 800FT
CWBA 151500Z AUTO 17004KT 23/14 RMK AO1 T02270136
CWIT 151500Z AUTO 26005KT 23/13 RMK AO1 SLP205 T02340128
CWVQ 151500Z AUTO 26006KT 23/13 RMK AO1 SLP208 T02340133 54000
CYTQ 151500Z 26005KT 15SM FEW020 17/06 A2992 RMK SC1 SLP135 DENSITY ALT 400FT
UTST 151500Z 27004KT CAVOK 34/07 Q1003 R25/CLRD70 NOSIG
TRPG 151500Z 10022KT 9999 SCT020 29/24 Q1017
CWIZ 151500Z AUTO 25003KT 24/14 RMK AO1 T02390142
CYVO 151500Z 00000KT 15SM FEW052 FEW230 23/08 A3014 RMK SC1CI2 SC TR SLP213 DENSITY ALT 2000FT
CWEW 151500Z AUTO 17003KT 23/13 RMK AO1 SLP210 T02330126 55000
LEDA 151500Z 24005KT 190V300 CAVOK 36/13 Q1016
UTTT 151500Z 23008KT CAVOK 33/10 Q1006 R26L/CLRD70 NOSIG
CYVC 151500Z 24004KT 160V280 15SM FEW250 23/13 A2997 RMK CI2 SLP154 DENSITY ALT 2500FT
UTNU 151500Z 34006KT CAVOK 33/16 Q1008 R31/CLRD70 NOSIG
HDAM 151500Z 28012KT 9999 FEW023 42/23 Q1000
LQMO 151500Z 15014KT 9999 FEW045 37/11 Q1009
UTNN 151500Z 33004KT CAVOK 36/05 Q1009 R33/CLRD60 NOSIG
CYMH 151500Z AUTO 14007KT 2 1/2SM HZ BKN100 BKN120 23/11 A2985 RMK LTNG DIST NW SLP111 DENSITY ALT 1100FT
OIMQ 151500Z AUTO 06008KT //// // ////// 35/M02 Q1011
CYYT 151500Z VRB04KT 15SM OVC012 19/15 A2993 RMK SC8 SLP140 DENSITY ALT 1000FT
NSFA 151500Z 08008KT 9999 RA FEW018CB SCT020 BKN035 24/22 Q1012 RMK CB BASE TO SE
TAPA 151500Z 09012KT 050V130 9999 -SHRA BKN018 30/24 Q1016 NOSIG
NZAA 151500Z AUTO 21011KT 9999 SCT016/// BKN029/// BKN039/// 11/10 Q1010 NOSIG
TTCP 151500Z 10011KT 9999 FEW010CB SCT014 27/24 Q1013 NOSIG RMK CB-W VCSH-SE SW NW
TBPB 151500Z 10022KT 9999 VCSH SCT018 SCT040 31/24 Q1014 NOSIG
CWXA 151500Z AUTO 00025KT 18/02 RMK AO1 SLP168 T01780017 50001
CXBA 151500Z AUTO 07004KT 23/19 RMK AO1 T02340193
CXBR 151500Z AUTO 22002KT RMK AO1
CYYC 151500Z 00000KT 40SM FEW052 21/07 A2998 RMK SC1 SC TR SLP136 DENSITY ALT 5100FT
CXCP 151500Z AUTO 30004KT 21/10 RMK AO1 T02140101
CWCT 151500Z AUTO 14006KT 22/13 RMK AO1 SOG 01 6002 SLP131 T02190127
CXFM 151500Z AUTO 16006KT 21/13 RMK AO1 T02140128
CYPY 151500Z AUTO 26006KT 9SM SCT230 20/13 A2983 RMK SLP107 DENSITY ALT 1600FT
CWDK 151500Z AUTO 28002KT 24/08 RMK AO1 SLP133 T02350077 52007
CWFJ 151500Z AUTO 11001KT 21/11 RMK AO1 T02110110
CXCD 151500Z AUTO 20009KT 15/11 RMK AO1 T01540106
CXEG 151500Z AUTO 01004KT 20/15 RMK AO1 SLP134 T02000152 51001
CYBW 151500Z AUTO 34005KT 9SM CLR 17/09 A3000 RMK SLP157 DENSITY ALT 5000FT
CYEG 151500Z 01004KT 20SM BKN160 20/16 A2993 RMK AC6 SLP134 DENSITY ALT 3500FT
CYOD 151500Z 00000KT 15SM FEW120 FEW200 21/16 A2997 RMK AC1CI1 DENSITY ALT 3070FT SLP146
CYOJ 151500Z 16003KT 130V220 15SM FEW200 SCT260 17/12 A2980 RMK CC1CI3 SLP099 DENSITY ALT 1800FT
CXHR 151500Z AUTO 31005KT 19/16 RMK AO1 T01930158
CXOY 151500Z AUTO 16008KT 26/15 RMK AO1 T02560150
CWJW 151500Z AUTO 11003KT 13/07 RMK AO1 SLP147 T01300069 50001
CWOE 151500Z AUTO 11009KT 24/10 RMK AO1 SLP134 T02360095 54000
CWRY 151500Z AUTO 30005KT 20/09 RMK AO1 SLP142 T02020090 51002
CXHD 151500Z AUTO 08004KT 21/16 RMK AO1 T02110155
CXHP 151500Z AUTO 13003KT 18/12 RMK AO1 T01820116
CXKM 151500Z AUTO 09008KT 22/17 RMK AO1 T02200174
CXMG 151500Z AUTO 21006KT 18/12 RMK AO1 T01780118
CXMO 151500Z AUTO 24003KT 17/16 RMK AO1 T01670160 50018
CXOL 151500Z AUTO 28008KT 18/16 RMK AO1 T01830161
CYLL 151500Z 09005KT 15SM FEW150 FEW260 20/15 A2996 RMK AC1CI1 SLP146 DENSITY ALT 3300FT
CYQL 151500Z 23005KT 60SM SKC 20/10 A2997 RMK SLP138 DENSITY ALT 4400FT
CYXH 151500Z 22003KT 160V260 30SM SKC 22/12 A2993 RMK SLP124 DENSITY ALT 3700FT
CZOL 151500Z AUTO 09002KT 20/18 RMK AO1 T02010175
CXRL 151500Z AUTO 11004KT 19/16 RMK AO1 T01890158
CXWM 151500Z AUTO 25003KT 22/14 RMK AO1 T02160138
CPIR 151500Z AUTO 24006KT 21/12 RMK AO1 T02060119
CWVI 151500Z AUTO 05003KT 20/15 RMK AO1 T02010152
CWAV 151500Z AUTO 25004KT 18/07 RMK AO1 SLP136 T01830069 50000
CWHI 151500Z AUTO 27007KT 18/14 RMK AO1 T01820139
CWYL 151500Z AUTO 00000KT 12/ RMK AO1 SLP151 T0115 58004
CXAK 151500Z AUTO 36002KT 19/19 RMK AO1 T01880188
CXPA 151500Z AUTO 13001KT 16/12 RMK AO1 T01600122
CXPL 151500Z AUTO 18004KT 19/14 RMK AO1 T01930144
CXSC 151500Z AUTO 17005KT 24/14 RMK AO1 T02360135
CXSL 151500Z AUTO 06004KT 20/17 RMK AO1 T02040166
CXSP 151500Z AUTO 04005KT 20/16 RMK AO1 T02010155
CXTH 151500Z AUTO 07006KT 21/16 RMK AO1 T02120158
CXVM 151500Z AUTO 07004KT 21/18 RMK AO1 T02090182
CYQF 151500Z AUTO 26004KT 220V300 9SM CLR 19/16 A2994 RMK SLP138 DENSITY ALT 4100FT
CYZH 151500Z AUTO 10004KT 060V190 9SM SCT130 17/12 A2995 RMK SLP148 DENSITY ALT 2600FT
CZPC 151500Z AUTO 35007KT 9SM CLR 18/08 A3002 RMK SLP147 DENSITY ALT 5000FT
CPRO 151500Z AUTO 26007KT 18/13 RMK AO1 T01840134
CPRY 151500Z AUTO 24007KT 23/07 RMK AO1 T02330069
CZZJ 151500Z AUTO 01003KT 15/10 RMK AO1 SLP142 T01450100 58001
CPST 151500Z AUTO 29005KT 20/14 RMK AO1 T01990136 50009
CYBD 151500Z 00000KT 4SM -RA BR SCT004 BKN020 OVC085 15/14 A2988 RMK SC3SC3AC2 -RA INTMT SLP119 DENSITY ALT 200FT
CYYE 151500Z 15004KT 30SM FEW090 BKN200 16/12 A2980 RMK AC2CI4 SLP096 DENSITY ALT 1800FT
CBBC 151500Z AUTO VRB02KT 5SM -RA BR OVC009 13/13 A2988 RMK SLP120
CWKX 151500Z AUTO 07005KT 11/08 RMK AO1 SLP121 T01140083 50001
CWLY 151500Z AUTO 18016G23KT 9SM CLR 19/09 A2992 RMK SLP132 DENSITY ALT 1500FT
CWNP 151500Z AUTO 25001KT 20/13 RMK AO1 SLP144 T02000131 51006
CWPZ 151500Z AUTO 11003KT 13/12 RMK AO1 3001 SLP121 T01330115 50001
CWZA 151500Z AUTO 14002KT 17/14 RMK AO1 SLP169 T01680136 53010
CYCD 151500Z 06004KT 20SM BKN100 BKN150 17/10 A3000 RMK AC6AC1 SLP160 DENSITY ALT 300FT
CYCP 151500Z 00000KT 15SM FEW110 BKN130 BKN160 15/11 A2998 RMK AC2AC3AC2 SLP151 DENSITY ALT 2800FT
CYGE 151500Z 15010KT 140V210 20SM FEW120 16/09 A3003 RMK AC1 AC TR SLP161 DENSITY ALT 3200FT
CYHE 151500Z AUTO 00000KT 9SM CLR 17/13 A3002 RMK SLP169 DENSITY ALT 400FT
CYKA 151500Z 00000KT 40SM SCT140 BKN180 BKN250 21/10 A2992 RMK AC4AC1CI1 SLP131 DENSITY ALT 2200FT
CYLW 151500Z AUTO 00000KT 9SM CLR 20/09 A2996 RMK SLP138 DENSITY ALT 2300FT
CYXJ 151500Z 20005KT 15SM -RA BKN100 OVC240 16/10 A2991 RMK AC6CI2 SLP137 DENSITY ALT 2900FT
CYXX 151500Z 24005KT 30SM FEW110 BKN140 17/12 A3003 RMK AC1AC5 SLP172 DENSITY ALT 400FT
CYZY 151500Z AUTO 10003KT 9SM -RA BKN066 OVC080 14/12 A2992 RMK SLP144 DENSITY ALT 2700FT
CZMT 151500Z 33003KT 1SM -RA BR SCT002 BKN008 OVC012 11/11 A2981 RMK ST4ST2ST2 SLP097
CYDC 151500Z 11002KT 25SM SCT160 SCT220 15/08 A3004 RMK AC3CI1 SLP162 DENSITY ALT 2700FT
CWYY 151500Z AUTO 33001KT 19/12 RMK AO1 SLP133 T01900123 51007
CWGW 151500Z AUTO 05002KT 14/06 RMK AO1 SLP181 T01390055 50002
CWMM 151500Z AUTO 09002KT 19/11 RMK AO1 SLP176 T01870111 51010
CWNM 151500Z AUTO 03004KT 19/10 RMK AO1 SLP149 T01850095
CWSK 151500Z AUTO 03001KT 17/12 RMK AO1 SLP157 T01660121 51005
CWSL 151500Z AUTO 25001KT 18/11 RMK AO1 SLP145 T01750108 51006
CWSP 151500Z AUTO 30013KT 16/12 RMK AO1 PK WND 29018/1410 SLP170 T01590119 53008
CWSW 151500Z VRB02KT 20SM SKC 13/07 A3009 RMK SLP180 DENSITY ALT 4300FT
CYCG 151500Z VRB02KT 15SM FEW120 18/11 A2998 RMK AC1 AC TR SLP147 DENSITY ALT 2300FT
CYQZ 151500Z AUTO 21003KT 160V240 8SM -RA BKN004 OVC010 13/13 A2992 RMK SLP143 DENSITY ALT 2000FT
CYRV 151500Z AUTO 00000KT 9SM CLR 16/10 A2998 RMK SLP149 DENSITY ALT 1900FT
CYXT 151500Z 00000KT 4SM -RA BR FEW003 BKN020 BKN050 OVC080 13/13 A2985 RMK SF2SC4SC1AC1 PRESRR SLP112 DENSITY ALT 800FT
CYYD 151500Z 14003KT 110V180 3SM BR OVC003 12/12 A2985 RMK ST8 VIS VRB 2 1/2 - 3 1/2 SLP113 DENSITY ALT 1900FT
CYYF 151500Z 02002KT 15SM FEW220 22/10 A2994 RMK CI1 SLP136 DENSITY ALT 2200FT
CYZP 151500Z AUTO 26004KT 9SM BKN040 OVC047 12/11 A2981 RMK SLP098
CZST 151500Z 10002KT 2 1/2SM -RA BR BKN007 OVC045 12/11 A2984 RMK SC6SC2 SLP106
AYPY 151500Z 14015KT 9999 BKN060 24/19 Q1013
GUCY 151500Z 20008KT 9999 BKN015 BKN110 28/25 Q1012 NOSIG
UDSG 151500Z 06025G36KT 9999 NSC 26/11 Q1016 R02/CLRD70 NOSIG
UDYZ 151500Z 06005KT 9999 NSC 37/M01 Q1008 R09/010070 NOSIG
FBMN 151500Z 10010KT CAVOK 25/01 Q1022
SLYA 151500Z 00000KT 9999 NSC 22/14 Q1003
SBTA 151500Z 06005KT CAVOK 25/11 Q1018
WMKK 151500Z VRB02KT 9999 FEW030 27/25 Q1008 NOSIG
WMKI 151500Z VRB01KT 8000 FEW027 28/24 Q1009
WMKP 151500Z 00000KT 8000 FEW025 28/25 Q1008 NOSIG
EICK 151500Z 21005KT 9999 BKN028 21/14 Q1025 NOSIG
EIDW 151500Z 29010KT 260V320 9999 FEW020 BKN030 20/13 Q1024 NOSIG
GMMC 151500Z 34008KT CAVOK 26/21 Q1012
GAMB 151500Z 28012KT 9999 FEW027 37/20 Q1008
GANR 151500Z 30008KT CAVOK 33/24 Q1010
GMFF 151500Z 01008KT 320V080 9999 FEW033 41/13 Q1013 NOSIG
GMFK 151500Z 20008KT CAVOK 38/00 Q1017 NOSIG
GMFM 151500Z 32011KT 290V360 CAVOK 40/17 Q1012 NOSIG
GMFO 151500Z 33017KT 9999 NCD 33/16 Q1015 NOSIG
GMME 151500Z 35007KT 280V040 5000 FEW010 27/21 Q1010 NOSIG
GMMI 151500Z 31013KT 8000 NSC 29/20 Q1011 NOSIG
COR GMMN 151500Z 34011KT 310V010 CAVOK 30/19 Q1012 NOSIG
GMMW 151500Z 05014KT 020V080 CAVOK 29/20 Q1014 NOSIG
GMMX 151500Z VRB08KT 9999 FEW040TCU SCT100 43/13 Q1011 NOSIG
DAAP 151500Z 13005KT CAVOK 40/03 Q1011
DAAT 151500Z 09004KT 9999 SCT046 37/// Q1016
DAAG 151500Z 05016KT 9999 FEW023 31/18 Q1014
DAAJ 151500Z 25005KT CAVOK 36/M00 Q1014
GMTN 151500Z 08014KT 9999 FEW020 27/19 Q1014 NOSIG
DAAE 151500Z 07005KT 9999 FEW020 28/22 Q1015
DAAV 151500Z 33007KT 9999 FEW023 29/21 Q1014
DABB 151500Z 03012KT CAVOK 29/21 Q1014
DABC 151500Z 03011KT 9999 FEW033 34/11 Q1017
GMMZ 151500Z 34016KT 8000 BKN040 38/M01 Q1016 NOSIG
GMTA 151500Z 35011KT 300V010 CAVOK 31/21 Q1012 NOSIG
GMTT 151500Z 05017KT CAVOK 33/17 Q1011 NOSIG
GOTT 151500Z 15002KT 9999 BKN016 34/24 Q1011
GQPP 151500Z 35017KT 8000 NSC 24/19 Q1011 NOSIG
DAUA 151500Z 06023KT 6000 DRSA NSC 43/// Q1008
DAOI 151500Z 02011KT CAVOK 39/01 Q1012
DAON 151500Z 31008KT CAVOK 31/19 Q1014
DAOO 151500Z 34015KT CAVOK 30/17 Q1013
DAOR 151500Z 16006KT CAVOK 39/00 Q1015
DAUB 151500Z 23004KT 9999 FEW040 39/11 Q1012
DAUE 151500Z 07007KT 010V150 CAVOK 39/06 Q1013
DAUG 151500Z VRB02KT 9999 FEW046 37/08 Q1015
DAUH 151500Z 07008KT 030V110 9999 SCT040 39/10 Q1011
DAUI 151500Z 07017KT 7000 NSC 43/// Q1007
DAUZ 151500Z 06007KT 020V160 8000 FEW040 35/05 Q1014
DTKA 151500Z 35010KT CAVOK 30/16 Q1015 NOSIG
DTTZ 151500Z VRB06KT CAVOK 38/13 Q1012 NOSIG
DTMB 151500Z 10010KT 9999 FEW023 31/16 Q1014
DTTB 151500Z 01010KT 340V040 9999 FEW020 32/12 Q1015
DTTF 151500Z 12006KT 070V170 8000 SCT023 35/12 Q1014 NOSIG
DTTG 151500Z 08010KT 020V130 9999 FEW020 33/12 Q1014 NOSIG
DTTJ 151500Z 09010KT 030V120 9999 FEW020 31/18 Q1014 NOSIG
DTTK 151500Z 06004KT CAVOK 36/10 Q1013
DTTN 151500Z 08006KT 020V190 9999 FEW020 37/03 Q1012 SIROCCO
DTTX 151500Z 10008KT 060V150 CAVOK 30/21 Q1014
FABL 151500Z 02001KT CAVOK 19/M04 Q1028 NOSIG
FACT 151500Z 22006KT CAVOK 18/13 Q1022 NOSIG
FAEL 151500Z 06007KT 9999 FEW020 16/13 Q1027
FAGG 151500Z 10008KT CAVOK 14/11 Q1024
CWJV 151500Z AUTO 08001KT 19/10 RMK AO1 1005 SLP140 T01910104 50002
FAUP 151500Z 32002KT CAVOK 25/M05 Q1024 NOSIG
CWLM 151500Z AUTO 21012KT 12/10 RMK AO1 SLP168 T01200098 52010
CWYJ 151500Z AUTO 21003KT 15/11 RMK AO1 SLP169 T01540109 51010
CYAZ 151500Z 12004KT 3SM -RA BR FEW005 OVC010 13/13 A3000 RMK SF2SC6 VIS LWR SW SLP161
CYWH 151500Z 16006KT 140V220 15SM FEW020 FEW090 SCT160 13/10 A3002 RMK SC1AC2AC2 SC TR SLP169
CYYJ 151500Z 10004KT 040V120 30SM SCT170 SCT200 SCT250 16/10 A3002 RMK AC3CC1CI1 CI TR SLP167 DENSITY ALT 100FT
FAWB 151500Z AUTO 07007KT //// // ////// 18/M01 Q1028
FAWK 151500Z AUTO 04004KT //// // ////// 17/M00 Q1030
CWWK 151500Z AUTO 09002KT 16/11 RMK AO1 SLP176 T01610111 51010
CXDW 151500Z AUTO 29003KT 23/20 RMK AO1 SLP176 T02290196 51006
CWPE 151500Z AUTO 34007KT 23/16 RMK AO1 SLP160 T02290158 51004
CXMD 151500Z AUTO 33003KT 23/19 RMK AO1 SLP180 T02330194 51006
CYWG 151500Z VRB02KT 15SM FEW045 FEW250 24/19 A3003 RMK CU1CI1 CU TR CI TR SLP172 DENSITY ALT 1900FT
CERM 151500Z AUTO 32005KT 22/14 RMK AO1 SLP168 T02150142 58004
CWCF 151500Z AUTO 27005KT 22/16 RMK AO1 SLP161 T02230164 53006
CWEQ 151500Z AUTO 20003KT 22/15 RMK AO1 SLP166 T02230153 53001
CWII 151500Z AUTO 28002KT 21/20 RMK AO1 SLP173 T02080195 51006
CWPO 151500Z AUTO 18001KT 22/20 RMK AO1 SLP189 T02180203 50002
CWWA 151500Z AUTO 10002KT 18/11 RMK AO1 SLP169 T01820110 51012
CXGH 151500Z AUTO 14003KT 21/19 RMK AO1 SLP164 T02050194
CXWN 151500Z AUTO 23002KT 24/18 RMK AO1 SLP169 T02400184 53001
CYBR 151500Z 09006KT 15SM FEW015 23/20 A3006 RMK SC1 SC TR SLP1 83 DENSITY ALT 2500FT
CYCX 151500Z 29004KT 15SM SCT025 22/16 A3001 RMK CU4 DENSITY ALT 1195FT SLP163
CYDN 151500Z AUTO 00000KT 9SM CLR 24/19 A3003 RMK SLP171 DENSITY ALT 2200FT
CYFC 151500Z AUTO 30003KT 240V360 9SM FEW029 22/16 A3001 RMK SLP163 DENSITY ALT 900FT
CYIV 151500Z AUTO 28004KT 9SM CLR 20/15 A2993 RMK SLP142 DENSITY ALT 1600FT
CYNE 151500Z AUTO 22005KT 9SM CLR 24/16 A2995 RMK SLP148 DENSITY ALT 2000FT
CYPG 151500Z 11002KT 15SM SKC 25/21 A3003 RMK DENSITY ALT 2482FT SLP169
CYQD 151500Z AUTO 27007KT 220V290 9SM CLR 25/14 A2997 RMK SLP152 DENSITY ALT 2300FT
CYQM 151500Z 30007KT 270V350 15SM BKN014 BKN030 19/16 A2998 RMK CU6SC1 SLP155 DENSITY ALT 800FT
CYSJ 151500Z 36009G15KT 15SM BKN018 21/16 A3001 RMK SC5 SLP164 DENSITY ALT 1100FT
CYTH 151500Z 26003KT 230V290 15SM SKC 22/13 A2989 RMK FU3 SLP128 DENSITY ALT 1800FT
CYWL 151500Z 08005KT 15SM BKN093 BKN220 14/12 A2994 RMK AC5CI2 SLP140 DENSITY ALT 3700FT
CYYL 151500Z AUTO 29008KT 9SM CLR 23/10 A2989 RMK SLP128 DENSITY ALT 2400FT
CYYQ 151500Z 28007KT 15SM FEW250 21/12 A2975 RMK CI2 SLP076 DENSITY ALT 1100FT
CZBF 151500Z AUTO 19004KT 160V230 9SM FEW024 SCT029 21/15 A2998 RMK SLP154 DENSITY ALT 900FT
CZKD 151500Z AUTO 27002KT 21/13 RMK AO1 SLP118 T02070127 53003
CWHO 151500Z AUTO 05/04 RMK AO1 SLP142 T00450036 53002
CZDB 151500Z AUTO 26006KT 20/18 RMK AO1 SLP150 T02030177 56001
CXKT 151500Z AUTO 29006KT 20/17 RMK AO1 SLP152 T02040168 53006
CXMY 151500Z AUTO 22/17 RMK AO1 T02180170
CXNP 151500Z AUTO 31006KT 18/16 RMK AO1 SLP154 T01840163 53010
CWKG 151500Z AUTO 30006KT 20/17 RMK AO1 SLP163 T02010172
CWSS 151500Z AUTO 34003KT 24/17 RMK AO1 SLP169 T02390174 53002
CWZN 151500Z AUTO 28002KT 17/14 RMK AO1 SLP130 T01690137 58012
CXNM 151500Z AUTO 11005KT 14/13 RMK AO1 T01400129
CXTD 151500Z AUTO 36006KT 20/17 RMK AO1 SLP152 T02030167 55007
CYAW 151500Z 18005KT 15SM FEW019 BKN250 20/17 A2997 RMK CU2CI5 DENSITY ALT 928FT VIS LWR SE SLP149
CYAY 151500Z AUTO 22016KT 9SM BKN160 BKN180 19/11 A2991 RMK SLP132 DENSITY ALT 700FT
CYDP 151500Z VRB02KT 15SM BKN035 OVC100 09/04 A2993 RMK SC6AS2 SLP137
CYFT 151500Z 04010G15KT 15SM OVC025 04/03 A2990 RMK CU8 SLP131
CYHZ 151500Z 28006KT 200V360 15SM SCT021 BKN035 BKN100 BKN250 22/16 A2996 RMK SC4CU3AC1CI1 AC TR CI TR SLP149 DENSITY ALT 1400FT
CYJT 151500Z 27009KT 15SM FEW015 OVC062 15/13 A2995 RMK SC1SC8 SC TR SLP144 DENSITY ALT 100FT
CYPD 151500Z AUTO VRB05KT 9SM FEW022 SCT120 20/16 A2994 RMK SLP142 DENSITY ALT 1100FT
CYQI 151500Z 31008KT 10SM BKN006 17/16 A3004 RMK SC7 SLP175 DENSITY ALT 300FT
CYYB 151500Z 22007KT 160V250 30SM FEW040 BKN260 21/11 A3017 RMK CU1CI4 SLP221 DENSITY ALT 2000FT
CYQX 151500Z 09003KT 040V180 20SM FEW031 FEW050 BKN140 BKN270 21/14 A2992 RMK CU1SC1AC5CI1 SC TR CI TR SLP137 DENSITY ALT 1400FT
CYQY 151500Z VRB06KT 15SM BKN034 BKN090 BKN130 20/10 A2994 RMK SC5AC1AC1 AC TR SLP142 DENSITY ALT 900FT
CYWK 151500Z 01010G15KT 12SM -SHRA SCT012 OVC026 12/10 A2991 RMK CU4CU4 SLP142 DENSITY ALT 1900FT
CYYR 151500Z 02003KT 15SM FEW030 BKN070 BKN095 18/11 A2984 RMK CU1AC6AC1 LTNG DTCTRS REP STRIKES 45 NM E VIRGA SLP105
CYZX 151500Z 29007KT 15SM SCT014 BKN038 20/16 A3000 RMK SC4SC3 SLP158
CZUM 151500Z AUTO 21003KT 190V300 9SM FEW010 BKN013 BKN020 OVC055 12/11 A2987 RMK SLP128 DENSITY ALT 1500FT
CZCP 151500Z AUTO 28023G30KT ////SM //// OVC004 M00/M01 A2975
CYPC 151500Z 27019KT 15SM OVC017 04/02 A2983 RMK SC8 SLP104
CYSY 151500Z 29015KT 1SM BR OVC006 M00/M00 A2965 RMK FG4ST4 INTMT -SN CIG RAG VIS VRB 1/2 TO 2 MILES SLP051
CWMT 151500Z AUTO 03005KT 12/08 RMK AO1 SLP111 T01170084 51011
CXDE 151500Z AUTO 36006KT 09/06 RMK AO1 SLP130 T00910063 51010
CYFR 151500Z 00000KT 15SM FEW020 FEW040 FEW270 17/13 A2981 RMK CF1SC1CI2 CF TR SC TR SLP100 DENSITY ALT 1100FT
CYFS 151500Z 34006KT 15SM FEW053 SCT120 BKN210 BKN250 15/12 A2981 RMK SC1AC3CC1CI2 SLP102 DENSITY ALT 800FT
CYHY 151500Z 07007KT 030V090 15SM FEW050TCU FEW060 SCT120 SCT240 16/12 A2981 RMK TCU1SC1AC2CI1 TCU TR TCU EMBD W-NW SLP102 DENSITY ALT 1000FT
CYKD 151500Z 17008KT 15SM FEW018 FEW025 SCT078 BKN110 09/05 A2987 RMK CF1SC1AC2AC2 VIRGA SLP117
CYRA 151500Z 34008KT 15SM OVC014 11/08 A2985 RMK ST8 SLP117
CYSM 151500Z VRB02KT 15SM FEW150 SCT250 19/13 A2981 RMK AC1CI2 SLP102 DENSITY ALT 1400FT
CYVM 151500Z 05006KT 15SM FEW090 FEW230 09/03 A2970 RMK AC1CI1 AC TR SLP059
CYVQ 151500Z VRB02KT 30SM SCT042 BKN100 BKN140 10/08 A2990 RMK SC4AC2AC1 SLP131
CYWJ 151500Z 35005KT 20SM FEW004 BKN033 BKN070 09/07 A2988 RMK SF2SC3AC2 SLP130
CYZF 151500Z 30006KT 15SM OVC019 14/10 A2982 RMK SC8 SLP105 DENSITY ALT 900FT
CZFN 151500Z VRB02KT 20SM FEW012 BKN036 OVC075 11/09 A2990 RMK ST2SC5AC1 SLP130
CZFS 151500Z AUTO 32006KT 14/12 RMK AO1 SLP100 T01430117 51009
CZHY 151500Z AUTO 05005KT 16/13 RMK AO1 SLP098 T01640128 51006
CZSM 151500Z AUTO 06001KT 19/12 RMK AO1 SLP103 T01890124 51012
CWUW 151500Z AUTO 32013G19KT ////SM NCD 19/02 A2977
CYGT 151500Z 15004KT 15SM FEW160 17/10 A2980 RMK AC1 SLP095 DENSITY ALT 600FT
CYRB 151500Z 12022G28KT 30SM FEW210 OVC250 12/08 A2958 RMK CI1CC7 SLP024 DENSITY ALT 400FT
CXRB 151500Z AUTO 13021KT 12/08 RMK AO1 PK WND 13026/1431 SLP017 T01240078 53001
CYCB 151500Z 26013KT 3/4SM BR OVC002 07/07 A2950 RMK FG1ST7 SLP992
CYFB 151500Z 33018KT 30SM FEW012 FEW250 18/09 A2976 RMK SC1CI1 SC TR CI TR SLP082 DENSITY ALT 700FT
CYIO 151500Z 25005KT 35SM FEW180 FEW250 17/07 A2981 RMK AC1CI2 AC TR SLP099 DENSITY ALT 600FT
CWEU 151500Z 13016KT 15SM -RA FEW012 FEW055 BKN080 09/07 A2964 RMK SC1SC1AC5 SLP047
CWIJ 151500Z AUTO 32012KT 08/04 RMK AO1 SLP080 T00780043 51023
CWJC 151500Z AUTO 24018KT 16/12 RMK AO1 PK WND 23020/1453 SLP063 T01610116 51003
CWLX 151500Z AUTO ///// ////SM NCD 12/08 A2982
CWPX 151500Z AUTO 31026KT ////SM //// OVC005 08/08 A2946
CWXR 151500Z AUTO ///// ////SM ////// ///// A////
CXBI 151500Z AUTO 27003KT 23/12 RMK AO1 SLP229 T02270123 56001
CYCO 151500Z 26007KT 15SM FEW004 OVC028 07/05 A2979 RMK ST1SC8 ST TR SLP090
CYCY 151500Z 34017KT 15SM SKC 16/02 A2975 RMK SLP078 DENSITY ALT 500FT
CYHK 151500Z 16013KT 10SM PRFG BKN013 OVC085 12/10 A2952 RMK SC6AC2 VIS NE - E 4 SLP002 DENSITY ALT 300FT
CYRT 151500Z 12007KT 10SM FEW002 FEW035 SCT250 10/10 A2961 RMK SF1SC1CI2 SC TR TCU TOPS N-NE SLP031
CYSK 151500Z 11015KT 15SM SCT140 12/07 A2981 RMK AS3 SLP099
CYUS 151500Z AUTO 16019G25KT ////SM //// BKN041 OVC047 19/10 A2952
CYZS 151500Z 15010KT 15SM FEW011 SCT210 13/09 A2981 RMK SC1CI3 SLP099
CXKI 151500Z AUTO 22/09 RMK AO1 SLP205 T02190089 57011
CWGL 151500Z AUTO 23005KT 20/14 RMK AO1 SLP209 T01980144 53001
CWLS 151500Z AUTO 36002KT 21/08 RMK AO1 SLP230 T02100084 50001
CWNZ 151500Z AUTO 20005KT 17/09 RMK AO1 SLP185 T01680089 58004
CXCA 151500Z AUTO 16003KT 19/11 RMK AO1 SLP170 T01850113 58003
CXZC 151500Z AUTO 18004KT 22/13 RMK AO1 SLP144 T02240130 56011
CYGK 151500Z 16008KT 15SM FEW020 FEW250 22/18 A3018 RMK CU1CI1 CU TR CI TR SLP222 DENSITY ALT 900FT
CYLH 151500Z AUTO 25008G15KT 220V300 9SM FEW023 BKN055 22/17 A2991 RMK SLP133 DENSITY ALT 1900FT
CYMO 151500Z AUTO 21012KT 9SM CLR 22/13 A2995 RMK SLP144 DENSITY ALT 900FT
CYQA 151500Z AUTO 28004KT 200V320 9SM CLR 24/12 A3017 RMK SLP220 DENSITY ALT 1900FT
CYSP 151500Z 23005KT 15SM FEW063 SCT074 BKN160 BKN170 OVC180 15/08 A3009 RMK SC1AC2AC2AC2AC1 SLP198 DENSITY ALT 1200FT
CYTL 151500Z AUTO 29008KT 9SM CLR 21/17 A2987 RMK SLP119 DENSITY ALT 1700FT
CYXR 151500Z AUTO 15005KT 100V200 9SM CLR 21/13 A3013 RMK SLP210 DENSITY ALT 1500FT
CYXU 151500Z VRB02KT 15SM SCT240 23/08 A3019 RMK CI3 SLP224 DENSITY ALT 1800FT
CZEL 151500Z AUTO 33002KT 21/06 RMK AO1 SLP228 T02140055 50000
CZMD 151500Z AUTO 25005KT 230V310 9SM CLR 21/16 A2992 RMK SLP137 DENSITY ALT 1900FT
CXTO 151500Z AUTO 24/11 RMK AO1 SLP219 T02430114 53001
CXVN 151500Z AUTO 34005KT 21/14 RMK AO1 SLP218 T02090138 55000
CTNK 151500Z AUTO 26002KT 23/10 RMK AO1 SLP222 T02320102 56006
CTCK 151500Z AUTO 17004KT 23/13 RMK AO1 SLP206 T02340132 58001
CWCJ 151500Z AUTO 20006KT 16/08 RMK AO1 SLP195 T01570081 51002
CWDV 151500Z AUTO 26001KT 22/14 RMK AO1 SLP178 T02230138 58001
CYKF 151500Z AUTO 35003KT 310V050 9SM CLR 23/07 A3020 RMK SLP225 DENSITY ALT 1900FT
CYPL 151500Z AUTO 31005KT 260V340 9SM SCT029 BKN036 22/15 A2998 RMK SLP155 DENSITY ALT 2400FT
CYRL 151500Z 23003KT 150V290 15SM FEW022 23/17 A3002 RMK CF1 CF TR SLP169 DENSITY ALT 2400FT
CYSN 151500Z VRB06KT 15SM FEW030 23/16 A3017 RMK CU2 SLP216 DENSITY ALT 1100FT
CYTR 151500Z 00000KT 15SM FEW050 FEW060 23/14 A3017 RMK CU1SC1 DENSITY ALT 1242FT SLP216
CYTS 151500Z 21007KT 170V230 15SM BKN240 21/11 A3013 RMK CI6 SLP208 DENSITY ALT 1700FT
CYWA 151500Z 06002KT 15SM FEW036 FEW250 23/14 A3016 RMK CU1CI1 DENSITY ALT 1387FT SLP215
CYXL 151500Z VRB02KT 15SM FEW028 FEW220 23/16 A3003 RMK CU1CI1 CU TR CI TR SLP174 DENSITY ALT 2400FT
CYYG 151500Z VRB02KT 6SM -RA BR BKN006 OVC012 17/16 A2996 RMK SC6SC2 SLP147 DENSITY ALT 500FT
CYYZ 151500Z VRB02KT 15SM FEW045 24/09 A3017 RMK SC1 SC TR SLP218 DENSITY ALT 1500FT
CYZR 151500Z AUTO 20005KT 150V230 9SM CLR 25/15 A3017 RMK SLP217 DENSITY ALT 1600FT
CZSJ 151500Z AUTO 27005KT 240V340 9SM CLR 22/16 A2995 RMK SLP146 DENSITY ALT 2000FT
CZTB 151500Z AUTO 11003KT 19/12 RMK AO1 SLP185 T01890116 50001
SUMU 151500Z 19007KT 8000 BKN003 OVC010 12/12 Q1007 NOSIG
CXPC 151500Z AUTO 22/11 RMK AO1 SLP224 T02150106 53002
CYQG 151500Z AUTO 22009G15KT 170V240 9SM FEW047 26/13 A3018 RMK SLP220 DENSITY ALT 1800FT
EPGD 151500Z 27017KT 9999 BKN036 17/09 Q1014
EPKK 151500Z 27011KT 9999 SCT061 21/07 Q1018
EPKT 151500Z 29010KT 260V320 CAVOK 20/06 Q1018
EPLL 151500Z 27015KT CAVOK 20/05 Q1017
EPPO 151500Z 28016KT CAVOK 20/05 Q1018
EPSC 151500Z 30016KT CAVOK 18/07 Q1017
EPSY 151500Z 27008KT 230V300 9999 SCT037 15/10 Q1015
EPWA 151500Z 29018KT CAVOK 19/06 Q1016 NOSIG
EPWR 151500Z 30014KT 250V360 CAVOK 21/05 Q1019
EPZG 151500Z 26010KT 230V300 CAVOK 20/05 Q1019
LEGR 151500Z 23011KT 190V260 CAVOK 39/08 Q1015
LECO 151500Z 31007KT 250V010 CAVOK 29/18 Q1013 NOSIG
LEGE 151500Z 19011KT 160V240 9999 FEW030 36/14 Q1015
LEIB 151500Z 09007KT CAVOK 31/19 Q1016 NOSIG
LEJR 151500Z 15013KT 110V190 CAVOK 38/10 Q1012
LEMD 151500Z 17006KT CAVOK 40/04 Q1016 NOSIG
LEVS 151500Z VRB05KT CAVOK 38/06 Q1017
LFBG 151500Z AUTO 03010KT 360V060 CAVOK 32/08 Q1018 NOSIG
LFBH 151500Z AUTO 06012KT 020V080 CAVOK 32/07 Q1019 TEMPO 32010KT
LFCR 151500Z AUTO 29010KT 260V320 9999 // NSC 33/09 Q1019
LFBA 151500Z AUTO 32006KT 260V050 CAVOK 36/12 Q1016 NOSIG
LFBC 151500Z AUTO 33012KT 5000 1300 R24/P2000 HZ OVC007 33/12 Q1017 TEMPO 1500 HZ
LFBD 151500Z AUTO 01008KT 340V050 CAVOK 34/09 Q1017 NOSIG
LFBE 151500Z AUTO 36006KT 280V060 CAVOK 34/13 Q1016 NOSIG
LFBF 151500Z AUTO 35010KT CAVOK 36/12 Q1016
LFBM 151500Z AUTO 01006KT 320V070 CAVOK 37/09 Q1016
LFBO 151500Z AUTO 34010KT 280V050 CAVOK 36/13 Q1016 NOSIG
LFBP 151500Z AUTO 34003KT 260V050 CAVOK 33/17 Q1017 NOSIG
LFBT 151500Z AUTO 35006KT 270V030 3600 HZ SCT034 32/17 Q1018 NOSIG
LFBY 151500Z AUTO 24007KT 200V290 9999 // ////// 33/21 Q1016
LFBZ 151500Z AUTO 30007KT CAVOK 27/19 Q1018 NOSIG
LFGJ 151500Z AUTO 36008KT 320V030 CAVOK 29/11 Q1019 NOSIG
LFHP 151500Z AUTO 31010KT 250V350 CAVOK 30/10 Q1020
LFJL 151500Z AUTO VRB04KT CAVOK 25/07 Q1021 NOSIG
LFLL 151500Z 36012KT 330V030 CAVOK 31/12 Q1018 NOSIG
LFLP 151500Z AUTO 29009KT 250V320 CAVOK 32/11 Q1017 NOSIG
LFLY 151500Z AUTO 36013KT 330V030 CAVOK 31/12 Q1018 NOSIG
LFMC 151500Z AUTO 07013KT 040V110 9999 ////// 33/20 Q1012
LFMI 151500Z AUTO 35014KT CAVOK 38/11 Q1012 TEMPO 34015G25KT
LFML 151500Z AUTO 32016KT CAVOK 38/12 Q1012 NOSIG
LFMT 151500Z AUTO 20010KT 7000 NSC 36/16 Q1012 NOSIG
LFOE 151500Z AUTO VRB04KT CAVOK 27/07 Q1022 NOSIG
LFPM 151500Z AUTO 36004KT 290V080 CAVOK 27/07 Q1021
LFRH 151500Z AUTO 04009KT 360V090 CAVOK 29/11 Q1021 NOSIG
LFRI 151500Z AUTO 02011KT CAVOK 30/08 Q1020 NOSIG
LFRJ 151500Z AUTO 05014KT CAVOK 22/11 Q1023
LFRO 151500Z AUTO 02011KT 350V060 CAVOK 20/15 Q1024
LFSB 151500Z 36008KT 280V060 CAVOK 29/10 Q1019 NOSIG
UGKO 151500Z 24013KT 9999 SCT032 23/19 Q1010 NOSIG
UGTB 151500Z 12014KT 080V160 CAVOK 34/13 Q1011 NOSIG
NZWN 151500Z AUTO 21014KT 9999 -RA FEW026/// BKN033/// 09/05 Q1008 NOSIG
NZCH 151500Z AUTO 27006KT 8000 NCD 02/00 Q1008 NOSIG
CXDB 151500Z AUTO 26004KT 23/12 RMK AO1 T02290122
CYSB 151500Z 25009KT 190V270 20SM FEW030 BKN250 23/10 A3015 RMK CU2CI4 SLP213 DENSITY ALT 2200FT
MNBL 151500Z 07004KT 9999 BKN017 28/26 Q1015
MPBO 151500Z 27007KT 9000 VCSH FEW007 SCT020 OVC090 26/25 Q1014 RERA
MPTO 151500Z 06004KT 9000 SCT017 SCT090 28/26 Q1013 NOSIG
SLMG 151500Z 32010KT 9999 FEW017 BKN200 30/23 Q1010
SLTJ 151500Z 36014KT 9999 NSC 25/M12 Q1011
SLTR 151500Z 33015KT 8000 FEW023 BKN200 31/22 Q1011
SLRI 151500Z 36006KT 9999 FEW020 BKN200 30/23 Q1013
SLRQ 151500Z 00000KT 9999 SCT008 BKN013 BKN070 25/24 Q1011
SLRY 151500Z 36010KT 9999 BKN015 26/23 Q1012
SLSA 151500Z 33017KT 8000 FEW020 BKN200 30/23 Q1010
SLVR 151500Z 35015KT 2500 -RA SCT006 BKN012 FEW027CB 23/22 Q1010
SLVM 151500Z 18005KT 9999 OVC070 20/12 Q1007
SLLP 151500Z 28015KT 9999 FEW090 SCT200 09/M07 Q1036
SLPO 151500Z 24012KT 9999 FEW070 BKN200 08/M10 Q1032
SLPS 151500Z 09008KT 9999 NSC 30/22 Q1019
SLRB 151500Z 36015G25KT 9999 NSC 31/20 Q1011
SBSC 151500Z 30012G22KT CAVOK 28/18 Q1015
SBSJ 151500Z 02007KT CAVOK 25/09 Q1018
SBSL 151500Z 07009KT 9999 BKN026 FEW030TCU 31/24 Q1012
SBSP 151500Z 01010KT CAVOK 25/10 Q1019
SBSR 151500Z 04012KT 330V120 CAVOK 28/09 Q1017
SBST 151500Z 13005KT 090V160 CAVOK 28/17 Q1013
SBSV 151500Z 13010KT 9999 SCT020 SCT070 28/22 Q1018
BIEG 151500Z 04005KT 350V170 9999 FEW039 SCT050 14/04 Q1016
BIRK 151500Z 11011KT 9999 SCT027 OVC047 12/08 Q1013
BIHN 151500Z 19010KT 9999 FEW040 FEW150 13/09 Q1017
BIKF 151500Z 12015KT 9999 VCSH BKN007 OVC021 11/09 Q1012
BIAR 151500Z 34009KT 9999 FEW040 16/04 Q1014
BIBD 151500Z 15006KT 9999 FEW036 15/06 Q1013
BIVM 151500Z 12021KT 9999 RADZ FEW009 OVC040 10/09 Q1014
GCFV 151500Z 05016KT 9999 FEW020 25/20 Q1014
GCHI 151500Z 35020KT 9999 FEW035 24/17 Q1015
GCLP 151500Z 01027KT 9999 FEW025 26/18 Q1014 NOSIG
GCRR 151500Z 36019KT 330V030 9999 FEW020 27/18 Q1014
LFBL 151500Z AUTO 02011KT 340V050 CAVOK 28/12 Q1020 NOSIG
LFSX 151500Z AUTO VRB06KT CAVOK 28/09 Q1019
LFAT 151500Z AUTO 29010KT 250V320 CAVOK 21/11 Q1024 NOSIG
LFSO 151500Z AUTO 35007KT 300V040 CAVOK 26/05 Q1021
LFTH 151500Z AUTO 19009KT 160V220 9000 NSC 30/23 Q1013 NOSIG
LJCE 151500Z 08009KT 040V100 CAVOK 28/14 Q1016 RMK BLU
LJLJ 151500Z 07010KT 9999 SCT060 BKN130 27/17 Q1016 NOSIG
LJMB 151500Z 10005KT 060V120 9999 FEW043 BKN110 24/14 Q1018
LJPZ 151500Z 23004KT CAVOK 33/11 Q1012
LKCV 151500Z 32011KT CAVOK 21/08 Q1020 NOSIG
LKKB 151500Z 30008KT 270V330 CAVOK 21/08 Q1020 NOSIG
LKKV 151500Z 31009KT 9999 SCT046 18/07 Q1021
LKLN 151500Z AUTO VRB04KT 9999 FEW066 BKN081 22/06 Q1020
LKMT 151500Z 35006KT 320V040 CAVOK 21/09 Q1018 NOSIG
LKNA 151500Z 32010KT 290V020 CAVOK 20/08 Q1020 NOSIG
LKPD 151500Z 31007KT 270V010 CAVOK 20/08 Q1020 NOSIG
LKPR 151500Z 29009KT 260V320 CAVOK 20/07 Q1020 NOSIG
LKTB 151500Z 32011KT CAVOK 22/07 Q1019 NOSIG
LZPP 151500Z 34012KT CAVOK 23/07 Q1018
LZZI 151500Z 30007KT CAVOK 22/08 Q1018
LQSA 151500Z 33007KT 300V020 9999 FEW060 32/13 Q1015 NOSIG
LQTZ 151500Z 01006KT 310V050 CAVOK 32/13 Q1015
LYBE 151500Z 33006KT 280V020 CAVOK 34/12 Q1014 NOSIG
LYBT 151500Z 28007G27KT CAVOK 35/13 Q1014 NOSIG
LYKV 151500Z 05005KT 350V110 9999 FEW050 35/09 Q1014 NOSIG
LYNI 151500Z VRB05KT CAVOK 34/09 Q1013 NOSIG
LYPG 151500Z 21007KT 170V230 CAVOK 35/09 Q1011 NOSIG
LYTV 151500Z 24004KT 200V280 CAVOK 30/11 Q1012 NOSIG
LYVR 151500Z AUTO 31005KT 260V010 CAVOK 34/10 Q1014
LRAR 151500Z 32011KT 300V360 CAVOK 30/08 Q1015
LRCK 151500Z 15014KT CAVOK 30/13 Q1012 NOSIG
LROP 151500Z 26009KT CAVOK 34/10 Q1011 NOSIG
LRSB 151500Z 01011KT 340V040 9999 FEW056 30/15 Q1015
LRBC 151500Z 28017KT 5000 +TSRA BKN035CB 24/16 Q1013
LRBM 151500Z 25008KT 210V280 9999 FEW042 28/13 Q1015
LRBS 151500Z 25007KT 210V290 CAVOK 35/11 Q1011 NOSIG
LRCL 151500Z 34011KT 310V010 CAVOK 24/13 Q1015
LRCT 151500Z 01009KT 9999 BKN170 27/14 Q1015 BLU BLU
LRCV 151500Z 27009KT CAVOK 34/03 Q1012
GABS 151500Z 35009KT 9999 BKN020 FEW030CB 33/23 Q1012 TEMPO TS
GMAD 151500Z 23015KT CAVOK 30/19 Q1009 NOSIG
GMAT 151500Z 01016KT 8000 SCT010 SCT016 24/19 Q1012 NOSIG
HRYR 151500Z 14007KT 9999 SCT025 26/10 Q1018 NOSIG
FOOG 151500Z 20013KT 9999 FEW012 26/21 Q1011
FOOL 151500Z 22007KT 9999 FEW010 SCT033 26/22 Q1011 NOSIG
FQIN 151500Z 17011KT 9999 SCT020 BKN025 23/14 Q1025
FYKM 151500Z 11006KT CAVOK 25/01 Q1020
FYLZ 151500Z AUTO 21006KT //// // ////// 32/01 Q1016
OIAH 151500Z 28008KT CAVOK 39/05 Q1002
OIAG 151500Z 26017KT CAVOK 45/06 Q0995
OIAM 151500Z 20010KT CAVOK 42/19 Q0993
OIHM 151500Z AUTO 08013KT //// // ////// 31/M01 Q1015
OIIE 151500Z 14008KT CAVOK 37/M01 Q1010
OIBJ 151500Z AUTO 22005KT //// // ////// 34/22 Q1001
OIBP 151500Z 31004KT 7000 NSC 38/27 Q0994 A2936
OIBS 151500Z 00000KT 5000 HZ NSC 36/29 Q0995
OIBV 151500Z 31008KT 3000 HZ FEW030TCU BKN100 36/29 Q0995
OICI 151500Z 26010KT 7000 NSC 35/04 Q1011 A2986
OIBQ 151500Z 27008KT 5000 HZ NSC 35/29 Q0994
UAII 151500Z 10004MPS CAVOK 35/04 Q1006 NOSIG RMK QFE717/0957
UAKK 151500Z 01004MPS CAVOK 26/12 Q1011 NOSIG RMK QFE711/0949
UADD 151500Z 36002MPS 9999 NSC 29/04 Q1009 NOSIG RMK QFE700/0934
UHSS 151500Z 16001MPS 9999 BKN014 13/11 Q1013 RMK MT OBSC QFE759/1012
UHBB 151500Z 34001MPS 9999 4500N BR FEW033 21/21 Q1006 R18/090060 NOSIG RMK QFE739/0986
UHHH 151500Z 10003MPS CAVOK 17/15 Q1007 R05L/090060 NOSIG RMK QFE749/0999
UHMM 151500Z 24001MPS 9999 NSC 17/14 Q1016 RMK QFE747 R28/25001MPS
UHPP 151500Z 04002MPS 8000 FEW010 15/15 Q1010 R16R/CLRD70 NOSIG RMK QFE755/1006
UIAA 151500Z AUTO 05007MPS 9999 NCD 18/17 Q1007 RMK QFE697/0929
UIBB 151500Z AUTO 30002MPS 9000 // ///091/// 11/10 Q1013 RMK QFE717/0956
UIII 151500Z 30007MPS 9999 -SHRA OVC006CB 13/12 Q1012 R30/290150 NOSIG RMK QBB180 QFE714/0953
UHWW 151500Z 31002MPS 9000 -SHRA FEW010 BKN040CB 19/18 Q1000 R25L/290160 NOSIG RMK QFE749
ULPB 151500Z 24004MPS 210V280 9999 FEW016 BKN042 20/11 Q1001 R19/190055 NOSIG RMK QFE747/0996
UMKK 151500Z 31005MPS 9999 BKN017CB 15/14 Q1012 R24/290095 NOSIG RMK QFE758/1011
UNEE 151500Z 07002MPS CAVOK 17/09 Q1013 R05/CLRD60 NOSIG RMK QFE737
UNBB 151500Z 20003MPS CAVOK 17/09 Q1012 R24/CLRD66 NOSIG RMK QFE737
ULOO 151500Z 20004MPS 160V220 9999 FEW040CB 18/11 Q1005 R19/090060 NOSIG RMK QFE749
UNAA 151500Z 04001MPS CAVOK 17/10 Q1013 R02/CLRD65 NOSIG RMK QFE737
ZSHC 151500Z VRB01MPS CAVOK 31/26 Q1000 NOSIG
ZSSS 151500Z 36002MPS CAVOK 29/25 Q1001 NOSIG
ZSPD 151500Z 06002MPS CAVOK 29/26 Q1000 NOSIG
ZWWW 151500Z VRB01MPS CAVOK 27/06 Q1012 NOSIG
ZYCC 151500Z VRB01MPS 9999 SCT026 20/18 Q0999 NOSIG
RKPK 151500Z 23001KT CAVOK 26/23 Q0998
RPVM 151500Z 21006KT 9999 FEW018CB SCT100 28/25 Q1011 RMK A2985 CB/OCNL LTG NE/W
RPVP 151500Z 24004KT 9999 FEW019 BKN240 27/25 Q1010 RMK A2983
VOMM 151500Z 26006KT 6000 SCT020 BKN100 32/24 Q1002 NOSIG
VTUU 151500Z VRB01KT 9999 FEW030 SCT090 26/26 Q1007 NOSIG
VVNB 151500Z 13006KT 9999 BKN034 30/26 Q1005 NOSIG
VVDN 151500Z 15005KT 9999 FEW015TCU 30/26 Q1007 NOSIG
VVPB 151500Z 20003KT 9999 FEW015 BKN060 29/25 Q1007 NOSIG
WAAA 151500Z 12004KT 8000 FEW019 24/23 Q1010 NOSIG
VVTS 151500Z 24004KT 9999 FEW015 SCT050 27/25 Q1007 NOSIG
YAMB 151500Z AUTO 34004KT 9000 // NCD 04/03 Q1026
YBAS 151500Z AUTO 00000KT 9999 // NCD 02/M07 Q1022 RF00.0/000.0
YBBN 151500Z 22005KT CAVOK 09/07 Q1026
YBCG 151500Z AUTO 23003KT 9999 // NCD 10/09 Q1026 RF00.0/000.0
YBCS 151500Z AUTO 18009KT 9999 -SHRA BKN031 OVC037 18/15 Q1019
VGEG 151500Z 17005KT 5000 SCT018 29/25 Q1002 NOSIG
GVAC 151500Z 08010KT 9999 BKN014 26/18 Q1012 NOSIG
GVBA 151500Z 04014KT 9999 BKN014 28/19 Q1012 NOSIG
GVNP 151500Z 07015KT 9999 FEW020 28/19 Q1012 NOSIG
VGHS 151500Z 15010KT 4000 HZ SCT015 BKN100 32/24 Q1001 NOSIG
GVSV 151500Z 04016KT 9999 FEW022 BKN025 27/18 Q1012 NOSIG
VHHH 151500Z 20007KT 9999 FEW015 30/26 Q1007 NOSIG
CYQT 151500Z VRB04KT 20SM SCT300 19/13 A3006 RMK CI3 SLP184 DENSITY ALT 1100FT
CYBV 151500Z 28006KT 15SM FEW220 22/18 A3000 RMK CS1 SLP163 DENSITY ALT 1700FT
CYZU 151500Z 11004KT 15SM FEW100 SCT160 BKN200 15/11 A2995 RMK AC2AC2CI3 SLP145 DENSITY ALT 3200FT
CXEC 151500Z AUTO 07005KT 20/13 RMK AO1 SLP130 T02020134 50001
UHMA 151500Z 03003MPS CAVOK 05/03 Q1015 R01/////// NOSIG RMK TDZ R01/03003MPS END R01/29001MPS QFE758/1010
UUEE 151500Z 25007MPS CAVOK 21/09 Q1008 R24L/CLRD62 R24C/CLRD62 NOSIG
CYGX 151500Z 29006KT 6SM FU BKN200 21/14 A2984 RMK CS6 SLP110 DENSITY ALT 1400FT
UMII 151500Z 23003MPS 9999 SCT026CB 16/11 Q1010 TEMPO 2000 TSRA BKN007
UMGG 151500Z 23003MPS 9999 FEW047 BKN084 22/12 Q1012 NOSIG
LFMN 151500Z 15006KT 9999 FEW016 28/23 Q1014 NOSIG
MKJS 151500Z 03006KT 9999 FEW024 29/24 Q1016
UTAA 151500Z 34004KT 9999 NSC 38/05 Q1007 R88/CLRD70 NOSIG
UTAK 151500Z 34014KT CAVOK 36/12 Q1009 R34L/CLRD70 NOSIG
UTAM 151500Z 34006KT CAVOK 38/09 Q1005 R88/CLRD70 NOSIG
UTAT 151500Z 34010KT CAVOK 37/10 Q1008 R08/CLRD70 NOSIG
MKJP 151500Z 20005KT 9999 FEW024 31/23 Q1016
UTSS 151500Z 10010KT 9999 NSC 31/10 Q1007 R09/CLRD70 NOSIG
VMMC 151500Z 22010KT 9999 FEW015 30/27 Q1007 NOSIG
CYBQ 151500Z AUTO 28009G16KT 240V320 9SM CLR 21/10 A2981 RMK SLP101 DENSITY ALT 2000FT
CYDL 151500Z AUTO 07004KT 9SM BKN055 BKN100 OVC120 11/08 A2984 RMK SLP106 DENSITY ALT 3000FT
CWZG 151500Z AUTO 22005KT 15/03 RMK AO1 SLP160 T01450030 58001
CXAG 151500Z AUTO 07003KT 20/15 RMK AO1 T02030151
CXAJ 151500Z AUTO 05002KT 18/13 RMK AO1 T01820134
CXAF 151500Z AUTO 05003KT 19/16 RMK AO1 T01910161 50005
CWSG 151500Z AUTO 26020KT 17/11 RMK AO1 2PAST HR 8012 PK WND 26029/1425 SLP136 P0001 T01700112 50002
CXBO 151500Z AUTO 23007KT 23/14 RMK AO1 T02300135
CYMX 151500Z 19003KT 160V250 45SM FEW035 SCT095 SCT150 24/15 A3014 RMK SC2AC1AC1 AC TR SLP207 DENSITY ALT 1100FT
CYUL 151500Z 20009KT 30SM SCT120 24/14 A3014 RMK AC3 SLP208 DENSITY ALT 900FT
CYYY 151500Z 26011G16KT 30SM FEW030 21/11 A2998 RMK CF1 CF TR SLP156 DENSITY ALT 900FT
CYNA 151500Z AUTO 19014G21KT 9SM OVC150 19/12 A2991 RMK SLP131 DENSITY ALT 500FT
CWIP 151500Z AUTO 19008KT 17/12 RMK AO1 T01710122
CWBY 151500Z AUTO 22011KT 17/12 RMK AO1 PK WND 22021/1417 SLP128 T01720117 57011
CWQV 151500Z AUTO 29015G20KT 19/ RMK AO1 PK WND 29020/1450 T0186
CYHA 151500Z 31008KT 15SM FEW025 FEW080 FEW280 12/07 A2987 RMK CU1AC1CI1 CU TR AC TR CI TR SLP118
CWNH 151500Z AUTO 25004KT 20/13 RMK AO1 SLP173 T02010126 58005
CYRJ 151500Z 02003KT 40SM FEW065 23/12 A3008 RMK SC1 SLP190 DENSITY ALT 1500FT
CYSC 151500Z AUTO 23005KT 180V270 9SM SCT240 21/14 A3014 RMK SLP208 DENSITY ALT 1500FT
CWBZ 151500Z AUTO 24005KT 24/16 RMK AO1 SLP205 T02360157 58002
CWJB 151500Z AUTO 22005KT 22/ RMK AO1 T0218
CWIK 151500Z AUTO 14007KT 23/19 RMK AO1 SLP176 T02250190
LPAR 151500Z 21010KT CAVOK 35/13 Q1012
LPLA 151500Z /////KT 9999 FEW011 SCT020 23/19 Q1020
LPMR 151500Z 32008KT 280V360 9999 FEW015 24/18 Q1013
LPOV 151500Z 34006KT 9999 FEW009 23/18 Q1013
LPFR 151500Z 16007KT CAVOK 27/21 Q1013
LPPR 151500Z 29005KT 260V320 CAVOK 22/19 Q1013
LPPT 151500Z 23008KT 190V270 CAVOK 33/12 Q1013
LPMA 151500Z VRB07KT 9999 FEW016 SCT033 25/17 Q1016
LPFL 151500Z VRB05KT 9999 FEW017 25/19 Q1021
LPHR 151500Z 02011KT 360V060 9999 FEW013 26/18 Q1020
LPMT 151500Z 27010KT CAVOK 30/15 Q1012
LPPD 151500Z 32009KT 280V360 9999 VCSH FEW015 BKN025 21/18 Q1019
SERB 151500Z 12005KT 9999 SCT040 15/11 Q1030
SEST 151500Z 16009KT 9999 -RA FEW013 BKN040 22/21 Q1014 RMK A2995
SBUA 151500Z 01003KT 320V060 9999 FEW015 29/25 Q1013
SBUR 151500Z 02010KT 350V070 CAVOK 27/10 Q1020
SBYS 151500Z 36009KT CAVOK 27/12 Q1018
SUAA 151500Z 10010KT 7000 BKN004 OVC009 13/12 Q1008
SUCA 151500Z 22005KT 3000 -DZ BR OVC009 12/12 Q1009
EIKN 151500Z 32006KT 270V360 9999 BKN026 18/12 Q1025 NOSIG
EIME 151500Z 27010KT 210V300 9999 BKN030 21/13 Q1024
EINN 151500Z 24014KT 9999 BKN024 19/14 Q1025 NOSIG
LFQQ 151500Z AUTO 27007KT 220V030 CAVOK 24/08 Q1022 NOSIG
TGPY 151500Z 09018KT 9999 -TSRA FEW014CB SCT040 24/23 Q1014 NOSIG RMK CB-E  S EXT OHD  VCSH-NE TO S
CWER 151500Z AUTO 21015KT RMK AO1
CWRZ 151500Z AUTO 09010KT 17/14 RMK AO1 SLP140 T01650135 56010
FSIA 151500Z 14013KT 9999 SCT020 25/22 Q1011 NOSIG
FALE 151500Z 14002KT 9999 FEW018 BKN045 18/14 Q1029 NOSIG
FMEE 151500Z AUTO 12015KT 9999 NCD 21/17 Q1019 NOSIG
OIZJ 151500Z 14010KT 6000 NSC 32/29 Q0995
URSS 151500Z 25003MPS 9999 NSC 25/16 Q1009 R02/010070 R06/010070 NOSIG RMK R06/28004G07MPS QFE755
RJOS 151500Z 25003KT 200V270 9999 FEW015 BKN150 25/22 Q1000
RORK 151500Z AUTO 21008KT 9999 FEW012 28/27 Q1006
ROYN 151500Z AUTO 17008KT 9999 NCD 29/28 Q1004
ROAH 151500Z AUTO 24008KT 9000 -RA FEW013 SCT015 BKN026 29/26 Q1004
RKSI 151500Z 20007KT 4000 BR BKN005 24/23 Q0998 NOSIG
VTBU 151500Z 22004KT 9999 FEW020 28/25 Q1007 NOSIG
OEAR 151500Z 33006KT CAVOK 41/09 Q1003
UGMS 151500Z AUTO 31006KT 230V030 //// ////// 28/08 Q1018
DTNH 151500Z 08015KT CAVOK 30/21 Q1014 NOSIG
LQBK 151500Z 05007KT 360V100 9999 FEW040 32/14 Q1015 NOSIG
URMO 151500Z 28003MPS 9999 BKN/// 26/18 Q1013 R09/010070 NOSIG RMK QFE716/0955
UUDL 151500Z 26006MPS CAVOK 24/11 Q1005 R23/010060 NOSIG RMK QFE745
OINE 151500Z 24010KT CAVOK 33/17 Q1010
LEAO 151500Z 21003KT CAVOK 38/06 Q1016
EPMO 151500Z 25015KT CAVOK 19/06 Q1016
CYWE 151500Z AUTO 32008KT 280V340 9SM OVC015 11/08 A2979 RMK SLP104
EPLB 151500Z 28014KT CAVOK 22/06 Q1016
FAOR 151500Z 04007KT CAVOK 15/M03 Q1030 NOSIG
SBUY 151500Z 05005KT 9999 SCT020 29/26 Q1012
GMAG 151500Z 23011KT 200V270 6000 NSC 28/19 Q1011 NOSIG
LFOV 151500Z AUTO 06008KT 030V110 CAVOK 28/09 Q1022
UCFM 151500Z 22003MPS CAVOK 28/11 Q1009 R26/0///95 NOSIG
UCFO 151500Z 00000MPS 9000 NSC 25/12 Q1009 R12/0///95 NOSIG
LFCK 151500Z AUTO 32009KT 270V360 CAVOK 36/08 Q1017 NOSIG
LFQA 151500Z AUTO 36009KT 300V040 CAVOK 25/06 Q1021
YGLA 151500Z AUTO 19005KT 9999 // NCD 14/10 Q1025 RF00.0/000.0
CYIN 151500Z AUTO 16007KT 9SM BKN160 18/03 A2996 RMK SLP126 DENSITY ALT 4900FT
VVCR 151500Z 25006KT 9999 FEW015 29/24 Q1008 NOSIG
VVCT 151500Z 19003KT 9999 FEW013 BKN040 25/25 Q1008 NOSIG
VVPQ 151500Z VRB01KT 9999 SCT015 SCT040 26/25 Q1008 NOSIG
CZVL 151500Z AUTO 04005KT 9SM OVC160 20/16 A2994 RMK SLP135 DENSITY ALT 3300FT
ULWC 151500Z 28003MPS 9999 SCT026CB 18/16 Q1004 R21/290260 NOSIG RMK QFE743/0990
UUBW 151500Z 22004MPS CAVOK 22/10 Q1008 R30/010060 NOSIG
UNTT 151500Z 12003MPS 9999 FEW040CB 15/11 Q1013 R21/////// NOSIG RMK QFE744
CYRQ 151500Z AUTO 21008KT 9SM CLR 23/16 A3011 RMK SLP200 DENSITY ALT 1000FT
CYCK 151500Z AUTO 17008KT 9SM CLR 23/14 A3018 RMK SLP222 DENSITY ALT 1500FT
GMMB 151500Z 33010KT 290V360 8000 NSC 28/21 Q1011 NOSIG
LFSG 151500Z AUTO VRB05KT CAVOK 25/07 Q1020
SBSG 151500Z 21006KT 140V240 8000 VCSH BKN015 FEW023TCU 25/24 Q1014
VASU 151500Z 18005KT 6000 SCT008 SCT018 OVC080 26/25 Q0997 NOSIG
UASS 151500Z 11002MPS CAVOK 25/14 Q1009 NOSIG RMK QFE737/0982
LFLU 151500Z AUTO 01015KT CAVOK 33/12 Q1015
CYVL 151500Z AUTO 27005KT 230V020 9SM BKN021 07/02 A2987 RMK SLP133
CYPO 151500Z AUTO 34009G17KT 6SM -RA BR BKN004 BKN012 19/18 A2967 RMK PCPN 6.1MM PAST HR SLP048 DENSITY ALT 1000FT
CYKP 151500Z AUTO 26009KT 190V280 9SM BKN120 24/12 A2992 RMK SLP126 DENSITY ALT 1800FT
GAKD 151500Z 32008KT 9999 SCT030 34/25 Q1011
CYAT 151500Z AUTO 24008KT 9SM SCT120 BKN200 22/15 A2983 RMK SLP103 DENSITY ALT 1000FT
UTDK 151500Z VRB01MPS 9999 NSC 33/12 Q1005 R01/09//70 RMK QFE697/0929
UTDT 151500Z 14003MPS 9999 NSC 31/15 Q1001 R35/CLRD70 RMK QFE712/0949
WIEE 151500Z 05001KT 9999 SCT020 27/25 Q1009 NOSIG
WAHS 151500Z 09007KT 7000 SCT014 28/25 Q1010
YLHI 151500Z AUTO 19002KT 9999 // SCT040 13/07 Q1024 RF00.0/000.6
VEDG 151500Z 08003KT 4500 BR SCT020 BKN080 27/26 Q1000 NOSIG
CYYW 151500Z AUTO VRB02KT 9SM SCT120 23/14 A3000 RMK SLP149 DENSITY ALT 2200FT
OITP 151500Z 14025KT CAVOK 32/18 Q1007
WAQQ 151500Z 20003KT 8000 FEW015 BKN100 27/24 Q1010 NOSIG
LPCS 151500Z 23007KT 190V280 CAVOK 30/14 Q1013
URMG 151500Z 10008MPS CAVOK 29/14 Q1011 R08/090070 NOSIG RMK QFE744/0992
UUBC 151500Z 25004MPS CAVOK 20/12 Q1010 R13/CLRD60 NOSIG RMK QFE739/0986
TTPP 151500Z 00000KT 5000 -TSRA VCSH FEW010CB SCT014 25/24 Q1014 NOSIG RMK CB NW N NE E; VCSH ALQDS
VABO 151500Z 23005KT 4000 HZ SCT015 SCT020 BKN080 27/26 Q0997 NOSIG
VORY 151500Z 23005KT 6000 SCT020 BKN090 30/26 Q1000 NOSIG
VOGO 151500Z 26011KT 5000 VCSH FEW008 SCT015 BKN080 27/25 Q1004 TEMPO 3000 -RA/DZ
GMMD 151500Z 30006KT 9999 FEW100 42/M00 Q1011 NOSIG
GQNO 151500Z 30012KT CAVOK 30/21 Q1010 NOSIG
UCFL 151500Z 15002MPS 9999 FEW030CB SCT099 20/14 Q1019 R07/CLRD95
TVSA 151500Z 07014KT 9999 BKN016 30/25 Q1014 NOSIG
VVCI 151500Z 16005KT CAVOK 30/27 Q1005 NOSIG
URRP 151500Z 05002MPS 340V150 CAVOK 30/09 Q1013 R05/CLRD70 NOSIG RMK QFE754/1006
UUOL 151500Z 21004MPS CAVOK 26/12 Q1010 R33/090060 NOSIG
VOKN 151500Z VRB02KT 4000 BR FEW006 SCT012 FEW025CB BKN080 25/24 Q1007 NOSIG
UWSG 151500Z 28006MPS CAVOK 26/14 Q1011 R26/CLRD70 NOSIG RMK QFE755/1007
ZBAD 151500Z 20003MPS CAVOK 29/20 Q0998 NOSIG
YBLN 151500Z AUTO 13005KT 9999 // NCD 09/09 Q1020 RF00.0/000.2
OIBH 151500Z 27006KT 7000 NSC 36/29 Q0993 A2935
YBWW 151500Z AUTO 15003KT 9999 // NCD 03/02 Q1026 RF00.0/000.0
UGAM 151500Z AUTO 10006KT 070V150 //// ////// 32/12 Q1010
BIHU 151500Z 33009KT CAVOK 13/06 Q1015
CBAR 151500Z AUTO 28015KT ////SM OVC005 00/M01 A2982
CPIN 151500Z AUTO 31023G30KT ////SM BKN017 OVC025 03/01 A2976
UAIT 151500Z 06006MPS CAVOK 35/M03 Q1006 NOSIG RMK QFE730/0973
FBPM 151500Z 10010KT 9999 SCT025 21/04 Q1025
GMFB 151500Z 18009KT CAVOK 38/M02 Q1018 NOSIG
LFBX 151500Z AUTO 34007KT 300V020 CAVOK 34/12 Q1017
UWPS 151500Z 26007MPS 9999 SCT033 24/14 Q1009 R20/CLRD60 TEMPO 26010G16MPS RMK QFE739
USDA 151500Z AUTO 05004MPS 9999 NCD 15/09 Q1019 RMK QFE763/1017
UBBF 151500Z 10012KT 9999 NSC 32/15 Q1012 NOSIG RMK MT OP
RJDB 151500Z AUTO 22005KT 190V250 9999 -RA OVC050 //////CB 25/23 Q0998
GMAZ 151500Z 06010KT CAVOK 42/M03 Q1013 NOSIG
FQXA 151500Z 14006KT 120V180 9999 FEW020 20/16 Q1027
CXSE 151500Z AUTO 20017KT 12/10 RMK AO1 PK WND 19020/1443 SLP953 T01150098 51018
FMCH 151500Z 19006KT 140V230 9999 FEW020 27/18 Q1017 NOSIG
FQTT 151500Z 11011KT 9999 SCT020 BKN100 27/10 Q1020
MGTU 151500Z 07004KT 9999 SCT018 29/23
FALW 151500Z AUTO 12004KT //// // ////// 20/11 Q1020
CYZW 151500Z 27009KT 20SM OVC055 11/09 A2983 RMK SC8 SLP116 DENSITY ALT 2600FT
OEKM 151500Z 24015KT 9999 FEW022 25/13 Q1017 NOSIG
OTBD 151500Z 05006KT 5000 DU NSC 35/27 Q0995 TEMPO 4500
NVSC 151500Z 00000KT 9999 BKN020 25/24 Q1013
NVVW 151500Z AUTO 16009KT //// // NCD 22/18 Q1015
MGRT 151500Z 00000KT 9999 SCT018 SCT020 28/24 Q1016 A3000 VOL. SANTA MARIA Y SANTIAGUITO EN ACTIVIDAD
MGCB 151500Z 00000KT 9999 SCT018 BKN200 22/18 QFE 873.6
MGES 151500Z 00000KT 9999 BKN016 BKN200 22/19 QFE 911.5
MGHT 151500Z 14006KT 9999 FEW022 20/15 FEW200
MGPB 151500Z 08006KT 7000 SCT018 BKN200 29/25 Q1014 A2994 HZ
MGQZ 151500Z 36008KT CAVOK 18/10 QFE 775.1 FEW200
MGSJ 151500Z 09010KT 9999 FEW018 30/26 Q1914 A2994 FEW200
MGZA 151500Z 00000KT 9999 SCT014 SCT200 27/22 QFE 991.2
SVMI 151500Z 11006KTT 9999 FEW016 29/26 Q1015
SYMB 151500Z 04006KT 9000 VCSH SCT019 SCT100 28/23 Q//// NOSIG RMK VCSH-ALQDS
SYLT 151500Z 06008KT 8000 VCSH BKN022 OVC100 23/23 Q//// NOSIG RMK VCSH-ALQDS
NVVA 151500Z AUTO 03006KT //// // NCD 23/17 Q1016
RKSM 151500Z 20003KT 9999 SCT040 23/21 A2950
VTSF 151500Z 27003KT 9999 SCT018 BKN022 26/25 Q1007 NOSIG
MGMT 151500Z 00000KT CAVOK 31/24
CWXC 151500Z AUTO 31006KT 20/10 RMK AO1 SLP174 T01980095 55007
CWEZ 151500Z AUTO 24010KT 16/11 RMK AO1 SLP165 T01610111 53011
MGMM 151500Z 10008KT 9999 FEW014 29/24 Q1018 A3006
KMHV 151500Z AUTO 03009KT 10SM CLR 29/10 A3006 RMK A01
FCBB 151500Z 19007KT 160V220 8000 NSC 29/19 Q1011 NOSIG
FCPP 151500Z 22007KT 8000 FEW013 BKN026 24/20 Q1011 NOSIG
GOGG 151500Z 14004KT 9999 BKN016TCU 33/27 Q1011
GOGS 151500Z 22006KT 9999 SCT013TCU 31/26 Q1011
GOOK 151500Z 18004KT 9999 BKN013 35/26 Q1011
GOOY 151500Z 32008KT 9999 SCT013 30/23 Q1011
GOSS 151500Z 30008KT 240V340 CAVOK 31/24 Q1011
DTTA 151500Z 02010KT 340V060 CAVOK 31/15 Q1015
HAAB 151500Z /////KT 9999 BKN025 BKN070 17/14 Q1024
HKJK 151500Z 14011KT 090V160 9999 SCT024 FEW025CB 22/11 Q1021 NOSIG
HKKI 151500Z VRB02KT 9999 FEW026 27/17 Q1015
HKWJ 151500Z 18004KT 9999 FEW025CB SCT027 24/21 Q1011 RESH
CWWS 151500Z AUTO 27005KT 22/18 RMK AO1 SLP157 T02200175 53007
CWNK 151500Z AUTO 18001KT 23/19 RMK AO1 SLP175 T02340188 51005
CYFO 151500Z 23008KT 15SM FEW090 FEW250 25/12 A2995 RMK AC1CI1 FU SLP146 DENSITY ALT 2400FT
CWDO 151500Z AUTO 03003KT 17/11 RMK AO1 SLP126 T01680110 56010
CXDK 151500Z AUTO 16/11 RMK AO1 SLP087 T01580114 52008
CXLL 151500Z AUTO 34002KT 14/12 RMK AO1 SLP096 T01440123 51009
CXTN 151500Z AUTO 27014KT M00/M00 RMK AO1 PK WND 27023/1427 SLP110 T10021002 51014
CXYH 151500Z AUTO 14/12 RMK AO1 SLP084 T01380121 53010
CYBB 151500Z 14020KT 15SM FEW120 18/09 A2962 RMK AC2 SLP033 DENSITY ALT 800FT
CZRP 151500Z AUTO 14009KT 03/03 RMK AO1 SLP945 T00300030 51001
LOAV 151500Z 32010KT 9999 SCT050 25/13
DIBK 151500Z 24008KT 9999 BKN013 29/22 Q1012 NOSIG
HUEN 151500Z 16010KT 9999 FEW023 FEW025CB 24/18 Q1016
FWKI 151500Z 11008KT 9999 FEW029 BKN090 16/13 Q1023 NOSIG
FYKT 151500Z /////KT CAVOK ///// Q////
CWDM 151500Z AUTO 23005KT 15/13 RMK AO1 SLP134 T01480132 56010
SBUF 151500Z 15007KT 9999 SCT018TCU SCT020 BKN070 24/19 Q1018
VRMM 151500Z 20009KT 9999 FEW018 BKN270 29/26 Q1008 NOSIG
HBBA 151500Z 18010KT 9000 FEW030 28/18 Q1012 NOSIG
EISG 151500Z 31007KT 9999 FEW030 16/10 Q1025
VOHB 151500Z 26010KT 6000 SCT010 SCT012 BKN080 23/22 Q1007
KGZN 151500Z AUTO 18005KT 10SM 29/18 A3012 RMK AO2
SYEC 151500Z 12006KT 9999 FEW017CB SCT018 29/26 Q1013 NOSIG RMK CB NNW-NNE ENE-E
CWZV 151500Z AUTO 18011KT 11/ RMK AO1 SLP104 T0106 51007
CWRU 151500Z AUTO 12027G40KT 13/ RMK AO1 0PAST HR 3006 PK WND 12040/1431 SLP108 P0008 T0128 50024
HEBA 151500Z 30012KT CAVOK 29/17 Q1007 NOSIG
CWJO 151500Z AUTO 31009KT 22/11 RMK AO1 SLP182 T02170114 56005
CWWL 151500Z AUTO 15010KT 12/11 RMK AO1 0PAST HR 1013 SLP099 P0004 T01180112 50010
CWME 151500Z AUTO 26002KT 14/14 RMK AO1 2PAST HR 1002 SLP114 P0001 T01400138 50020
CWQS 151500Z AUTO 13006KT 12/11 RMK AO1 SLP094 T01190113 53009
CWZL 151500Z AUTO 16003KT 11/11 RMK AO1 SLP105 T01130109 51012
CWHP 151500Z AUTO 24009KT 14/ RMK AO1 SLP135 T0138 56002
TQPF 151500Z 10016KT 9999 FEW019 29/25 Q1017 RMK NOSIG
DABS 151500Z 02005KT 9999 FEW033 32/M01 Q1018
HEGN 151500Z 35018KT CAVOK 34/10 Q1003 NOSIG
HESN 151500Z 35009KT CAVOK 39/M01 Q1005 NOSIG
HEAT 151500Z 36010KT CAVOK 35/10 Q1009 NOSIG
HEAX 151500Z 29010KT 9999 SCT020 28/19 Q1007 NOSIG
HEBL 151500Z 33008KT CAVOK 38/07 Q1006 NOSIG
HELX 151500Z 33012KT CAVOK 37/09 Q1004 NOSIG
HEMA 151500Z 35013KT CAVOK 33/14 Q1004 NOSIG
HEPS 151500Z 34010KT CAVOK 27/22 Q1007 NOSIG
HESH 151500Z 03009KT CAVOK 36/15 Q1002 NOSIG
CWND 151500Z AUTO 31011KT 02/01 RMK AO1 SLP094 T00170006 53008
CXTV 151500Z AUTO 30004KT 08/04 RMK AO1 SLP120 T00790041 53001
CTRA 151500Z AUTO 08002KT 23/16 RMK AO1 SLP157 T02310160 51003
HESG 151500Z 32014KT CAVOK 35/09 Q1005 NOSIG
VOPB 151500Z 22004KT 5000 BR SCT014 OVC080 28/25 Q1006 NOSIG
OTHH 151500Z 07006KT 5000 DU NSC 35/28 Q0994 TEMPO 4500
VOTP 151500Z 24008KT 6000 FEW020 31/21 Q1003 NOSIG
HECP 151500Z 29009KT CAVOK 32/13 Q1007 NOSIG
HEOC 151500Z 28008KT CAVOK 34/14 Q1008 NOSIG
CWPS 151500Z AUTO RMK AO1 51005
CWMZ 151500Z AUTO 28005KT 17/16 RMK AO1 SLP230 T01730161 53004
FKKR 151500Z 28012KT 9999 TS BKN016 FEW020CB 31/23 Q1008 NOSIG
FKYS 151500Z 25004KT 9999 BKN020 28/22 Q1014 NOSIG
CWDT 151500Z AUTO 29009KT RMK AO1 56002
WAJJ 151500Z 00000KT 9999 SCT012 25/22 Q1010 NOSIG
CWKD 151500Z AUTO 28011KT 18/09 RMK AO1 SLP166 T01830088 56006
CZPS 151500Z AUTO 30004KT 18/15 RMK AO1 T01830148
DNAA 151500Z 29009KT 9999 SCT013 31/22 Q1010 NOSIG
DGAA 151500Z 19013KT 9999 BKN016 27/23 Q1011 NOSIG
FAKN 151500Z 07005KT CAVOK 16/09 Q1030 NOSIG
FGSL 151500Z 24012KT 9999 FEW013 29/25 Q1011 NOSIG
CWEE 151500Z AUTO 22/10 RMK AO1 SLP181 T02150103 56007
CWIX 151500Z AUTO 26005KT 20/14 RMK AO1 SLP187 T02040138 51001
CWCI 151500Z AUTO 14008KT 11/07 RMK AO1 SLP203 T01070069 50001
GOSM 151500Z 02002KT 9999 SCT016 41/24 Q1009
GOSP 151500Z 22002KT CAVOK 39/24 Q1009
GOGK 151500Z 22002KT 9999 FEW020 35/24 Q1008
GOOD 151500Z 18004KT 9999 SCT013 BKN230 32/23 Q1010
GOOG 151500Z 28004KT CAVOK 38/22 Q1008
HKEM 151500Z 00000KT 9999 BKN019 22/12
HKGA 151500Z 11020KT 9999 SCT028 BKN090 28/17
HKLU 151500Z 18005KT 9999 SCT023 26/22
HKNK 151500Z 00000KT 9999 FEW023CB BKN024 22/11
FTTA 151500Z 19004KT 9999 TS FEW040 FEW050CB 30/24 Q1009
DBBB 151500Z 22013KT 9999 SCT013 28/24 Q1011 NOSIG
DXNG 151500Z 23007KT 200V280 9999 SCT008 30/21 Q1013
DXSK 151500Z 22006KT 9999 SCT013 BKN260 32/25 Q////
DXXX 151500Z 21012KT 180V240 9999 SCT014 28/23 Q1012 NOSIG
DRZA 151500Z 24006KT 9999 SCT040 41/16 Q1006
DRRT 151500Z 28008KT 230V360 CAVOK 38/19 Q1007
DRRN 151500Z 27010KT 240V300 9999 FEW033 FEW040CB 38/18 Q1007 TEMPO TS
DRZR 151500Z 17006KT 8000 -TSRA SCT030CB 23/21 Q1010
DFOO 151500Z 24005KT 180V320 9999 FEW016 SCT026 FEW033CB 33/22 Q1011
DNMM 151500Z 20007KT 9999 BKN013 30/24 Q1012 NOSIG
DRRM 151500Z 26008KT 9999 SCT030 TCU 32/24 Q1008
CWRO 151500Z AUTO 19002KT 13/ RMK AO1 SLP094 T0126 52005
CXWB 151500Z AUTO 14020KT RMK AO1 PK WND 14028/1424 58003
COR FZAA 151500Z 30006KT 6000 NSC 30/18 Q1011 NOSIG
CXMI 151500Z AUTO 15004KT 16/15 RMK AO1 SLP142 T01630150 58002
CWXL 151500Z AUTO 19004KT 22/12 RMK AO1 SLP133 T02170115 52004
CWRT 151500Z AUTO 17/08 RMK AO1 SLP144 T01740077 58006
CWZW 151500Z AUTO 28005KT 11/09 RMK AO1 SLP119 T01130090 52005
CWVN 151500Z AUTO 16006KT 27/13 RMK AO1 SLP134 T02730131 58005
CWJU 151500Z AUTO 13005KT 11/11 RMK AO1 SLP100 T01130109 53007
TKPN 151500Z 09016KT 9999 BKN020 30/25 Q1016
CWUS 151500Z AUTO 03001KT 21/10 RMK AO1 SLP140 T02090095 51007
CAHR 151500Z AUTO 00000KT 17/16 RMK AO1 3PAST HR 3006 SLP145 P0001 T01710160 50003
CWEF 151500Z AUTO 03009KT 13/12 RMK AO1 SLP139 T01330115 56003
CWHL 151500Z AUTO 15007KT 12/12 RMK AO1 0PAST HR 1010 SLP095 P0004 T01210118 50052
FKKD 151500Z 23007KT 9999 BKN016 FEW020CB 29/23 Q1010 NOSIG
HKNW 151500Z 14012KT 9999 BKN024 22/10 Q1021
CWMQ 151500Z AUTO 21002KT 26/13 RMK AO1 SLP125 T02620132 57004
CWGM 151500Z AUTO 05003KT 22/10 RMK AO1 T02240099
TLPC 151500Z 07012KT 9999 BKN024 30/25 Q1015 NOSIG
TLPL 151500Z 08020KT 9999 BKN028 30/24 Q1015 NOSIG
FNLU 151500Z 24009KT CAVOK 24/18 Q1010 NOSIG
FNMO 151500Z 34015KT 9999 BKN016 20/16 Q1012
NFTV 151500Z 08009KT 9999 FEW018 25/21 Q1016
TNCM 151500Z 06014KT 040V100 9999 SCT020 30/23 Q1018 NOSIG
TNCC 151500Z 08010KT 9999 VCSH FEW018 BKN030 30/23 Q1014 NOSIG
NCAT 151500Z AUTO 14003KT //// ////// ///// Q////
NCMR 151500Z AUTO 07006KT //// ////// ///// Q1018
NCSW 151500Z AUTO 09004KT //// ////// 27/23 Q1013
NCPL 151500Z AUTO 08004KT //// ////// 25/18 Q1018
MNCH 151500Z 09004KT 9999 FEW025 SCT090 31/21 Q1013
MNJG 151500Z 09012KT 9999 BKN012 23/18 Q1015
MNJU 151500Z 08006KT 9999 SCT020 SCT080 29/23 Q1013
MNMG 151500Z 07010KT 9999 FEW022 SCT300 30/23 Q1013 A2992 1AC070 NOSIG
MNPC 151500Z 06010KT 7000 SCT016 SCT300 30/26 Q1013 HZ
MNRS 151500Z 10004KT 8000 RA FEW012CB BKN013 25/24 Q1013 CB 4/C
WMKA 151500Z 00000KT 9999 FEW030 27/26 Q1008
WBGB 151500Z 00000KT 9999 FEW016 25/23 Q1010
WMKB 151500Z VRB03KT 9000 FEW024 28/26 Q1008 NOSIG
WMKJ 151500Z 00000KT 9999 FEW022 26/25 Q1009
WMKC 151500Z 00000KT 9999 FEW020 27/25 Q1008
WMSA 151500Z 00000KT 9999 FEW027 28/25 Q1009
WMKN 151500Z 02004KT 330V070 9999 TS FEW017CB SCT022 27/26 Q1008
WMKD 151500Z 00000KT 9999 SCT025 28/26 Q1009 NOSIG
WBKT 151500Z 00000KT 9999 FEW014 25/25 Q1010
WBKL 151500Z 00000KT 9999 FEW040 26/25 Q1010
WMKL 151500Z VRB02KT 9999 FEW026 28/26 Q1008
WMKM 151500Z 00000KT 9999 FEW030 28/25 Q1009
WMAU 151500Z 15005KT 140V220 9000 FEW025 26/25 Q1009
WBGR 151500Z VRB01KT 9999 SCT016 25/24 Q1009
WBKS 151500Z 00000KT 9000 -RA FEW015 FEW017CB SCT045 26/25 Q1010 RETSRA
WBGS 151500Z VRB02KT 9999 SCT018 27/24 Q1010
WMBA 151500Z 00000KT 9000 FEW032 27/25 Q1008
WBGY 151500Z AUTO 00000KT //// // ////// 27/25 Q1009
WBKW 151500Z 00000KT 9999 FEW016 25/24 Q1011
TDCF 151500Z 13006G16KT 9999 SCT019 31/23 Q1014
TDPD 151500Z 11011G22KT 9999 SCT017 31/25 Q1017
MZBZ 151500Z 10006KT 9999 FEW021 30/25 A3002 Q1016 NOSIG RMK HZY
TNCA 151500Z 09017KT 9999 BKN021 29/23 Q1014 NOSIG
KNEL 151500Z AUTO 07008KT 10SM FEW070 26/13 A3014 RMK AO2 SLP203 T02560133 51011 $
SPHY 151500Z /////KT CAVOK 11/M04 Q1036 RMK BIRD HAZARD RWY03/21 PP000
SPHI 151500Z 17006KT 9999 OVC015 17/13 Q1017 RMK BIRD HAZARD RWY 19/01 PP000
CXAT 151500Z AUTO 31004KT 08/02 RMK AO1 SLP086 T00830024 50000
CYEK 151500Z 30009KT 15SM FEW150 19/12 A2966 RMK AC1 SLP046 DENSITY ALT 900FT
CYBK 151500Z 20013KT 20SM FEW026 BKN035 BKN072 17/11 A2950 RMK CU1SC5AC1 CU TR SLP992 DENSITY ALT 800FT
CWVD 151500Z AUTO 32026KT ////SM NCD 11/01 A2966
CYTE 151500Z 09006KT 060V120 15SM FEW260 14/08 A2987 RMK CI1 SLP118 DENSITY ALT 200FT
CYUX 151500Z 19007KT 10SM SKC 13/08 A2981 RMK SLP098
CWIL 151500Z AUTO ///// ////SM NCD ///// A////
VAAU 151500Z 23005KT 6000 SCT012 SCT020 BKN080 25/22 Q1003 NOSIG
VEGY 151500Z 05005KT 4000 TS SCT018 FEW030CB BKN100 29/26 Q0999
VAID 151500Z 23005KT 5000 HZ FEW012 SCT018 BKN100 25/23 Q1002 NOSIG
SKUC 151500Z 00000KT 9999 -DZ SCT012TCU SCT070 26/23 Q1015 RMK TCU/NW/N A2997
SKCG 151500Z 04003KT 9999 SCT018 30/26 Q1012 RMK A2989
SKIB 151500Z 16005KT 9999 -DZ FEW015CB BKN020 25/21 Q1021 RMK CB/N A3015
SKIP 151500Z 00000KT 9999 SCT016 SCT070 13/09 Q1031 RMK A3047
SKMZ 151500Z 25004KT 7000 VCFG SCT010 SCT070 18/15 Q1029 RMK A3040
SKMD 151500Z 03004KT 9999 SCT033 BKN200 24/16 Q1022 RMK A3021
SKMR 151500Z 25005KT 9999 SCT017 30/24 Q1013 RMK A2991
SKNV 151500Z VRB02KT 9999 FEW030 BKN100 29/20 Q1015 RMK A3000
SKPS 151500Z 00000KT 4000 BR SCT008 BKN080 17/16 Q1024 RMK A3024
SKPC 151500Z 17003KT 9999 FEW017 BKN070 27/23 Q1014 RMK A2994
SKUI 151500Z 18003KT 9999 BKN016 28/23 Q1013 RMK A2994
SKSP 151500Z 07011KT 050V110 9999 FEW017 SCT200 30/24 Q1014 RMK A2997
FYGF 151500Z AUTO 07008KT //// // ////// 22/M01 Q1024
CPBT 151500Z AUTO 24007KT 22/11 RMK AO1 T02180109
CXCS 151500Z AUTO 09007KT 19/16 RMK AO1 T01910155
CYED 151500Z 01003KT 15SM BKN170 20/15 A2996 RMK AC6 DENSITY ALT 3629FT SLP139
CYET 151500Z AUTO 02003KT 320V070 9SM SCT110 16/10 A2996 RMK SLP141 DENSITY ALT 3800FT
CPEH 151500Z AUTO 00000KT 20/12 RMK AO1 T02040120
CWGY 151500Z AUTO 13007KT 23/17 RMK AO1 SLP125 T02340170 55005
CXFR 151500Z AUTO 21007KT 18/12 RMK AO1 T01770118
CPFI 151500Z AUTO 24005KT 22/13 RMK AO1 T02220131
CYMM 151500Z AUTO 24005KT 9SM OVC140 19/11 A2992 RMK SLP137 DENSITY ALT 2000FT
CXMM 151500Z AUTO 25006KT 19/11 RMK AO1 SLP132 T01910113 51003
CYQU 151500Z VRB02KT 25SM BKN070 BKN200 15/12 A2994 RMK AC5CI2 SLP145 DENSITY ALT 2800FT
CWLB 151500Z AUTO 15001KT 19/15 RMK AO1 3002 SLP148 T01860151 50002
CWRM 151500Z AUTO 30004KT 17/12 RMK AO1 SLP115 T01730121 53001
CPSV 151500Z AUTO 22009KT 22/12 RMK AO1 T02220120
FQCH 151500Z 21014KT 9999 BKN015 19/12 Q1026
FQMA 151500Z 13009KT 9999 FEW025 22/16 Q1027 NOSIG
DTTL 151500Z 01007KT CAVOK 30/20 Q1015
DTTD 151500Z 09006KT 030V170 9999 FEW026 35/07 Q1015
OEKJ 151500Z 01017KT 6000 NSC 43/M02 Q1001
OEAO 151500Z 18004KT CAVOK 42/00 Q1004 NOSIG
OERR 151500Z 28014KT CAVOK 41/M04 Q1002 NOSIG
OEBA 151500Z 33018KT 9999 SCT030 33/19 Q1013 NOSIG
OEGN 151500Z 29015KT 9000 FEW030 34/26 Q1001 NOSIG
OEGT 151500Z 32014KT CAVOK 37/07 Q1004 NOSIG
OEPA 151500Z 36010KT CAVOK 43/10 Q0999 NOSIG
OEHL 151500Z 01008KT CAVOK 39/05 Q1007
OEJB 151500Z AUTO 07006KT CAVOK 38/25 Q0995 NOSIG
OEMA 151500Z 30012KT CAVOK 42/03 Q1005 NOSIG
OENG 151500Z 05010KT 7000 SCT030 37/07 Q1007 NOSIG
OEDM 151500Z 36012KT CAVOK 39/01 Q1005
OERF 151500Z 33017KT CAVOK 41/M01 Q1002 NOSIG
OERK 151500Z 36017KT 6000 NSC 41/01 Q1001 TEMPO 5000 BLDU
OESH 151500Z 35006KT 7000 NSC 41/08 Q1000 NOSIG
OETB 151500Z 24008KT CAVOK 40/02 Q1005 NOSIG
OETF 151500Z 32019KT 9999 SCT030 SCT080 32/03 Q1015 NOSIG
OETR 151500Z 26008KT CAVOK 37/07 Q1006 NOSIG
OEWD 151500Z 01010KT CAVOK 42/12 Q1000 NOSIG
OEYN 151500Z 26020KT CAVOK 35/25 Q0999 NOSIG
FIMP 151500Z 13008KT 9999 VCSH SCT016 SCT050 21/18 Q1020
ZUUU 151500Z 15002G07MPS 070V220 9999 FEW030CB FEW030 32/26 Q0999 NOSIG
ZUTF 151500Z 08002MPS 050V120 9999 FEW033 FEW033TCU 34/25 Q0998 NOSIG
ZUCK 151500Z 07005MPS 050V110 CAVOK 35/22 Q0999 NOSIG
ZSFZ 151500Z 20005MPS CAVOK 28/26 Q1004 NOSIG
ZGKL 151500Z 31001MPS CAVOK 28/25 Q1005 NOSIG
ZJHK 151500Z 15003MPS 110V180 CAVOK 28/26 Q1006 NOSIG
ZYHB 151500Z 06004MPS CAVOK 21/18 Q1002 NOSIG
ZSOF 151500Z 00000MPS CAVOK 31/27 Q1000 NOSIG
ZWSH 151500Z 16002MPS 130V200 9999 FEW033CB SCT040 25/08 Q1017 NOSIG
ZPPP 151500Z 19005MPS CAVOK 22/14 Q1018 NOSIG
COR ZLLL 151500Z 05005MPS 9999 SCT010 OVC046 17/13 Q1019 BECMG TL1640 33003MPS
ZSNJ 151500Z VRB01MPS CAVOK 30/26 Q1000 NOSIG
ZSNB 151500Z 34002MPS 310V010 CAVOK 31/26 Q1000 NOSIG
ZSQD 151500Z 15002MPS 3500 BR NSC 26/26 Q1000 NOSIG
ZJSY 151500Z 10003MPS 9999 FEW020 28/26 Q1007 NOSIG
ZGOW 151500Z 24003MPS CAVOK 29/27 Q1006 NOSIG
ZGSZ 151500Z 17004MPS CAVOK 29/27 Q1007 NOSIG
ZBSJ 151500Z VRB01MPS CAVOK 28/25 Q0999 NOSIG
ZMUB 151500Z 31003MPS 9999 FEW030CB BKN033 13/11 Q1009 NOSIG RMK QFE650.2 89 NT
ZHHH 151500Z 22001MPS CAVOK 30/27 Q1001 NOSIG
ZSAM 151500Z 03001MPS CAVOK 29/27 Q1005 NOSIG
ZLXY 151500Z 27003MPS 9999 -TSRA FEW033CB BKN050 24/24 Q1001 RESHRA BECMG TL1630 NSW
ZHCC 151500Z 07002MPS 030V100 4000 BR NSC 30/27 Q1001 NOSIG
HKLO 151500Z 08010KT 9/9 FEW032 34/14
HKKT 151500Z 18003KT 9999 FEW019CB SCT020 BKN080 18/15 RESH
COR HKML 151500Z 18010KT 9999 SCT016 BKN080 25/23 Q1015 RERA
HKME 151500Z 16003KT 9999 SCT020 BKN080 21/12
HKMO 151500Z 17011KT 9999 FEW024 SCT090 26/21 Q1015 NOSIG
CWRA 151500Z AUTO 00004KT 13/13 RMK AO1 SLP131 T01280127 58009
CYDF 151500Z VRB02KT 15SM FEW028 BKN062 OVC097 15/13 A2995 RMK SC1SC4AC3 SLP143 DENSITY ALT 100FT
CXRH 151500Z AUTO 32005KT 15/10 RMK AO1 SOG 04 8003 SLP140 T01520104
HEMM 151500Z 30014KT CAVOK 28/20 Q1008 NOSIG
SBLB 151500Z AUTO 03018KT 9999 NCD 24/18 Q1020 W/////
SBHT 151500Z 01007KT 9999 BKN030 ///// Q1013
SBBG 151500Z 06003KT 2000 -RA SCT004 BKN016 BKN070 17/17 Q1008
SBCZ 151500Z 33005KT 9999 BKN025 29/24 Q1013
SBCT 151500Z 32013KT CAVOK 22/12 Q1017
SBFN 151500Z AUTO 13012KT 9999 SCT016 BKN020 28/24 Q1013
SBFL 151500Z 35012KT 9999 FEW020 BKN090 22/19 Q1011
SBFZ 151500Z 16013KT 9999 SCT025 BKN070 29/20 Q1013
SBIH 151500Z 08009KT 9999 SCT016 32/25 Q1013
SBJP 151500Z 15017KT 130V190 9999 SCT025 SCT070 28/21 Q1015
SBJV 151500Z 06004KT 4000 BR BKN010 21/18 Q1012
SBJU 151500Z 18014KT 9999 FEW022 29/16 Q1018
SBPJ 151500Z 08007KT CAVOK 32/16 Q1015
SBPB 151500Z 08009KT 9999 FEW020 BKN100 31/24 Q////
SBPF 151500Z 04007KT 9999 FEW006 BKN029 BKN082 17/14 Q1010
SBPK 151500Z 04005KT 6000 -RA FEW010 OVC100 17/17 Q1008
SBPL 151500Z 17011KT 9999 FEW033 28/14 Q1018
SBPP 151500Z 33020KT CAVOK 27/16 Q1011
SBPA 151500Z 13006KT 090V170 4000 -RA BR FEW006 SCT020 FEW040TCU OVC080 18/17 Q1008
SBSM 151500Z 11004KT 070V170 6000 -TSRA SCT003 SCT020 FEW040CB OVC070 17/17 Q1007
SBSN 151500Z 07008KT 9999 SCT017 BKN100 28/25 Q1013
SBTT 151500Z 28004KT CAVOK 27/23 Q1014
SBTU 151500Z AUTO 25006KT 200V300 9999 FEW026 30/23 Q1014
SBVH 151500Z 35012KT CAVOK 29/15 Q1016
SBVT 151500Z 06007KT 010V090 9999 SCT030 26/18 Q1020
CYBL 151500Z VRB02KT 15SM -SHRA FEW035 BKN075 OVC100 15/14 A2996 RMK SC2AC5AC1 VIS LWR E-S OCNL SHRA CVCTV CLD EMBDD SLP148 DENSITY ALT 400FT
CYCQ 151500Z VRB02KT 35SM FEW050 SCT080 BKN100 OVC190 13/10 A2991 RMK SC2AC2AC3AS1 ROTOR CLDS W FU VLY W VIRGA N-E +SW SLP139 DENSITY ALT 2300FT
CYQQ 151500Z 00000KT 12SM -SHRA FEW015 SCT065 BKN075 16/12 A2998 RMK CU1SC3AC3 SLP152
CYXC 151500Z VRB02KT 25SM FEW180 19/08 A3005 RMK AC1 AC TR SLP157 DENSITY ALT 4200FT
CWJR 151500Z AUTO 04002KT 20/09 RMK AO1 SLP148 T01980093 50002
CYDQ 151500Z AUTO 10004KT 080V190 9SM FEW240 17/12 A2992 RMK SLP139 DENSITY ALT 2900FT
CYZT 151500Z 12008KT 040V170 15SM FEW010 BKN058 BKN100 14/13 A2988 RMK SF1SC4AC2 OCNL - SHRA CVCTV CLD EMBD SLP121 DENSITY ALT 100FT
CYPW 151500Z 10010G20KT 070V130 20SM FEW012 FEW083 OVC092 16/14 A2999 RMK SF1AC2AC6 SF TR SH DIST W SLP158 DENSITY ALT 600FT
CYXS 151500Z AUTO 00000KT 4SM -RA BR FEW002 SCT037 13/13 A2992 RMK SLP142 DENSITY ALT 2600FT
CYPR 151500Z AUTO 18003KT 130V210 3SM -RA BR SCT003 BKN022 BKN032 OVC055 12/12 A2982 RMK SLP101
CWGT 151500Z AUTO 15004KT 17/14 RMK AO1 SLP164 T01700142 53014
CYVR 151500Z 12014G19KT 30SM FEW040 SCT085 SCT120 SCT220 18/12 A3002 RMK CU1AC3AC1CI1 CU TR CI TR SLP169 DENSITY ALT 300FT
CZCR 151500Z AUTO 27004KT 22/16 RMK AO1 8011 SLP142 T02160157 50002
CXLB 151500Z AUTO 12007KT 16/15 RMK AO1 SLP146 T01580152 56002
CYGH 151500Z 12003KT 050V140 25SM FEW030 SCT100 BKN220 09/03 A2990 RMK SC1AC4CI1 SC TR SLP132
CZFM 151500Z 15005KT 120V190 35SM SCT050 BKN100 10/05 A2987 RMK SC4AC3 SLP118
CYHI 151500Z 27017G22KT 15SM BKN005 BKN051 02/00 A2968 RMK SC6ST1 CIG RAG/VRBL CIG 4-6 SLP055
CZEV 151500Z AUTO 21004KT 08/04 RMK AO1 SLP126 T00840039 50000
CYEV 151500Z 22003KT 170V240 15SM FEW045 BKN110 09/04 A2987 RMK SC2AC4 SLP123
CWKP 151500Z AUTO 27028G36KT ////SM BKN007 OVC012 00/M00 A2971
CYLD 151500Z 21007KT 15SM FEW220 BKN240 BKN270 19/09 A3015 RMK CS1CI4CI2 SLP218 DENSITY ALT 2100FT
CXDI 151500Z AUTO 31003KT 23/08 RMK AO1 SLP225 T02340078 51002
CYHD 151500Z AUTO 32004KT 260V030 9SM CLR 23/16 A3004 RMK SLP176 DENSITY ALT 2500FT
CXEA 151500Z AUTO 29004KT 22/18 RMK AO1 SLP152 T02230180 51003
CXET 151500Z AUTO 27002KT 22/11 RMK AO1 SLP228 T02200107 50002
CYER 151500Z AUTO 25004KT 210V300 9SM BKN012 OVC091 21/19 A2973 RMK SLP071 DENSITY ALT 1000FT
CWGD 151500Z AUTO 23006KT 23/09 RMK AO1 SLP220 T02330093 58003
CYZE 151500Z AUTO 22006KT 180V250 9SM CLR 22/09 A3015 RMK SLP213 DENSITY ALT 1400FT
CWGH 151500Z AUTO 18002KT 25/16 RMK AO1 SLP215 T02510155 58002
CYHM 151500Z VRB02KT 15SM FEW050 FEW100 23/09 A3019 RMK CU1AC1 CU TR AC TR SLP222 DENSITY ALT 1600FT
CXHM 151500Z AUTO 19002KT 25/08 RMK AO1 6003 SLP215 T02520078 50008
CXHA 151500Z AUTO 18008KT 24/14 RMK AO1 SLP216 T02350144 53004
CYYU 151500Z 20008KT 15SM FEW210 SCT240 BKN260 21/10 A3008 RMK CI2CI2CI3 SLP193 DENSITY ALT 1500FT
CXKA 151500Z AUTO 23008KT 20/10 RMK AO1 SLP185 T02010095 58004
CXKE 151500Z AUTO 25002KT 24/12 RMK AO1 SLP212 T02370115 58003
CYQK 151500Z VRB04KT 20SM SCT024 23/17 A3005 RMK SC3 SLP177 DENSITY ALT 2400FT
CYOO 151500Z AUTO 17005KT 120V210 9SM SCT071 SCT083 23/14 A3017 RMK SLP219 DENSITY ALT 1300FT
CYPQ 151500Z AUTO 17004KT 120V190 9SM CLR 23/14 A3017 RMK SLP220 DENSITY ALT 1500FT
CYXZ 151500Z 24003KT 200V280 15SM SCT057 BKN064 OVC180 17/09 A3015 RMK SC3SC2AC3 SLP217 DENSITY ALT 1100FT
CYVV 151500Z 24005KT 190V330 15SM FEW044 FEW250 22/10 A3018 RMK CU1CI1 CU TR SLP223 DENSITY ALT 1400FT
CWSD 151500Z AUTO 36008KT 17/15 RMK AO1 SLP152 T01710152 53010
CWSF 151500Z AUTO 29013G20KT 17/12 RMK AO1 PK WND 29022/1420 SLP121 T01740117 58009
CWTN 151500Z AUTO 26003KT 22/15 RMK AO1 SLP182 T02220148 57004
CWIS 151500Z AUTO 31003KT 20/08 RMK AO1 SLP194 T01950081 50000
CWHQ 151500Z AUTO 20003KT 22/14 RMK AO1 T02190143
CYNC 151500Z 18009KT 160V240 15SM FEW140 FEW250 SCT300 19/11 A2989 RMK AC1CS1CI1 SLP124 DENSITY ALT 600FT
CZEM 151500Z 22013G22KT 15SM FEW240 20/13 A2992 RMK CI2 SLP134 DENSITY ALT 700FT
CMFM 151500Z AUTO 31006KT 19/07 RMK AO1 SLP198 T01930068 54000
CWFQ 151500Z AUTO 14002KT 22/14 RMK AO1 SLP212 T02150139 51001
CYGP 151500Z 08008KT 060V130 15SM FEW040 FEW220 21/17 A2991 RMK CU1CI1 TCU TOP DIST W-N SLP130 DENSITY ALT 900FT
CYND 151500Z 15006KT 050V210 15SM FEW048 25/13 A3014 RMK CU1 CU TR SLP208 DENSITY ALT 1200FT
CMGB 151500Z AUTO 20003KT 23/17 RMK AO1 SLP208 T02280172 58001
CYGV 151500Z AUTO 20010KT 9SM CLR 20/13 A2988 RMK SLP122 DENSITY ALT 800FT
CYUY 151500Z 27009KT 210V280 15SM FEW048 BKN240 23/09 A3013 RMK CF1CI5 CF TR SLP210 DENSITY ALT 1900FT
CWVP 151500Z AUTO 18004KT 23/10 RMK AO1 SLP143 T02300095 57003
LKKU 151500Z 32009KT CAVOK 23/07 Q1018
DAUU 151500Z 05007KT 9999 SCT046 39/09 Q1010
DAAS 151500Z 03008KT 350V080 9999 FEW026TCU SCT030 32/07 Q1019
DAUT 151500Z 07017KT CAVOK 42/07 Q1010
DAOF 151500Z 21006KT CAVOK 45/// Q1009
DAUK 151500Z 03003KT 9999 FEW040 39/11 Q1012
LFVP 151500Z AUTO 12003KT 080V140 9999 1800 BKN004 18/15 Q1013 BECMG 0800 FG BKN001
RPVD 151500Z 27004KT 9999 -SHRA SCT015 OVC070 27/25 Q1010 RMK A2983
RPLL 151500Z 36008KT 280V080 4000 TSRA FEW018CB SCT022 OVC080 24/23 Q1010 TEMPO 7000 -TSRA RMK A2983 CB OHD/NW
RPMZ 151500Z VRB01KT 9999 -RA SCT017 OVC080 25/24 Q1011 RMK A2985
OPNH 151500Z 31510KT 3000 DZ FEW020 SCT035 BKN110 27/26 Q0997 TEMPO 2500 DZ
OPSK 151500Z 36010KT 4000 HZ SCT035 SCT100 30/26 Q0998 NOSIG
LPST 151500Z 30009KT 280V340 CAVOK 26/17 Q1014
SGAS 151500Z 02012KT 320V170 9999 FEW033 SCT083 28/18 Q1006
SGES 151500Z 33010KT 9999 BKN030 26/21 Q1008
HRZA 151500Z 13010KT 9999 FEW023CB SCT025 24/13 Q1018 NOSIG
VTSG 151500Z 32008KT 8000 FEW003 SCT018 BKN056 25/25 Q1009 TEMPO TL1550 1000 +RA
FAHS 151500Z AUTO 13007KT //// // ////// 20/13 Q1028
FAGM 151500Z 05006KT CAVOK 15/M05 Q1030
FALA 151500Z 01008KT CAVOK 18/M00 Q1030 NOSIG
FAKM 151500Z 31003KT CAVOK 21/M02 Q1026
FAMM 151500Z 03006KT CAVOK 20/M04 Q1027 NOSIG
FAPE 151500Z 08008KT CAVOK 16/12 Q1026 NOSIG
FAPP 151500Z 08008KT 9999 FEW020 17/05 Q1028 NOSIG
SAZN 151500Z 18006KT 9999 -DZ SCT015 BKN020 04/02 Q1022
SARL 151500Z 09015KT 9999 FEW008 SCT100 21/18 Q1003
SARE 151500Z 03001KT CAVOK 25/18 Q1002 RMK PP///
VABP 151500Z 13002KT 4000 HZ SCT20 BKN100 25/24 Q1001 NOSIG
VEBS 151500Z 31002KT 4000 HZ SCT018 FEW030CB SCT100 28/27 Q0998 NOSIG
VOCL 151500Z 21005KT 4000 BR FEW006 SCT012 FEW025CB BKN080 24/23 Q1008 NOSIG
VIDP 151500Z 05007KT 3500 VCTS FEW035 FEW040CB SCT100 34/25 Q1000 TEMPO 17015G25KT 1500 TSRA
VEGT 151500Z 00000KT 3000 BR SCT018 BKN100 28/26 Q1000 NOSIG
VOHY 151500Z 26005KT 6000 SCT015 BKN100 23/23 Q1006 NOSIG
VOHS 151500Z 25006KT 5000 HZ FEW010 SCT015 BKN100 24/22 Q1005 NOSIG
VAJB 151500Z 05003KT 2500 -RA SCT010 SCT020 FEW030CB BKN080 25/24 Q1001 NOSIG
VIJP 151500Z 30004KT 3500 TS SCT030 FEW035CB SCT090 29/27 Q1000 TEMPO 1500 TSRA
VOCI 151500Z 12003KT 3000 BR FEW010 SCT012 BKN080 25/24 Q1008 NOSIG
VECC 151500Z 12007KT 4000 HZ SCT018 SCT100 28/26 Q0999 NOSIG
VILK 151500Z 09005KT 4000 HZ SCT020 SCT100 33/28 Q0999 NOSIG
VOMD 151500Z 28007KT 8000 FEW020 30/21 Q1006 NOSIG
VABB 151500Z 21007G17KT 2500 HZ SCT018 SCT025 BKN090 28/26 Q1000 NOSIG
VOMY 151500Z 24006KT 6000 FEW010 SCT012 22/20 Q1011
VANP 151500Z 23004KT 4000 HZ FEW010 SCT018 FEW030CB BKN080 26/25 Q1001 TEMPO 2000 TSRA
VEPT 151500Z 12004KT 4500 HZ FEW018 FEW030CB SCT100 31/24 Q0999 NOSIG
VERC 151500Z 09003KT 2500 -TSRA SCT010 SCT015 FEW030CB OVC080 24/24 Q1004 NOSIG
VOTR 151500Z 27010G20KT 4000 HZ FEW016 SCT100 30/21 Q1005 NOSIG
VOTV 151500Z 35008KT 2500 -RA FEW008 SCT012 FEW025CB BKN080 26/24 Q1008 NOSIG
VEBN 151500Z 04004KT 4000 HZ BKN020 34/24 Q0998 NOSIG
VOBZ 151500Z 25005KT 4000 HZ SCT020 BKN080 32/24 Q1000 NOSIG
VOVZ 151500Z VRB02KT 5000 -DZ BR SCT016 BKN080 27/26 Q1000 TEMPO DZ
LEAL 151500Z 09007KT 060V130 CAVOK 32/15 Q1016 NOSIG
LEAM 151500Z 09019KT CAVOK 37/11 Q1013
LEAS 151500Z 09010KT 050V130 CAVOK 25/18 Q1016 NOSIG
LEBB 151500Z 03008KT 340V070 CAVOK 33/17 Q1017 NOSIG
LETO 151500Z 17005KT CAVOK 40/03 Q1016 NOSIG
LEMG 151500Z 13008KT 100V190 9999 FEW015 31/14 Q1015 NOSIG
GEML 151500Z 07007KT 020V120 9000 SCT009 BKN012 27/22 Q1015
LEMH 151500Z 24007KT 190V300 CAVOK 31/19 Q1016
LEPA 151500Z 22010KT 180V250 9999 FEW040 31/20 Q1015 NOSIG
LEPP 151500Z 34007KT 250V020 7000 NSC 37/06 Q1017
LERS 151500Z 20007KT 160V260 9999 FEW030 33/22 Q1016
LERT 151500Z 13019KT CAVOK 37/14 Q1011 NOSIG
LELL 151500Z 11011KT 070V150 CAVOK 35/17 Q1015
LESO 151500Z 03006KT 350V060 CAVOK 27/20 Q1018
GCLA 151500Z 02014KT CAVOK 25/17 Q1016
LEXJ 151500Z 08009KT 020V140 CAVOK 29/18 Q1016
LEST 151500Z 27005KT 230V300 CAVOK 31/18 Q1015 NOSIG
LEZL 151500Z 24008KT 200V290 CAVOK 41/06 Q1011 NOSIG
GCXO 151500Z 29014KT 9999 FEW010 22/16 Q1017 NOSIG
GCTS 151500Z 10014KT CAVOK 27/18 Q1015 NOSIG
LEVC 151500Z 13010KT 080V160 CAVOK 33/17 Q1015 NOSIG
LEVD 151500Z 10006KT 020V190 CAVOK 38/01 Q1017
LEVX 151500Z 04003KT 340V110 CAVOK 27/21 Q1014 NOSIG
LEZG 151500Z 09004KT CAVOK 38/09 Q1015
UAOO 151500Z 03004MPS CAVOK 34/02 Q1008 NOSIG RMK QFE744/0993
LRIA 151500Z 33015KT CAVOK 28/14 Q1012
LROD 151500Z 29004KT 220V320 CAVOK 25/11 Q1015
LRSM 151500Z 34007KT 300V030 CAVOK 27/12 Q1015
LRSV 151500Z 36010KT 330V040 CAVOK 26/16 Q1015
LRTR 151500Z 34014KT CAVOK 32/06 Q1014 NOSIG
LRTM 151500Z 36010KT 9999 FEW042 27/14 Q1014
LRTC 151500Z 16012KT CAVOK 31/11 Q1012
UTDL 151500Z 24003MPS 9999 NSC 31/13 Q1006 R26/CLRD70 NOSIG RMK QFE717/0956
YCFS 151500Z AUTO 25006KT 9999 // NCD 08/08 Q1027 RF00.0/000.0
YCIN 151500Z AUTO 00000KT 9999 // NCD 11/M01 Q1015 RF00.0/000.0
YSDU 151500Z AUTO 11006KT 9999 // NCD M01/M02 Q1027 RF00.0/000.0
YFRT 151500Z AUTO 26010KT 9999 // NCD 12/04 Q1017 RF00.0/000.0
YGEL 151500Z AUTO 13004KT 9999 // BKN050 12/10 Q1021 RF00.0/000.6
YPGV 151500Z AUTO 13010KT 9999 // SCT055 22/17 Q1016 RF00.0/000.0
YBHM 151500Z AUTO 15024KT 9999 // BKN022 OVC029 OVC035 18/16 Q1022
YHID 151500Z AUTO 13013KT 9999 // SCT044 OVC050 24/17 Q1015
YPKG 151500Z AUTO 25004KT 190V300 9999 // NCD 10/06 Q1020 RF00.0/000.0
YPKU 151500Z AUTO 15004KT 9999 // NCD 10/06 Q1016 RF00.0/000.0
YMLT 151500Z AUTO 34007KT 9999 // NCD 02/01 Q1019 RF00.0/000.0
YPLM 151500Z AUTO 23009KT 9999 // NCD 17/14 Q1017 RF00.0/000.0
YMML 151500Z 01017KT CAVOK 09/05 Q1022
YBMA 151500Z AUTO 10006KT 9999 // NCD 10/M02 Q1021 RF00.0/000.0
YSNF 151500Z AUTO 24013KT 9999 // ////// 15/09 Q1017 RF00.0/006.8
YPJT 151500Z AUTO 00000KT 9999 // BKN042 12/12 Q1021 RF00.0/000.2
YPPH 151500Z 36006KT CAVOK 10/09 Q1021
YPEA 151500Z AUTO 07004KT 9999 // NCD 10/08 Q1021
YPPD 151500Z AUTO 18006KT 9999 // NCD 13/08 Q1017 RF00.0/000.0
YBRK 151500Z AUTO 24004KT 9999 // NCD 11/10 Q1025 RF00.0/000.0
YSSY 151500Z 31008KT CAVOK 08/04 Q1025
YSTW 151500Z AUTO 17005KT 9999 // NCD 00/M01 Q1027 RF00.0/000.2
YBTL 151500Z AUTO 24004KT 9999 // SCT047 BKN055 OVC068 16/12 Q1021
YPWR 151500Z AUTO 35010KT 9999 // NCD 07/M02 Q1022 RF00.0/000.0
LFLW 151500Z AUTO 30007KT 260V340 CAVOK 31/09 Q1020 NOSIG
LFMV 151500Z AUTO 33017KT CAVOK 38/10 Q1013 BECMG 35015G25KT
LFOA 151500Z AUTO 05010KT CAVOK 28/10 Q1020
LFOB 151500Z AUTO 32007KT 260V360 CAVOK 26/06 Q1022 NOSIG
LFMU 151500Z AUTO 33010KT 270V360 CAVOK 40/10 Q1013 NOSIG
LFRB 151500Z AUTO 03013KT 360V060 CAVOK 23/11 Q1023 TEMPO 04015G25KT
LFSL 151500Z AUTO 33009KT 280V010 CAVOK 33/09 Q1018 NOSIG
LFRK 151500Z AUTO 03009KT 350V070 CAVOK 23/10 Q1024 TEMPO 02015G25KT
LFMK 151500Z AUTO 30009KT 260V350 CAVOK 38/12 Q1015 NOSIG
LFOK 151500Z AUTO 02009KT 320V050 CAVOK 24/08 Q1022 NOSIG
LFLX 151500Z AUTO 36008KT 310V050 CAVOK 28/11 Q1020 NOSIG
LFRC 151500Z AUTO 03007KT 330V070 CAVOK 21/10 Q1025 NOSIG
LFRG 151500Z AUTO 34010KT 280V030 CAVOK 22/09 Q1024 TEMPO 34015G25KT
LFSD 151500Z AUTO 36007KT 300V060 CAVOK 29/10 Q1019
LFRD 151500Z AUTO 35015KT CAVOK 23/15 Q1023 TEMPO 36015G25KT
LFSN 151500Z AUTO VRB05KT CAVOK 26/08 Q1020
LFRS 151500Z AUTO 06007KT 360V120 CAVOK 30/06 Q1020 NOSIG
LFQG 151500Z AUTO 34008KT CAVOK 28/12 Q1020
LFTW 151500Z AUTO 01009KT 310V050 CAVOK 39/10 Q1013 NOSIG
LFMO 151500Z AUTO 35017G27KT CAVOK 37/11 Q1013 NOSIG
LFOJ 151500Z AUTO 03008KT CAVOK 27/05 Q1021 NOSIG
LFPG 151500Z 02006KT 310V080 CAVOK 26/05 Q1022 NOSIG
LFPO 151500Z VRB05KT CAVOK 27/05 Q1022 NOSIG
LFPB 151500Z AUTO 02008KT 330V070 CAVOK 26/07 Q1022 NOSIG
LFMP 151500Z AUTO 33012G22KT 290V030 CAVOK 39/11 Q1013 NOSIG
LFBI 151500Z AUTO 01011KT 340V050 CAVOK 30/09 Q1020 NOSIG
LFRQ 151500Z AUTO 03010KT 010V070 CAVOK 28/11 Q1022 NOSIG
LFRN 151500Z AUTO 34008KT 300V040 CAVOK 29/09 Q1021 TEMPO 01015G25KT
LFYR 151500Z AUTO 04006KT 320V100 CAVOK 29/08 Q1020
LFOP 151500Z AUTO 28005KT 170V340 CAVOK 26/04 Q1023 NOSIG
LFMY 151500Z AUTO 32014KT 260V350 CAVOK 38/10 Q1012
LFRT 151500Z AUTO 02012KT CAVOK 22/13 Q1024
LFSI 151500Z AUTO 32007KT 290V010 CAVOK 26/05 Q1021
LFMH 151500Z AUTO 34010KT 300V010 CAVOK 31/11 Q1018
LFRZ 151500Z AUTO 03010KT 350V090 CAVOK 30/08 Q1020 NOSIG
LFST 151500Z AUTO 34010KT 310V020 CAVOK 27/09 Q1019 NOSIG
LFLN 151500Z AUTO 31009KT 280V350 CAVOK 30/12 Q1019 NOSIG
LFOT 151500Z AUTO 08009KT 030V120 CAVOK 29/06 Q1021 NOSIG
LFPN 151500Z AUTO 35007KT 300V050 CAVOK 26/06 Q1022 NOSIG
LFQB 151500Z AUTO 02007KT 340V070 CAVOK 26/05 Q1021
LFRV 151500Z AUTO 02009KT 350V070 CAVOK 28/09 Q1021
LFLV 151500Z AUTO 36007KT 310V030 CAVOK 29/14 Q1019
LFPV 151500Z AUTO 34006KT 280V050 CAVOK 26/05 Q1022 NOSIG
LDPL 151500Z 16005KT 100V260 CAVOK 34/12 Q1013 NOSIG
LDRI 151500Z 28006KT 240V320 9999 FEW040 33/16 Q1013
LDZD 151500Z 28011KT 220V330 CAVOK 34/12 Q1013 NOSIG
LDZA 151500Z 07008KT 010V120 CAVOK 27/14 Q1016 NOSIG
EIDL 151500Z 27009KT 9999 OVC022 15/09 Q1025
EIKY 151500Z 33006KT 250V040 9999 FEW022 SCT030 19/14 Q1025
EIWF 151500Z 23013KT 200V270 9999 SCT040 20/15 Q1025
LPPS 151500Z 34011KT 310V010 9999 FEW015 SCT030 24/15 Q1017
LPAZ 151500Z 32018KT 9999 FEW007 24/19 Q1018
UWKS 151500Z 25004MPS 9999 -SHRA BKN015CB 19/17 Q1005 R24/290258 NOSIG RMK QFE739
USCC 151500Z 11003MPS 9999 SCT030CB 21/18 Q1007 R27/290050 TEMPO VRB22MPS 2100 -TSRAGR SQ RMK QFE735
USHH 151500Z 26003MPS 240V310 9999 -SHRA SCT038CB 21/20 Q1010 R06/010060 TEMPO VRB18MPS 1000 TSRAGR SQ BKN010CB
UUOK 151500Z 34007MPS 9999 BKN020CB 18/17 Q1011 R12/090060 TEMPO -TSRA BKN010CB RMK QFE740/0987
USCM 151500Z 32004MPS 9999 TS BKN030CB 24/17 Q1007 R18/090060 TEMPO VRB22MPS 1500 TSRAGR SQ VV005 RMK QFE717
URMM 151500Z 17005MPS 9999 NSC 29/12 Q1012 R12/090070 NOSIG RMK QFE731/0975
UUWW 151500Z 21006MPS CAVOK 21/08 Q1008 R24/000070 NOSIG
UUDD 151500Z 24006MPS CAVOK 21/08 Q1009 R88/CLRD60 NOSIG
UUMO 151500Z 24006MPS CAVOK 21/08 Q1009 R25/CLRD60 NOSIG RMK QFE741/0988
UWKE 151500Z 19003MPS 9999 SCT033CB 19/16 Q1006 R21/090070 NOSIG RMK QFE738/0984
USNN 151500Z 04001MPS CAVOK 17/14 Q1012 R03/0///65 NOSIG RMK QFE755
UWGG 151500Z 26004MPS 9999 SCT040 25/14 Q1006 R18L/090070 NOSIG
UOOO 151500Z 36007MPS CAVOK 16/10 Q1015 R01/CLRD60 NOSIG RMK QFE747/0996
UNWW 151500Z 00000MPS CAVOK 15/08 Q1013 R19/09//60 NOSIG RMK QFE732
UNNT 151500Z 03002MPS CAVOK 17/10 Q1012 R07/090070 R34/////// NOSIG RMK QFE749/0999
UNOO 151500Z 08005MPS 9999 SCT040 21/15 Q1011 R07/CLRD60 NOSIG RMK QFE750
UWOO 151500Z 27008MPS 9999 ///040 28/11 Q1009 R26/////// NOSIG RMK QFE746/0995
UWWW 151500Z 27004MPS 210V300 9999 FEW033 22/13 Q1008 R33/CLRD60 NOSIG RMK QFE745/0994
URMT 151500Z 10006MPS CAVOK 27/14 Q1013 R07/010070 NOSIG RMK QFE720
KNBT 151500Z AUTO 20005KT 4SM RA FEW050 BKN110 25/22 A3017 RMK AO2 SLP221 6//// T02500222 50005 PNO $
PAFS 151501Z AUTO 21007KT 10SM -RA OVC038 13/13 A2968 RMK AO2 SLP055 P0005 60016 T01330133 58013
PAHX 151502Z AUTO 21007KT 2 1/2SM -RA BR FEW004 BKN009 OVC031 11/11 A2963 RMK AO2 CIG 006V015 SLP035 P0004 60034 T01110111 56011
SVBS 151503Z AUTO 19004KT NCD 27/// Q1017
SVBC 151503Z AUTO 31007KT NCD 28/26 Q1015
SVBI 151503Z AUTO 04005KT NCD 30/21 Q1018
SVFM 151503Z AUTO 08002KT NCD 24/17 Q1017
SVGU 151503Z AUTO 03005KT NCD 35/22 Q1015
SVJM 151503Z AUTO 31001KT NCD 27/20 Q1015
SVMG 151503Z AUTO 12007KT NCD 31/26 Q1014
SVVA 151503Z AUTO 00000KT NCD ///// Q1016
KGUL 151505Z AUTO 20005KT 9SM FEW022 SCT030 30/25 A3008 RMK A01
VCBI 151510Z 25005KT 230V290 9999 FEW018 27/24 Q1008 NOSIG
KGRY 151510Z AUTO 00000KT 10SM CLR 29/23 A3013 RMK A01
VCRI 151510Z 24010KT 9999 SCT018 28/25 Q1008 NOSIG
K6S8 151510Z AUTO 17006KT 10SM 23/12 A3009 RMK A01 Laurel
KS85 151510Z AUTO 00000KT 10SM 26/19 A3000 RMK A01 Culbertson
KLMO 151515Z AUTO 09003KT 10SM CLR 30/10 A3029 RMK AO2 T02980098
KDRM 151515Z AUTO 16004KT 10SM CLR 21/07 A3015 RMK AO2 T02100067
KMYP 151515Z AUTO 26012KT 10SM SCT095 BKN110 11/05 A3093 RMK AO2
KEDU 151515Z AUTO 9SM CLR 17/13 A2995 RMK AO1
KFSE 151515Z AUTO 07004KT 10SM CLR 23/15 A3006 RMK AO2
KSYN 151515Z AUTO 14009KT 110V170 10SM BKN043 OVC055 24/19 A3000 RMK AO2 T02410186
KJES 151515Z AUTO 00000KT 10SM BKN016 OVC085 27/23 A3019 RMK AO2
KFOT 151515Z AUTO 10SM FEW015 12/12 A3010 RMK AO1
KFLY 151515Z AUTO 00000KT 10SM CLR 27/07 A3042 RMK AO2 T02710074
KUKL 151515Z AUTO 17010KT 10SM CLR 24/20 A3004 RMK AO2 T02380195
KCKF 151515Z AUTO 34006KT 10SM OVC013 26/23 A3016 RMK AO2 T02620229
KMOR 151515Z AUTO 35003KT 10SM CLR 27/20 A3016 RMK A01
KPBX 151515Z AUTO 20003KT 10SM CLR 24/23 A3019 RMK AO2 T02430233
KHMZ 151515Z AUTO 00000KT 10SM CLR 23/14 A3020 RMK AO2 T02330135
K8A3 151515Z AUTO 34004KT 10SM CLR 27/19 A3018 RMK A01
KHCR 151515Z AUTO 22003KT OVC100 22/13 A3030 RMK AO2 PWINO
KKNB 151515Z AUTO 00000KT 10SM CLR 23/16 A3032 RMK A01
KPWD 151515Z AUTO 12004KT 2 1/2SM BR OVC003 21/21 A3003 RMK AO2 TSNO
KDWA 151515Z AUTO 00000KT 8SM CLR 17/12 A2995 RMK AO2
KO05 151515Z AUTO 00000KT 10SM CLR 17/05 A3020 RMK A01
KLLN 151515Z AUTO 20005KT 10SM CLR 28/14 A3021 RMK AO2
KUMP 151515Z AUTO 22004KT 10SM BKN080 BKN100 28/19 A3017 RMK AO2 T02820186
KFSK 151515Z AUTO 23010G16KT 10SM CLR 31/21 A3009 RMK AO2 T03110206
KCOM 151515Z AUTO 00000KT 10SM CLR 28/16 A3015 RMK AO2 T02750164
KPVW 151515Z AUTO 22006KT 10SM CLR 28/15 A3019 RMK AO2 T02800146
KT82 151515Z AUTO 06004KT 10SM CLR 26/20 A3013 RMK AO2 T02570203
KSBO 151515Z AUTO 24003KT 10SM BKN011 BKN120 26/24 A3017 RMK AO2
KLOT 151515Z AUTO 26006KT BKN017 OVC022 19/19 A3017 RMK AO2 LTG DSNT NW P0002 T01900187 PWINO
KBDN 151515Z AUTO 00000KT 10SM CLR 22/10 A3011 RMK AO2
KPMH 151515Z AUTO 12003KT 10SM CLR 27/18 A3018 RMK AO2 T02720177
KEOE 151515Z AUTO 00000KT 10SM CLR 29/20 A3017 RMK AO2
K40B 151516Z AUTO VRB02G11KT 22/11 A3008 RMK AO1 SLP185 T02230113 54001
KBBB 151517Z AUTO 07005KT 10SM CLR 27/19 A3003 RMK AO2
KFME 151519Z AUTO 00000KT 10SM SCT100 27/19 A3015 RMK AO1
KAVK 151520Z AUTO 21012KT 10SM CLR 33/18 A3006 RMK AO2
KHDC 151520Z AUTO 00000KT 10SM BKN026 31/24 A3011 RMK AO2
ETHL 151520Z 34003KT 9999 SCT070 25/08 Q1019 BLU+
ETGG 151520Z AUTO 28018KT 9999 // ////// 17/10 Q1019 ///
ETHA 151520Z AUTO 06004KT 9999 // ////// 23/10 Q1020 ///
ETHC 151520Z 26010KT 9999 VCSH SCT040 BKN080 19/09 Q1021 BLU
ETHF 151520Z 35006KT 9999 FEW059 SCT072 21/05 Q1021 BLU+
ETHN 151520Z 01006KT 9999 FEW060 22/07 Q1020 BLU+
ETHS 151520Z 26012KT 9999 FEW040 BKN070 18/09 Q1020 BLU
ETNH 151520Z 28015KT 9999 FEW030 BKN140 17/10 Q1019 BLU
ETNL 151520Z 29015KT 9999 FEW042 BKN068 18/08 Q1018 BLU
ETNN 151520Z 32008KT 9999 SCT060 22/06 Q1022 BLU+
ETNT 151520Z AUTO /////KT //// // ////// 19/11 Q1020 ///
ETNW 151520Z 30010KT 9999 FEW045 BKN075 19/09 Q1021 BLU BLU
ETSB 151520Z AUTO 02005KT 9999 // ////// 20/04 Q1022 ///
ETSH 151520Z 28011KT 9999 FEW050 BKN062 19/06 Q1020 BLU
ETSI 151520Z 32007KT 9999 FEW080 25/03 Q1019 BLU+
ETSL 151520Z 33009KT 9999 FEW070 25/06 Q1019 BLU+
ETSN 151520Z 28008KT 9999 FEW080 26/05 Q1019 BLU+
ETWM 151520Z AUTO 30004KT 9999 // ////// 20/09 Q1021 ///
ETHB 151520Z 36007KT 9999 FEW044 BKN070 20/08 Q1021 BLU
ETMN 151520Z 31011KT 9999 FEW027 BKN200 17/09 Q1020 BLU+
KMGG 151525Z AUTO 06006KT 10SM BKN034 25/18 A3003 RMK AO2
KACJ 151530Z AUTO 00000KT 10SM SCT005 SCT023 SCT060 27/24 A3016 RMK AO2
KORB 151533Z AUTO 06003KT 10SM CLR 24/16 A3004 RMK AO2
KCHK 151535Z AUTO 20007KT 7SM CLR 31/18 A3008 RMK AO2 T03150181
KPKV 151535Z AUTO 18003KT 5SM DZ SCT006 BKN038 OVC044 25/23 A3009 RMK AO2 P0001 T02490229
KVCV 151535Z 00000KT 10SM CLR 30/12 A3010 RMK AO2
KOXI 151535Z AUTO 00000KT 23/18 A3016 RMK AO1
KGOO 151535Z AUTO 00000KT 10SM CLR 27/05 A3008 RMK A01
KVOA 151535Z AUTO 06005KT 10SM CLR 30/23 A3012 RMK A01
KCKF 151535Z AUTO 34004KT 10SM BKN011 26/23 A3015 RMK AO2 T02620227
KDTA 151535Z AUTO 16010KT 10SM 23/11 A3024 RMK AO1
KEKS 151535Z AUTO 00000KT 10SM CLR 23/09 A3021 RMK AO2 LTG DSNT SE AND NW
KJTC 151535Z AUTO 00000KT 10SM CLR 23/12 A3044 RMK AO2
KH71 151535Z AUTO 20008G14KT 10SM 33/18 A3008 RMK AO2
KE16 151535Z AUTO 00000KT 10SM CLR 17/10 A3004 RMK AO2
KT20 151535Z AUTO 00000KT 10SM CLR 31/22 A3005 RMK AO2 LTG DSNT S T03080220
K2G4 151535Z AUTO 03003KT 10SM CLR 20/12 A3026 RMK AO1
KTMK 151535Z AUTO 00000KT 10SM OVC016 15/10 A3013 RMK AO2
KP08 151535Z AUTO 28005KT 10SM CLR 32/22 A2997 RMK AO2
MMAN 151540Z 10006KT 15SM SKC 29/17 A3011
MMMY 151540Z 12010KT 15SM SKC 29/19 A3005
MMTP 151540Z 00000KT 8SM SCT030TCU SCT200 29/28 A2993 RMK 8/201 HZY
MMZC 151540Z 02008KT 10SM BKN200 19/12 A3025 RMK 8/005
MMCU 151540Z 00000KT 10SM SCT080 29/10 A3024 RMK 8/030
MMIA 151540Z 00000KT 6SM OVC150 25/22 A3006 RMK 8/03/ BINOVC
MMMT 151540Z 06006KT 4SM SCT100 26/24 A2994 RMK 8/010 HZY
MMCL 151540Z 00000KT 8SM SCT025 BKN120 30/23 A2993 RMK 8/530 HZY
MMHO 151540Z 00000KT 10SM SKC 36/17 A2993 RMK HZY ISOL CI
MMZO 151540Z 00000KT 10SM SCT040 BKN120 BKN250 30/22 A2992 RMK 8/545 DSNT CB S
MMML 151540Z 00000KT 10SM SKC 33/17 A2987
MMPG 151540Z E00000KT 10SM FEW200 30/23 A3010 RMK 8/001
KMER 151545Z 30007KT 10SM CLR 26/09 A2994
KUES 151545Z 15010KT 4SM RA BKN003 BKN013 OVC070 16/16 A3006
KMWC 151545Z 12009KT 2 1/2SM RA SCT006 BKN024 OVC085 16/13 A3008
KEMT 151545Z 17003KT 10SM CLR 22/16 A2997
PALP 151545Z 00000KT 10SM BKN006 00/M02 A2989
KBBG 151545Z 22003KT 10SM BKN060 BKN075 30/20 A3017
KJVL 151545Z 20007KT 4SM -RA SCT008 BKN024 OVC043 19/19 A3010
KMMU 151545Z 05003KT 10SM BKN070 BKN110 26/16 A3016
KATW 151545Z 15007KT 10SM BKN006 OVC017 17/16 A3003
KRYN 151545Z 08004KT 10SM CLR 32/17 A3001
KGYY 151545Z 00000KT 7SM -RA OVC036 20/19 A3017
MMMX 151545Z 03006KT 6SM SCT020 BKN220 19/12 A3036 NOSIG RMK 8/808 HZY AC
PAKU 151545Z VRB01KT 7SM R06/P6000FT BKN007 M01/M01 A2989
KCGF 151545Z 24004KT 10SM CLR 26/08 A3021
KSWF 151545Z 09012KT 20SM SCT080 26/11 A3018
MMTO 151546Z 00000KT 4SM SCT015 BKN250 17/11 A3041 RMK 8/208 HZY
KADS 151547Z 00000KT 10SM SKC 32/18 A3010
KLBE 151547Z 00000KT 20SM CLR 25/13 A3020
KCIC 151547Z 00000KT 10SM CLR 23/09 A2997
KAEG 151547Z 04007KT 10SM CLR 26/12 A3035
KGYH 151547Z 04006KT 10SM SCT030 30/18 A3017
KTIX 151547Z 09006KT 7SM SCT030 33/23 A3016
KCHD 151547Z VRB06KT 10SM BKN120 34/17 A2995
KCWA 151547Z 00000KT 10SM OVC010 16/15 A3012
KCQT 151547Z AUTO 00000KT 9SM CLR 21/16 A2996 RMK AO2 SLP143 T02110161
KFDK 151547Z 00000KT 10SM CLR 28/17 A3016
KSEE 151547Z 00000KT 10SM SKC 21/16 A2997
KEVB 151547Z 10SM SCT030 RMK AWOS OTS.
KPOC 151547Z AUTO 26004KT 10SM SKC 23/16 A2999
KGYR 151547Z 01005KT 10SM SCT120 BKN150 BKN180 34/23 A2994
KJDN 151548Z AUTO 20004KT 28/15 A2998 RMK AO1 SLP131 T02830150
KASG 151548Z 24009KT 10SM CLR 31/24 A3016
EDGS 151550Z 31009KT CAVOK 17/05 Q1022
ENCN 151550Z 28013KT 250V320 CAVOK 18/05 Q1012
EYKA 151550Z 28010KT 9999 FEW053CB 16/09 Q1011
MSLP 151550Z VRB03KT CAVOK 30/24 Q1013 A2992 NOSIG
KQFB 151550Z AUTO 00000KT 9000 HZ CLR 23/20 A2955 RMK A02 TSNO
VNKT 151550Z 07003KT 8000 FEW015 SCT030 25/21 Q1013 NOSIG
KQEN 151550Z AUTO 26007KT 6000 BKN002 BKN110 / / RMK A02 TSNO
KQEJ 151550Z AUTO 23001KT 9999 FEW027 FEW042 BKN100 BKN180 21/20 A2949 RMK A02 TSNO
KQEI 151550Z AUTO 13001KT 9999 SCT042 BKN110 OVC180 20/19 A2951 RMK A02 TSNO
KQEQ 151550Z AUTO 19002KT 3200 BR BKN008 23/24 / RMK A02 TSNO
KQEW 151550Z AUTO 11001KT 6000 CLR 22/20 A2950 RMK A02 TSNO
KQEP 151550Z AUTO 29001KT 9999 CLR 22/20 A2952 RMK A02 TSNO
KVQQ 151550Z 05006KT 10SM FEW065 33/24 A3016
KOLV 151550Z 10005KT 10SM CLR 32/20 A3013
EKVG 151550Z AUTO 29009KT 9999 NCD 11/06 Q1019 RMK NCD WIND SKEID 28010KT
ENAL 151550Z 33006KT 270V020 9999 SCT018TCU 14/08 Q1013
ENAN 151550Z 25016KT 9999 DZ OVC013 10/08 Q1003
ENGM 151550Z 24005KT 190V300 CAVOK 18/01 Q1008 NOSIG
ENHD 151550Z 29015KT 9999 FEW022 BKN059 14/08 Q1014
EYPA 151550Z 29004KT 220V350 9999 SCT032 17/11 Q1011
ENTC 151550Z 22016KT 9999 -SHRA SCT017 BKN024 11/08 Q1001 RMK WIND 2600FT 22020KT
ENTO 151550Z 29013G29KT 230V320 9999 -RA SCT025CB BKN053 15/06 Q1009 TEMPO SHRA
ENVA 151550Z 26009KT 9999 VCSH FEW012 SCT025 BKN049 11/08 Q1010 NOSIG RMK WIND 670FT 31014KT
ENZV 151550Z 30013KT 9999 SCT023TCU BKN036 BKN055 14/09 Q1015 TEMPO SHRA SCT014CB BKN025
EYSA 151550Z 26009KT 9999 VCSH SCT027CB BKN083 16/11 Q1010 NOSIG
LLBG 151550Z 30008KT 9999 FEW030 29/20 Q1006 NOSIG
LLHA 151550Z 29009KT 260V320 9999 FEW026 28/21 Q1006
KQFT 151550Z AUTO 18002KT 9999 SCT130 22/20 A2948 RMK A02 TSNO
KQFU 151550Z AUTO 15002KT 6000 BKN013 BKN120 22/21 A2953 RMK A02 TSNO
KQFV 151550Z AUTO 34001KT 6000 CLR 20/20 A2955 RMK A02 TSNO
EVLA 151550Z AUTO 29008KT 250V360 CAVOK 17/08 Q1010
EVRA 151550Z 30005KT 260V340 9999 -SHRA BKN031CB 14/11 Q1008 NOSIG
EVVA 151550Z AUTO 28009KT 9999 FEW036 SCT043 SCT055 16/10 Q1008
EETN 151550Z 27016KT 9999 BKN030 BKN048 16/09 Q1004 NOSIG
EFHK 151550Z 26011KT 9999 FEW036 17/09 Q1002 NOSIG
EFIV 151550Z 14006KT CAVOK 22/12 Q0999
EFMA 151550Z AUTO 29008KT 210V350 9999 BKN027 13/07 Q1004
EFOU 151550Z AUTO 17005KT 140V200 CAVOK 19/08 Q0999
EFRO 151550Z AUTO 22004KT 9999 -SHRA BKN020 //////CB 16/13 Q0999
EFTP 151550Z AUTO 26012KT 9999 SCT019 14/09 Q1001
EFTU 151550Z AUTO 28009KT 9999 BKN026 13/08 Q1003
EFVA 151550Z AUTO 22008KT 9999 VCSH SCT010 //////CB 15/13 Q0998
ENOL 151550Z 31013KT 9999 FEW020 BKN050 11/08 Q1010 TEMPO SCT020TCU
ENRY 151550Z 19012KT 160V230 CAVOK 18/09 Q1009
ENSB 151550Z 12010KT 090V150 9999 FEW025 BKN050 13/08 Q1004 RMK WIND 1400FT 13015KT
EEEI 151550Z AUTO 28013KT 9999 FEW032/// 15/08 Q1005
LLER 151550Z 02015KT CAVOK 37/12 Q1003
EVGA 151550Z 29006KT 260V320 9999 FEW021CB FEW036 SCT045 15/11 Q1008 NOSIG
EDAH 151550Z 29010KT 250V320 CAVOK 18/07 Q1017
EDHK 151550Z 30013KT 9999 SCT036 SCT042TCU 17/09 Q1019
EGGP 151550Z 30017KT 270V330 9999 SCT022 SCT036 19/12 Q1023
EGPN 151550Z 09012KT 9999 FEW040 16/11 Q1020
ENDR 151550Z AUTO 31015KT 300V360 9999NDV FEW017/// BKN026/// 12/07 Q1011 W///S4
EKSB 151550Z 28010KT 240V310 9999 FEW035 SCT070 17/09 Q1018
ENHE 151550Z 28016KT 9999 FEW008 BKN032 09/07 Q1010 W///S4
LGAL 151550Z 06008KT 9999 FEW025 31/12 Q1011
LGNX 151550Z 01008KT CAVOK 26/17 Q1010
LICD 151550Z AUTO 03007KT 9999 NCD 27/19 Q1015
LICR 151550Z AUTO 35014KT 9999 NCD 30/16 Q1014
ENFB 151550Z AUTO 32014KT 9999NDV FEW013/// BKN048/// 12/08 Q1015 W///S4
ESNG 151550Z 01007KT 9999 BKN033 15/09 Q0999
LTCP 151550Z 25010KT CAVOK 37/06 Q1003
LTCR 151550Z 26008KT 230V300 CAVOK 40/08 Q1001
EGNM 151550Z 27020KT 9999 FEW020 SCT025 18/11 Q1022
LTAI 151550Z 13008KT 080V150 9999 FEW030 32/18 Q1004 NOSIG
LTCF 151550Z 07019KT CAVOK 23/13 Q1018
EKSP 151550Z 28014KT 9999 FEW028 SCT055 BKN075 16/09 Q1018
ESGT 151550Z AUTO 26012KT 230V290 9999 FEW051/// BKN160/// 18/05 Q1011
ESKM 151550Z AUTO 30008KT 260V330 9999 BKN088/// OVC100/// 13/04 Q1007
ESKN 151550Z 31012KT CAVOK 17/05 Q1008
ESMK 151550Z AUTO 29014KT 270V330 9999 NCD 18/07 Q1013
EGFF 151550Z AUTO 28011KT 9999 NCD 21/13 Q1024
ESMQ 151550Z AUTO 28011KT 9999 // FEW079/// ///// Q1010
ESMS 151550Z 30015KT CAVOK 18/07 Q1015
LGZA 151550Z 34008KT CAVOK 34/15 Q1010
LIBP 151550Z AUTO 10009KT 9999 NCD 35/09 Q1012
LIBR 151550Z 34008KT 310V010 CAVOK 28/16 Q1013
LIEO 151550Z 06008KT 020V120 CAVOK 32/18 Q1014
LICJ 151550Z 02012KT CAVOK 28/21 Q1014
LTBH 151550Z 08016KT CAVOK 30/15 Q1011
MUHG 151550Z VRB02KT 9000 SCT030 BKN240 31/23 Q1017
MUCC 151550Z 04007KT 350V080 9000 FEW020CB 29/23 Q1018
MUCM 151550Z 10006KT 050V160 9000 SCT020 30/22 Q1018
MUHA 151550Z 09006KT 030V170 9000 SCT030 29/22 Q1019
MUSC 151550Z VRB05KT 9000 BKN020 30/23 Q1018
EDFM 151550Z 02007KT 320V080 CAVOK 24/06 Q1020
MUCL 151550Z 13006KT 080V160 9000 SCT020 30/22 Q1018
MUCU 151550Z 18006KT 140V230 9000 SCT020 30/23 Q1017
LCEN 151550Z 29019KT 9999 FEW025 34/08 Q1004 NOSIG
MUVR 151550Z 09006KT 060V160 9000 BKN020 29/23 Q1019
EGHE 151550Z 02011KT CAVOK 20/14 Q1024
EGJB 151550Z 01010KT CAVOK 21/12 Q1024
EGPB 151550Z 30014KT 9999 FEW018 13/08 Q1018
ENFL 151550Z 30008KT 270V360 9999 FEW020TCU SCT030 14/09 Q1013
ENHF 151550Z 08005KT 9999 SCT016 BKN021 14/11 Q0998 RMK WIND 1254FT 33004KT
ENHK 151550Z 28013KT CAVOK 13/09 Q0999
LGKF 151550Z 31009KT CAVOK 31/19 Q1011
LGSM 151550Z 35009KT 290V020 CAVOK 31/14 Q1006
LIRF 151550Z 26010KT CAVOK 29/21 Q1013 NOSIG
ENSG 151550Z 23009KT 9999 -SHRA FEW/// SCT025 BKN032 09/07 Q1011 RMK WIND 3806FT 26016KT
LCRA 151550Z 26017KT CAVOK 27/22 Q1004 NOSIG
EDAC 151550Z 32011KT 290V350 CAVOK 21/05 Q1020
EDDL 151550Z AUTO 33007KT 300V360 CAVOK 22/07 Q1022 NOSIG
EDDB 151550Z 29012KT CAVOK 20/06 Q1019 NOSIG
EDDC 151550Z AUTO 30009KT 260V340 CAVOK 20/05 Q1020 NOSIG
EDDE 151550Z AUTO 31008KT 280V350 CAVOK 20/04 Q1021 NOSIG
EDDF 151550Z 32009G22KT 250V010 CAVOK 24/05 Q1020 NOSIG
EDDG 151550Z 29006KT 230V340 CAVOK 22/08 Q1021 NOSIG
EDDH 151550Z AUTO 28011KT 250V310 9999 FEW042 19/09 Q1020
EDDK 151550Z AUTO 28005KT 230V340 CAVOK 22/07 Q1022 NOSIG
EDDM 151550Z AUTO 32006KT 260V010 CAVOK 26/07 Q1019 NOSIG
EDDN 151550Z AUTO 31011KT 270V350 CAVOK 24/07 Q1020 NOSIG
EDDP 151550Z 31011KT 260V350 CAVOK 20/07 Q1020 NOSIG
EDDR 151550Z AUTO VRB04KT CAVOK 25/06 Q1020 NOSIG
EDDS 151550Z AUTO 36008KT 330V050 CAVOK 24/08 Q1020 NOSIG
EDDV 151550Z AUTO 33009KT 9999 FEW040 18/08 Q1021 NOSIG
EDDW 151550Z AUTO 22005KT CAVOK 15/13 Q1021 RESHRA TEMPO 29012KT SCT025TCU
EDFH 151550Z 36009KT 330V040 CAVOK 20/06 Q1022
EDHI 151550Z 29011KT 9999 FEW042 18/10 Q1020
EDHL 151550Z 30014KT 250V340 9999 SCT047 19/07 Q1019
EDJA 151550Z 31009KT 280V340 CAVOK 25/09 Q1020
EDLN 151550Z 32007KT CAVOK 22/07 Q1022
EDLV 151550Z 28007KT 230V320 CAVOK 21/10 Q1022
EDLW 151550Z 25007KT 220V300 CAVOK 22/06 Q1021
EDMA 151550Z 32008KT 270V360 CAVOK 25/08 Q1019
EDMO 151550Z 33004KT 270V050 CAVOK 24/08 Q1020
EDNY 151550Z 18004KT 9999 FEW052 27/12 Q1018
EDLP 151550Z 30005KT 250V350 CAVOK 19/05 Q1021
EDVE 151550Z 29012KT 9999 FEW042 18/08 Q1021
EDQM 151550Z 31006KT 250V020 CAVOK 19/05 Q1021
EDSB 151550Z 36007KT 330V040 CAVOK 26/09 Q1019
EDTL 151550Z 02008KT CAVOK 26/09 Q1019
EDVK 151550Z 30008KT 260V330 CAVOK 20/07 Q1021
EDXW 151550Z 27012KT CAVOK 16/10 Q1019
ETNG 151550Z 34005KT CAVOK 23/08 Q1022
PTRO 151550Z 17004KT 13SM BKN014CB BKN100 OVC280 24/23 A2983 RMK CB ALQDS
NSTU 151550Z 10010KT 10SM SCT019 BKN040 26/24 A2991 RMK SLP127 T02600242
ENHM 151550Z AUTO /////KT 9999NDV FEW026/// BKN052/// 12/07 Q1015 W14/S/
ENHV 151550Z 19006KT 140V220 9999 VCTS -SHRA FEW062 BKN090 18/14 Q0998
ENNE 151550Z 29016KT 9999 BKN018 10/06 Q1009 W///S4
ENSE 151550Z AUTO 32016KT 9999NDV SCT017/// 11/08 Q1014 W///S/
ENSF 151550Z AUTO 32018KT 9999NDV SCT016/// 12/07 Q1015 W///S4
ENOA 151550Z 33017KT 9999 FEW017CB SCT040 11/07 Q1014 W///S3
LIMJ 151550Z 18005KT 9999 SCT020 27/23 Q1014
KGPM 151550Z 14005KT 10SM SKC 32/18 A3010
KGYI 151550Z 14006KT 10SM SKC 33/19 A3012
KHQZ 151550Z 00000KT 10SM CLR 32/19 A3009
KRYY 151550Z 00000KT 10SM CLR 31/19 A3018 RMK AO2 SLP209 T03060189 $
KHOB 151550Z 15008G14KT 10SM SKC 30/10 A3020
LIMW 151550Z AUTO 27013KT 9999 NCD 36/08 Q1013
LIBD 151550Z 02004KT 330V060 CAVOK 31/09 Q1013
LICA 151550Z AUTO 24010KT 9999 NCD 27/21 Q1014
LICB 151550Z AUTO 25007KT 210V290 9999 NCD 29/17 Q1015
LICC 151550Z 10011KT CAVOK 28/19 Q1014
LIEA 151550Z 30008KT CAVOK 31/17 Q1014
LIEE 151550Z 15010KT CAVOK 30/21 Q1014
LIPH 151550Z 12005KT 050V170 CAVOK 33/13 Q1012
LIPZ 151550Z 16004KT CAVOK 29/18 Q1012 NOSIG
LIMC 151550Z 24009KT CAVOK 36/10 Q1012 NOSIG
LIME 151550Z 22010KT CAVOK 36/09 Q1011 NOSIG
LIMF 151550Z VRB04KT CAVOK 35/16 Q1012
LIML 151550Z 24006KT 190V290 CAVOK 36/14 Q1011 NOSIG
LIMZ 151550Z AUTO 10006KT 070V130 9999 NCD 34/17 Q1012
LIPB 151550Z 16010KT 9999 SCT110 34/14 Q1010
LIPE 151550Z 07007KT 030V130 CAVOK 37/14 Q1010
LIPK 151550Z 07010KT CAVOK 34/15 Q1011
LIPO 151550Z AUTO VRB03KT 9999 NCD 36/14 Q1011
LIPQ 151550Z AUTO 22007KT 180V250 9999 NCD 32/11 Q1012
LIPR 151550Z 09010KT CAVOK 28/20 Q1012
LIPX 151550Z 11003KT 050V210 CAVOK 35/18 Q1011
LIPY 151550Z AUTO 06006KT 040V120 9999 NCD 33/13 Q1012
LIRA 151550Z 26009KT 220V310 CAVOK 32/14 Q1014
LIRQ 151550Z 25010KT 210V290 CAVOK 35/15 Q1012
LIRZ 151550Z AUTO 31007KT 270V340 9999 NCD 37/08 Q1012
LIRN 151550Z 24007KT 190V270 CAVOK 29/22 Q1014 NOSIG
LTFG 151550Z 24008KT CAVOK 29/25 Q1005
KLAL 151550Z 12005KT 10SM SCT026 30/22 A3015 RMK LTG DSNT E AND W
KGRY 151550Z AUTO 00000KT 10SM SCT021 SCT026 30/24 A3013 RMK A01
KADM 151550Z 20007KT 10SM CLR 33/19 A3009
EBLG 151550Z 32006KT 300V010 CAVOK 21/06 Q1022 NOSIG
EBOS 151550Z 31009KT 270V330 9999 FEW040 20/11 Q1024 NOSIG
LTAE 151550Z 06006KT 020V110 9999 FEW040 26/12 Q1012 NOSIG RMK RWY21 06007KT 020V130
LTAF 151550Z 21010KT CAVOK 30/23 Q1003 NOSIG
LTBD 151550Z 26014KT CAVOK 32/17 Q1004
LTAN 151550Z 01012KT 340V040 CAVOK 27/09 Q1012 NOSIG
LTAT 151550Z 32003KT 290V350 CAVOK 35/09 Q1004 NOSIG
LTAG 151550Z 20011KT CAVOK 32/22 Q1003 NOSIG
LTAJ 151550Z 26009KT CAVOK 33/11 Q1004 NOSIG
LTAP 151550Z 03007KT 9999 FEW023 SCT033 20/15 Q1012 NOSIG
LTAR 151550Z 35017KT 9999 FEW040 16/12 Q1014
LTAU 151550Z 33011KT 290V350 CAVOK 27/13 Q1010 NOSIG
LTAY 151550Z 31006KT 270V360 CAVOK 31/07 Q1010
LTAZ 151550Z 34010KT CAVOK 27/11 Q1011
LTBA 151550Z 04016KT 9999 FEW032 26/18 Q1013 NOSIG
LTBF 151550Z 01016KT CAVOK 28/16 Q1011 NOSIG
LTCG 151550Z 29004KT 220V320 9999 SCT035 BKN080 24/17 Q1011 NOSIG
LTCI 151550Z 11016KT CAVOK 31/01 Q1015 NOSIG
LTCJ 151550Z 25003KT 210V290 CAVOK 39/11 Q1000 NOSIG
LTBJ 151550Z 33017KT CAVOK 33/13 Q1006 NOSIG
LTBQ 151550Z 03008KT 9999 SCT040 25/16 Q1013 NOSIG
LTBR 151550Z 36010KT 320V020 CAVOK 27/15 Q1012 NOSIG
LTBS 151550Z 20008KT CAVOK 28/21 Q1005 NOSIG
LTBU 151550Z 05014KT CAVOK 26/16 Q1013
LTBY 151550Z 32012KT 9999 FEW040 25/12 Q1013
LTCA 151550Z 31009KT CAVOK 36/10 Q1004 NOSIG
LTCB 151550Z VRB02KT 9999 BKN028 23/18 Q1011
LTCC 151550Z 21010G20KT CAVOK 39/06 Q1002 NOSIG
LTCD 151550Z VRB01KT CAVOK 35/13 Q1007 NOSIG
LTCE 151550Z 19007KT 150V210 CAVOK 30/04 Q1014 NOSIG
LTCN 151550Z 30019KT CAVOK 31/18 Q1004 NOSIG
LTCS 151550Z 32009KT CAVOK 35/04 Q1005
LTDA 151550Z 28016KT 220V320 CAVOK 31/19 Q1002 NOSIG
KHSA 151550Z 00000KT 10SM SCT025 SCT030 31/24 A3010
EGAE 151550Z 31010KT 9999 FEW015 OVC022 16/12 Q1025
COR EGBJ 151550Z 29006KT 260V330 9999 SCT048 23/12 Q1023
EGCC 151550Z AUTO 29013KT 9999 BKN027 OVC040 18/11 Q1023
EGEC 151550Z 29015KT 9999 FEW032 15/11 Q1023
EGNS 151550Z 34009KT 300V010 9999 FEW015 BKN040 17/12 Q1024 NOSIG
EGPH 151550Z 27009KT 240V330 9999 FEW049 21/09 Q1020
EGCN 151550Z 27014KT 9999 FEW035 BKN041 20/11 Q1022
EGGD 151550Z AUTO 27012KT 9999 NCD 21/13 Q1024
EGGW 151550Z AUTO 28013KT 250V320 9999 NCD 23/08 Q1022
EGHI 151550Z VRB07KT CAVOK 23/11 Q1023
EGHQ 151550Z 34009KT 310V010 CAVOK 21/13 Q1025
EGJJ 151550Z 02015KT 350V050 CAVOK 21/12 Q1023
EGKA 151550Z 22014KT CAVOK 21/13 Q1023
EGKK 151550Z 27007KT 230V300 CAVOK 26/07 Q1022
EGLC 151550Z AUTO 27007KT 220V330 9999 NCD 25/09 Q1022
EGLF 151550Z AUTO 31011KT 9999 NCD 23/09 Q1023
EGLL 151550Z AUTO 28009KT 250V320 9999 NCD 25/08 Q1022
EGMC 151550Z 28008KT 230V320 CAVOK 24/06 Q1022
EGMD 151550Z 23015KT CAVOK 22/12 Q1023
EGNJ 151550Z 27015KT 9999 FEW028 SCT040 22/11 Q1021
EGNR 151550Z 32014KT 280V340 9999 FEW026 SCT034 20/11 Q1024
EGNT 151550Z 31008KT 9999 FEW020 20/11 Q1020
EGNV 151550Z 34017KT 9999 FEW025 SCT039 20/11 Q1020
EGNX 151550Z 29013KT 270V330 9999 SCT040 22/11 Q1022
EGPA 151550Z 31014KT 9999 FEW022 SCT036 13/07 Q1020
EGPC 151550Z 30016KT 9999 FEW032 BKN045 14/07 Q1020
EGPD 151550Z AUTO 33013KT 290V360 9999 SCT040 18/08 Q1020
EGPE 151550Z 27009KT 9999 SCT032 BKN040 16/09 Q1021
EGPF 151550Z AUTO 28010KT 250V310 9999 NCD 19/11 Q1022
EGWU 151550Z 29012KT CAVOK 24/08 Q1022 NOSIG
EGSH 151550Z 26011KT 230V300 9999 FEW047 23/09 Q1021
EGPI 151550Z 29011KT 9999 SCT021 BKN031 15/11 Q1024
EGPK 151550Z 32015KT 9999 FEW020 18/10 Q1023
EGPO 151550Z 29012KT 9999 VCSH FEW020 SCT030 BKN038 15/10 Q1022
EGPU 151550Z 29010KT 9999 FEW017 15/10 Q1024
EGQL 151550Z 09008KT CAVOK 16/13 Q1020 RMK BLU
EGQS 151550Z 29012KT 9999 FEW020 SCT060 15/09 Q1021 NOSIG RMK BLU BLU
EGSC 151550Z 27011KT CAVOK 24/08 Q1021
EGSS 151550Z AUTO 29010KT 240V330 9999 NCD 24/09 Q1022
EGTC 151550Z 28012KT 250V310 CAVOK 22/10 Q1022
EGTE 151550Z 30008KT 250V350 CAVOK 25/12 Q1024
EGUW 151550Z 28010KT CAVOK 23/08 Q1021 NOSIG RMK BLU BLU
EGVN 151550Z 26006KT CAVOK 23/10 Q1023 NOSIG
EGXC 151550Z 30014KT 9999 SCT048 SCT060 22/10 Q1021 NOSIG RMK BLU BLU
EKRN 151550Z AUTO 26013KT 9999 NCD 17/10 Q1015
ENMS 151550Z 35005KT 310V040 9999 -RA SCT016 BKN026 10/08 Q1006 RMK WIND 412FT 34004KT
EGXZ 151550Z AUTO 29014KT 9999 FEW036/// BKN050/// 20/12 Q1021
EGYD 151550Z 30013KT 9999 FEW045 SCT060 22/10 Q1021 NOSIG RMK BLU BLU
EKOD 151550Z 28013KT 9999 FEW035 SCT040 BKN060 17/09 Q1017
EKRK 151550Z AUTO 28017KT 9999 SCT039/// BKN077/// 18/08 Q1016
ENAT 151550Z 02005KT 340V070 9999 BKN057 18/12 Q0997 RMK WIND 700FT 01010KT
ENBL 151550Z 20004KT 9000 VCSH FEW/// SCT010 BKN030 10/08 Q1012
ENBS 151550Z 17016KT CAVOK 23/10 Q0999
ENBV 151550Z AUTO 18015KT 9999 FEW108 25/11 Q0998
ENEV 151550Z VRB05KT 9999 -SHRADZ FEW010 SCT026 BKN047 11/10 Q1003 RMK WIND 1400FT 23014KT
ENKB 151550Z 29010KT 260V320 9999 FEW022 BKN041 12/06 Q1012 RMK WIND 745FT 31015KT
ENKR 151550Z 18012KT 9999 FEW060TCU 24/11 Q0999 RMK WIND 731FT 17017KT
ENLK 151550Z 28003KT 9999 VCSH SCT015 BKN020 10/09 Q1005
ENMH 151550Z 17012KT CAVOK 23/12 Q0998
ENML 151550Z 30011KT 9999 FEW010 SCT020 BKN045 13/08 Q1012
ENNA 151550Z 16013KT 9999 VCSH FEW030CB BKN080 22/14 Q0997 RMK WIND 1800FT 20015KT
ENNM 151550Z 27008KT 9999 SCT025 BKN030 11/07 Q1009
ENNO 151550Z 28010KT 9999 VCSH SCT065TCU BKN080 20/06 Q1009
ENSD 151550Z 16006KT 110V210 9999 FEW023 BKN043 13/09 Q1012 RMK WIND RWY26 00000KT WIND 1140FT VRB03KT
ESIB 151550Z AUTO 27015KT 9999 FEW054/// SCT170/// 18/06 Q1010
ESNL 151550Z 29011KT 9999 FEW013 SCT043 12/10 Q0999
ESNO 151550Z AUTO 31012KT 280V360 9999 FEW020/// BKN029/// OVC039/// 14/11 Q0998
ESPE 151550Z AUTO 06004KT 9999 -RA SCT026/// BKN041/// BKN054/// OVC068/// 15/13 Q0998
ESMT 151550Z AUTO 29014KT 250V310 9999 FEW038/// 18/08 Q1013
ESMX 151550Z 25011KT 220V290 CAVOK 19/06 Q1011
ESNK 151550Z AUTO 31010KT 9999 OVC024/// 13/08 Q1001
ESNQ 151550Z 35010KT CAVOK 12/08 Q1000
ESNU 151550Z 30010KT 9999 -RA SCT018CB BKN035 15/14 Q0997
ESNZ 151550Z AUTO 31018KT 9999 BKN034/// OVC046/// 10/05 Q1005
ESOE 151550Z 33009KT CAVOK 18/03 Q1009
ESOK 151550Z AUTO 07004KT 9999 R03/P1500N R21///// SCT075/// BKN099/// 17/00 Q1008
ESOW 151550Z 30009KT 270V340 9999 VCSH SCT047CB 14/07 Q1008
ESPA 151550Z 14008KT 9999 SCT025 BKN044 BKN062 17/12 Q0998
ESSA 151550Z 26011KT 9999 FEW035 SCT055CB 12/07 Q1006 RERA TEMPO SHRA SCT030CB
ESSD 151550Z AUTO 29014KT 9999 FEW066/// OVC084/// 13/04 Q1007
ESSL 151550Z AUTO /////KT 9999 R11///// R29///// ///////// 15/07 Q1010
ESSP 151550Z AUTO 30013KT 9999 BKN094/// 17/06 Q1009
ESSV 151550Z 31021KT 9999 SHRA SCT057CB 16/07 Q1009
ESTL 151550Z AUTO 30014KT 9999 FEW039/// SCT052/// 18/09 Q1014
LGMK 151550Z /////KT CAVOK 26/15 Q1008
LGPZ 151550Z 24011KT CAVOK 28/17 Q1011
LGHI 151550Z 01010KT CAVOK 29/14 Q1007
LGKZ 151550Z AUTO 13005KT 080V160 //// // ////// 28/09 Q1016 RE//
LGPA 151550Z 35019KT CAVOK 26/15 Q1009
LGSA 151550Z 30005KT CAVOK 27/19 Q1011
LGAD 151550Z 30012KT 9999 FEW025 31/16 Q1010
LGAV 151550Z 02017KT CAVOK 30/10 Q1011 NOSIG
LGBL 151550Z 13007KT CAVOK 31/11 Q1012
LGIR 151550Z 30015KT CAVOK 27/18 Q1011 NOSIG
LGKO 151550Z 29012KT CAVOK 26/18 Q1007
LGKP 151550Z 32029G40KT 9999 FEW020 25/19 Q1006
LGKR 151550Z 29009KT CAVOK 33/10 Q1011 NOSIG
LGKV 151550Z 21006KT 9999 FEW030 30/20 Q1011
LGLM 151550Z 36009KT CAVOK 30/14 Q1011
LGMT 151550Z 32010KT CAVOK 29/15 Q1009
LGRP 151550Z 24014KT CAVOK 27/21 Q1005 NOSIG
LGRX 151550Z 32006KT CAVOK 32/14 Q1010
LGSK 151550Z 34005KT CAVOK 28/18 Q1012
LGSR 151550Z 34020KT CAVOK 27/18 Q1009
LGTS 151550Z 19009KT 160V220 CAVOK 32/12 Q1012 NOSIG
LGIO 151550Z 29007KT 9999 FEW030 32/12 Q1013
EGYP 151550Z 28006KT 9999 FEW019 00/M02 Q1030 NOSIG
BGGH 151550Z 21014KT 9999 FEW002 BKN005 06/04 Q1001
BGKK 151550Z 08029G43KT 9999 -RA SCT024 BKN035 07/03 Q1009
BGJN 151550Z 10016KT 9999 FEW077 15/02 Q0997
BGBW 151550Z 23008KT 9999 FEW085 BKN096 16/02 Q1001
EBAW 151550Z 30007KT 270V330 CAVOK 21/07 Q1022 NOSIG
EBBR 151550Z VRB06KT CAVOK 23/08 Q1022 NOSIG
EBCI 151550Z 32004KT 270V030 CAVOK 21/06 Q1023 NOSIG
EKYT 151550Z AUTO 29016KT 9999 FEW055/// 16/08 Q1014
ELLX 151550Z 35007KT 250V060 CAVOK 23/03 Q1021 NOSIG
ENSH 151550Z 34003KT 310V010 9999 -RA FEW010 SCT015 BKN020 10/08 Q1004 RMK WIND 150FT 30003KT 270V330
ENSR 151550Z 28007KT 240V310 9999 FEW037 BKN074 16/08 Q0999 RMK WIND RWY32 VRB06KT WIND 1118FT 26017KT
ENVD 151550Z 13005KT 090V180 9999 SCT060TCU 22/12 Q0999
ENSS 151550Z 16005KT CAVOK 17/12 Q1000 RMK WIND 0500FT 15011KT
ENST 151550Z 32009KT 280V040 9999 VCSH FEW014 SCT017 BKN026 11/08 Q1008 RMK WIND 300FT 31012KT
ENSK 151550Z 29010KT 9999 RA FEW012 SCT015 BKN020 10/08 Q1004
ENSL 151550Z AUTO 30025KT 9999NDV FEW021/// BKN062/// 14/09 Q1019 W13/S4
KALN 151550Z 00000KT 10SM SCT100 25/19 A3013
LGSO 151550Z 35020G30KT CAVOK 28/13 Q1009
LOWG 151550Z AUTO 13005KT 090V170 9999 SHRA FEW030 BKN060 18/16 Q1019 BECMG NSW
LOWI 151550Z 08015KT 9999 SCT060 25/14 Q1018 NOSIG
LOWL 151550Z AUTO 27008KT 240V320 9999 FEW060 24/10 Q1018 NOSIG
LOWW 151550Z 36009KT 320V020 CAVOK 26/07 Q1018 NOSIG
LOXZ 151550Z 17004KT 140V210 9999 FEW030 SCT070 BKN090 21/16 Q1019
LOWK 151550Z 08004KT 020V140 9999 FEW040 FEW050CB BKN060 21/18 Q1018 NOSIG
LOWS 151550Z 01005KT 330V040 9999 SCT050 BKN060 23/13 Q1019 NOSIG
LSGG 151550Z 36007KT 280V050 9999 FEW080 32/09 Q1017 NOSIG
LSMA 151550Z AUTO 04007KT 010V080 9999NDV SCT070 27/14 Q1019 RMK
LSZG 151550Z 35007KT 300V020 9999 FEW070 29/11 Q1018
LSMD 151550Z AUTO 29010KT 230V340 9999NDV NCD 29/06 Q1019 RMK
LTAC 151550Z 04012KT 9999 SCT040 24/12 Q1013 NOSIG
LTFC 151550Z 36009KT CAVOK 30/09 Q1010
LTFD 151550Z 06020KT CAVOK 30/13 Q1009
LTFE 151550Z 27009KT 180V290 CAVOK 30/16 Q1005 NOSIG
LTFH 151550Z 31007KT 9999 SCT030 BKN100 23/19 Q1012 NOSIG
LTFJ 151550Z 04014KT 9999 FEW035 25/16 Q1012 NOSIG
KDAG 151550Z AUTO VRB05KT 10SM CLR 33/12 A3000 RMK AO2 SLP126 T03330117
KQEX 151550Z AUTO 04004KT 9999 CLR 24/21 A2942 RMK A02 TSNO
KQFW 151550Z AUTO 19001KT 0800 FG BKN002 19/19 A2935 RMK A02 TSNO
BGSF 151550Z AUTO 25010KT 9999NDV BKN180/// 14/04 Q0998
EFHA 151550Z AUTO 22006KT 9999 VCSH BKN035 //////CB 16/09 Q1000
EFJO 151550Z AUTO 18008KT CAVOK 19/08 Q1001
EFJY 151550Z AUTO 18006KT 9999 -SHRA //////CB 15/11 Q1000
EFKE 151550Z 23003KT 180V340 9999 FEW032 19/11 Q0999
EFKI 151550Z 21006KT CAVOK 17/09 Q1000
EFKK 151550Z AUTO 15009KT 120V180 CAVOK 18/11 Q0997
EFKS 151550Z AUTO 15004KT 120V180 9999 FEW022 17/13 Q0999
EFKU 151550Z AUTO 24007KT 200V260 9999 SHRA OVC047 //////CB 16/11 Q1000
EFLP 151550Z AUTO 21007KT 170V240 9999 VCSH //////CB 18/10 Q1001
EGAA 151550Z AUTO 32008KT 9999 OVC023 16/12 Q1024
EFMI 151550Z AUTO VRB02KT 9999 VCSH //////CB 15/12 Q1001
EFPO 151550Z AUTO 24008KT 210V270 9999 VCSH BKN029 //////CB 14/10 Q1001
EFSA 151550Z AUTO 21004KT 150V250 9999 VCSH //////CB 19/09 Q1001
EFSI 151550Z AUTO 23008KT 180V260 9999 VCSH SCT024 //////CB 16/10 Q0999
EFUT 151550Z AUTO 25004KT 9999 VCSH //////CB 14/11 Q1001
EKBI 151550Z AUTO 26016KT 9999 BKN029/// BKN080/// 16/09 Q1018
EKCH 151550Z AUTO 29016KT 9999 FEW049/// FEW056/// 20/07 Q1015 NOSIG
EKEB 151550Z AUTO 26012KT 9999 BKN028/// 16/10 Q1018
EKKA 151550Z AUTO 27017KT 9999 BKN029/// BKN066/// 16/09 Q1016
EKAH 151550Z AUTO 28015KT 9999 BKN065/// 16/09 Q1016
ENRM 151550Z 30010KT 270V330 9999 SCT025 BKN035 11/06 Q1009
ENOV 151550Z 21007KT 180V240 9999 5000E SHRA FEW010 SCT022TCU BKN038 11/09 Q1012 RMK WIND RWY24 20006KT WIND 2090FT 31011KT
ENRA 151550Z 27011KT 240V300 9999 -SHRA SCT018 BKN040 11/07 Q1005
ENRS 151550Z AUTO 29012KT 9999 SCT015 OVC023 10/08 Q1006
ENQA 151550Z AUTO 33019KT 9999NDV FEW052/// ///// Q//// W20/S/
ENQC 151550Z AUTO 31017KT 9999NDV /// 14/09 Q1013 W///S3
ENQR 151550Z AUTO 32016KT 9999NDV FEW015/// 11/08 Q1014 W11/S3
ESCM 151550Z AUTO 28012KT 9999 -RA SCT040/// BKN060/// 13/08 Q1007
ESCF 151550Z AUTO 36007KT 9999 BKN066/// OVC080/// 16/07 Q1010
ESGG 151550Z 26012KT 230V290 9999 NSC 16/06 Q1012
ESTA 151550Z 28019KT 9999 SCT040 17/08 Q1014
ESDF 151550Z 25011KT 220V290 CAVOK 19/09 Q1012
ESGJ 151550Z AUTO 27012KT 9999 FEW200/// 18/06 Q1010
ESGP 151550Z 27014KT 240V300 CAVOK 17/10 Q1012
EGNO 151550Z 31013KT 9999 SCT016 BKN042 17/12 Q1023
LTCT 151550Z 07016KT CAVOK 33/11 Q1009
EDTY 151550Z 33006KT 290V030 CAVOK 24/08 Q1020
ENLA 151550Z AUTO 30019KT 9999NDV SCT015/// BKN043/// BKN071/// 15/09 Q1017 W///S4
EGTK 151550Z 27010KT 9999 FEW039 SCT049 22/11 Q1023
ESUP 151550Z AUTO 32005KT 9999 // BKN048/// OVC079/// 17/15 Q0998 RERA
ESNV 151550Z AUTO 32010KT 9999 BKN027/// OVC036/// 11/07 Q1002
LTCW 151550Z 07009KT CAVOK 27/03 Q1018
ESND 151550Z AUTO 30015KT 260V340 9999 -RA BKN046/// BKN057/// 11/// Q1007 RERA
EGHC 151550Z 02012KT CAVOK 21/12 Q1024
ENLE 151550Z 30015KT 9999 FEW014CB SCT120 15/11 Q1018 W15/S4
ENUG 151550Z AUTO 23029KT 9999NDV BKN053/// 12/09 Q0997 W///S4
ENWV 151550Z AUTO 29014KT 9999NDV BKN012/// BKN120/// 15/14 Q1017 W///S4
EGCK 151550Z 25008KT 9999 SCT025 18/13 Q1025
ESIA 151550Z AUTO 28007G18KT 250V320 9999 SCT076/// 18/03 Q1009
LTFM 151550Z 05014KT 030V090 9999 SCT025 25/19 Q1014 NOSIG
ENUN 151550Z AUTO 29017KT 9999NDV OVC014/// 08/06 Q1007 W10/S4
EKRS 151550Z AUTO VRB11KT 9999 SCT040/// BKN078/// 17/10 Q1016
ESOH 151550Z AUTO 06004KT 030V110 9999 SCT086/// BKN100/// 14/05 Q1009
ESKS 151550Z AUTO 32007KT 9999 OVC088/// 11/03 Q1008
EGSY 151550Z 28014KT 9999 FEW048 21/11 Q1024
LTFO 151550Z 20005KT 9999 SCT035 BKN080 24/18 Q1011
LTFB 151550Z 24011KT 210V270 CAVOK 29/17 Q1006
OIMC 151550Z 03004KT CAVOK 35/02 Q1006
OIYY 151550Z 03008KT CAVOK 34/M05 Q1012
OITU 151550Z 13014KT CAVOK 30/06 Q1014
EGXS 151550Z AUTO 27014KT 9999 BKN060/// 22/10 Q1020
LIBG 151550Z VRB05KT CAVOK 35/08 Q1012
OIGK 151550Z 10002KT CAVOK 21/03 Q1023
LIBC 151550Z 21008KT 180V240 CAVOK 30/18 Q1014
LIBF 151550Z 10010KT CAVOK 34/07 Q1013
LICG 151550Z 01007KT 9999 FEW015 26/21 Q1016
LIMA 151550Z VRB04KT CAVOK 36/08 Q1011
LIMG 151550Z 08006KT 030V120 9999 FEW050 29/22 Q1013
LIMP 151550Z 07006KT 320V120 CAVOK 37/12 Q1010
LIRI 151550Z 23006KT 200V270 CAVOK 27/22 Q1014
LIRU 151550Z 23011KT 200V260 CAVOK 33/13 Q1013
AZUH 151550Z 03010KT CAVOK 33/11 Q1010
KOMN 151550Z 07005KT 7SM SCT020 30/23 A3016
KNQA 151550Z 00000KT 10SM CLR 33/19 A3012
KOQU 151550Z 12010KT 10SM SCT250 27/12 A3016
KACJ 151550Z AUTO 00000KT 10SM CLR 29/23 A3015 RMK AO2
EGOP 151550Z AUTO 24021KT 9999 // FEW038/// 19/15 Q1024
EGDM 151550Z AUTO 30008KT 9999 BKN046/// 24/11 Q1023
EGDR 151550Z AUTO 22007KT 9999 NCD 20/12 Q1024
EGDY 151550Z AUTO 32014KT 9999 NCD 23/11 Q1023
EGOS 151550Z AUTO 33011KT 9999 BKN031/// 21/12 Q1023
EGOV 151550Z AUTO 23007KT 9999 OVC038/// 18/12 Q1024
EGQK 151550Z AUTO 29013KT 9999 BKN060/// 16/08 Q1021
EGVO 151550Z AUTO 27012KT 9999 BKN050/// 24/09 Q1023
EGVP 151550Z AUTO 29009KT 9999 BKN050/// 24/11 Q1023
EGXE 151550Z AUTO 27014KT 9999 BKN031/// SCT075/// 21/12 Q1020
EGXP 151550Z AUTO 30017KT 9999 // BKN050/// 21/11 Q1021
EGXT 151550Z AUTO 28013KT //// BKN050/// 23/10 Q1021
EGXV 151550Z AUTO 27015KT 9999 FEW037/// SCT073/// 22/13 Q1020
EGXW 151550Z AUTO 30015KT 9999 BKN046/// 21/10 Q1021
EGYH 151550Z AUTO 28012KT 9999 SCT051/// BKN065/// 23/11 Q1021
EGYM 151550Z AUTO 27015KT 9999 BKN060/// 24/10 Q1021
LIQN 151550Z 20011KT 160V240 CAVOK 35/11 Q1015
KJWN 151550Z 32006KT 6SM HZ CLR 31/18 A3013
OOMS 151550Z 36004KT 7000 NSC 33/26 Q0995 WS R08L NOSIG
OODQ 151550Z AUTO 21027KT 9999 SCT028 BKN036 25/23 Q0997 NOSIG
MSAC 151550Z 16003KT 9999 FEW030 30/25 Q1012 A2988
MSLU 151550Z 00000KT CAVOK 30/23 Q1013 A2991
LATI 151550Z 34009KT CAVOK 30/15 Q1012 NOSIG
TJBQ 151550Z 07016G19KT 10SM SCT019 SCT070 30/24 A3005
KFIN 151550Z 11008KT 10SM SCT030 31/23 A3016
KHSG 151550Z AUTO 10004KT 10SM CLR 27/10 A3018 RMK AO2 T02660103
KEAN 151550Z AUTO 00000KT 10SM CLR 30/11 A3022 RMK AO2 T02980110
KJQF 151550Z 00000KT 10SM CLR 30/19 A3017
KVES 151550Z AUTO 13004KT 10SM CLR 25/14 A3020 RMK AO2
EEKE 151550Z 30009KT 260V350 9000 -SHRA SCT028 BKN046CB 13/11 Q1007
EEPU 151550Z AUTO 31006KT 290V360 9999 FEW025/// BKN031/// OVC056/// 15/11 Q1005
EETU 151550Z 27011KT 230V290 9999 FEW050CB 15/11 Q1005
KQFX 151550Z AUTO 16001KT 6000 BKN050 22/20 A2949 RMK A02 TSNO
KQER 151550Z AUTO 07001KT 9000 OVC003 21/21 / RMK A02 TSNO
KQEV 151550Z AUTO 00000KT 6000 CLR 24/25 / RMK A02 TSNO
KQEY 151550Z AUTO 03001KT M0400 FG CLR 21/20 A2925 RMK A02 TSNO
LXGB 151550Z 07008KT CAVOK 26/19 Q1015 NOSIG RMK BLU BLU
LSZR 151550Z VRB03KT CAVOK 26/10 Q1019 RMK M
LSZB 151550Z 33006KT 290V020 CAVOK 28/13 Q1018
LSZC 151550Z AUTO 06004KT 020V080 9999 BKN060 27/15 Q1019
LSME 151550Z AUTO 32005KT 250V010 9999NDV FEW076 28/12 Q1019 RMK
LSGC 151550Z 34007KT 270V080 CAVOK 22/09 Q1022
LSZL 151550Z AUTO 22004KT 9999NDV NCD 33/16 Q1011 RMK
LSZA 151550Z 24005KT 200V300 CAVOK 35/12 Q1011
LSMM 151550Z AUTO 03010KT 350V070 9999NDV FEW078 26/15 Q1019 RMK
LSMP 151550Z AUTO 35006KT 300V030 7000NDV NCD 29/12 Q1018 RMK
LSZS 151550Z 32015KT 9999 SCT085 22/08 Q1022 RMK U TL170
LSGS 151550Z 24012KT 9999 FEW120 33/11 Q1015
LSZH 151550Z 28011KT CAVOK 29/05 Q1019 NOSIG
EYVI 151550Z 26011KT 220V280 9999 -SHRA BKN043CB 15/11 Q1011 TEMPO 27018G28KT 3000 SHRA
EFET 151550Z AUTO 29004KT 260V320 CAVOK 17/11 Q0999
EFKT 151550Z 11004KT 080V160 9999 -RA FEW036 BKN049CB 17/14 Q0999
KHXD 151550Z 14006KT 10SM SCT020 28/24 A3016
MSSM 151550Z 03004KT CAVOK 30/24 Q1013 A2993
MSSS 151550Z 33006KT 9999 FEW010 26/21 Q1018 A3006
MSSA 151550Z 35004KT CAVOK 28/21 Q1020 A3013
ESNX 151550Z AUTO 34010KT 9999 -RA BKN011/// OVC014/// 13/11 Q0999 REDZ
ESUT 151550Z AUTO 32011KT 9999 -DZ OVC022/// 08/05 Q1004
ESNS 151550Z 13007KT 090V150 9999 SCT018 SCT027 18/13 Q0997
ESSB 151550Z 29016KT 9999 FEW044 15/05 Q1007
ESNN 151550Z 31019KT 9999 BKN026 OVC057 12/07 Q1002
EGJA 151550Z 36006KT 330V040 CAVOK 19/13 Q1024
EGAC 151550Z AUTO 30006KT 250V330 9999 OVC023 17/11 Q1024
EGPL 151550Z AUTO 27010KT 9999 BKN029/// 15/10 Q1023
EGUB 151550Z 28010KT CAVOK 23/10 Q1023 NOSIG RMK BLU BLU
EGKB 151550Z 29006KT 230V340 CAVOK 24/07 Q1023
EGBB 151550Z 30011KT 9999 BKN046 23/11 Q1023
EGNH 151550Z 32012KT 9999 FEW013 BKN042 17/12 Q1024
EGQM 151550Z AUTO 03009KT 9999 SCT050/// 16/13 Q1020
EGHH 151550Z 24009KT 210V280 CAVOK 23/11 Q1023
EGOM 151550Z AUTO 27010KT 9999 BKN031/// BKN048/// 17/11 Q1020
LGEL 151550Z 36011KT CAVOK 32/09 Q1011
LGKL 151550Z 15007KT CAVOK 29/17 Q1010
ENDU 151550Z VRB03KT 9999 -RA FEW008 SCT020 BKN035 11/10 Q1002 NOSIG RMK WIND 1100FT 31003KT WIND 2200FT 26010KT
ENBR 151550Z 29006KT 180V340 9999 VCSH FEW010 SCT023TCU BKN045 12/08 Q1013 TEMPO SHRA SCT018CB BKN020 RMK WIND 1200FT 29016KT
ENBO 151550Z 29013KT 9999 -RA SCT010 BKN016 OVC021 10/08 Q1006
ENBN 151550Z 30012KT 9999 VCSH SCT020 BKN030 11/07 Q1008
ENSO 151550Z 30014KT 9999 -SHRA SCT021TCU 12/11 Q1014
KEHY 151550Z AUTO 26012G19KT 10SM BKN120 22/05 A3039 RMK AO2 PWINO
PAMD 151551Z AUTO 26006KT 10SM OVC009 12/11 A2986 RMK AO2 SLP099 T01220111 PNO $
K6R6 151551Z AUTO 13005KT 28/18 A3014 RMK AO1 SLP167 T02830178 $
KBGD 151551Z AUTO 21008KT 10SM CLR 34/13 A3014 RMK AO2 SLP149 T03440133
KCSG 151551Z 00000KT 10SM FEW029 FEW034 29/22 A3013 RMK AO2 SLP198 T02940217
KORF 151551Z 14008KT 10SM FEW110 27/22 A3011 RMK AO2 SLP196 T02720222
KJCT 151551Z AUTO A3013 RMK AO2 SLPNO PWINO $
KGDP 151551Z AUTO 07005KT 8SM CLR 29/11 A3032 RMK AO2 SLP169 T02890106 $
KHDO 151551Z AUTO 11006KT 10SM CLR 29/21 A3008 RMK AO2 SLP170 T02890211
KBAZ 151551Z VRB03KT 10SM CLR 31/22 A3006 RMK AO2 SLP168 T03110217
KPIT 151551Z 05006KT 10SM FEW055 FEW250 25/08 A3019 RMK AO2 SLP221 T02500083
KHTS 151551Z 35004KT 10SM FEW033 28/18 A3016 RMK AO2 SLP205 T02780183
KATT 151551Z AUTO 21003KT 10SM FEW027 FEW035 29/23 A3008 RMK AO2 SLP172 T02890228
KMYL 151551Z AUTO 29005KT 10SM CLR 22/10 A3011 RMK AO2 SLP144 T02170100
KBHK 151551Z AUTO 15010KT 10SM CLR 29/14 A3008 RMK AO2 SLP160 T02890139
KSNT 151551Z AUTO 36003KT 16/09 A3028 RMK AO1 SLP158 T01610094
KBDL 151551Z 03007KT 10SM FEW050 FEW250 26/09 A3016 RMK AO2 SLP212 T02610094
KPHX 151551Z 30004KT 10SM FEW130 SCT160 BKN190 34/17 A2992 RMK AO2 SLP111 SHRA DSNT W-N T03440172
KSAD 151551Z AUTO VRB05KT 10SM CLR 31/17 A3009 RMK AO2 SLP129 T03060167
KELP 151551Z 19005KT 10SM FEW080 FEW150 31/09 A3019 RMK AO2 SLP138 T03060094 $
KOCF 151551Z 12007KT 10SM CLR 30/21 A3016 RMK AO2 SLP212 T03000206 PNO $
KPWM 151551Z 33008KT 300V360 10SM SCT060 26/12 A3011 RMK AO2 SLP194 T02610117
PHBK 151551Z AUTO 09004KT 10SM CLR 23/17 A3007 RMK AO2 SLP186 T02280167
KBKW 151551Z AUTO 29004KT 10SM BKN038 BKN055 BKN075 24/14 A3023 RMK AO2 SLP208 T02390144
KEKN 151551Z AUTO 00000KT 10SM CLR 25/13 A3023 RMK AO2 SLP230 T02500133
KMPV 151551Z AUTO 32010KT 10SM CLR 24/09 A3021 RMK AO2 SLP227 T02440094
KCON 151551Z AUTO 30006KT 10SM CLR 26/11 A3014 RMK AO2 SLP205 T02610111
KOXC 151551Z 00000KT 10SM FEW040 25/12 A3019 RMK AO2 SLP230 T02500122
KROW 151551Z VRB04KT 10SM CLR 29/14 A3018 RMK AO2 SLP143 T02940139
KPVD 151551Z VRB03KT 10SM FEW050 BKN250 27/12 A3015 RMK AO2 SLP209 T02670117
KACT 151551Z 00000KT 10SM CLR 32/21 A3008 RMK AO2 SLP178 T03220211
KTPL 151551Z 06007KT 10SM CLR 31/21 A3009 RMK AO2 SLP177 T03110206
KSJT 151551Z 11007KT 10SM CLR 29/17 A3013 RMK AO2 SLP178 T02940167
KSAT 151551Z 03004KT 10SM FEW030 SCT250 31/21 A3008 RMK AO2 SLP165 T03060206
KCRP 151551Z 20007KT 10SM FEW026 SCT037 BKN100 BKN200 BKN250 29/24 A3005 RMK AO2 SLP173 CB DSNT NW-N MOV N TCU NE VCSH NE T02940239 PNO
KDAW 151551Z AUTO 34005KT 10SM CLR 27/09 A3012 RMK AO2 SLP197 T02670089
KSTL 151551Z 31005KT 10SM SCT150 BKN200 BKN250 31/16 A3011 RMK AO2 SLP183 T03110161
KBED 151551Z 01006KT 10SM CLR 27/10 A3013 RMK AO2 SLP213 T02670100
KAHN 151551Z 00000KT 10SM CLR 31/19 A3015 RMK AO2 SLP200 T03060189
KERI 151551Z 32006KT 10SM CLR 24/13 A3020 RMK AO2 SLP222 T02440128
KLGU 151551Z AUTO 17007KT 10SM SCT120 25/14 A3020 RMK AO2 SLP168 T02500139
KVNY 151551Z 00000KT 10SM CLR 23/16 A2996 RMK AO2 SLP137 T02330156
KAVX 151551Z AUTO VRB04KT 10SM CLR 21/16 A3001 RMK AO2 SLP142 T02110156 $
KOXR 151551Z 27003KT 4SM BR OVC003 16/16 A2997 RMK AO2 SLP149 T01560156
KSAN 151551Z 00000KT 10SM BKN012 18/16 A2998 RMK AO2 SLP153 T01830156
KSMO 151551Z 20005KT 9SM OVC007 18/16 A2998 RMK AO2 SLP150 T01830156
KP59 151551Z AUTO 24010G22KT 24/12 A3006 RMK AO1 SLP172 T02390117
KORD 151551Z 21006KT 4SM RA BR BKN016 BKN055 OVC075 19/18 A3015 RMK AO2 SLP208 P0004 T01940183
KCAK 151551Z 11006KT 10SM FEW040 FEW250 26/10 A3021 RMK AO2 SLP222 T02610100
MUGM 151551Z 11012KT 10SM FEW035 FEW065 BKN250 32/25 A3004 RMK WSHFT 1453 SLP171 SHRA DSNT SE T03170250
KXWA 151551Z AUTO 14008KT 10SM CLR 27/21 A3004 RMK AO2 SLP160 T02670211
KHSE 151551Z AUTO 24007G15KT 1 3/4SM VCTS RA BR FEW030 BKN070 OVC110 23/21 A3019 RMK AO2 LTG DSNT S AND SW RAE11B30 TSE05 SLP222 P0042 T02330211
KRDU 151551Z VRB03KT 10SM SCT050 BKN250 29/23 A3013 RMK AO2 SLP198 T02940228
KCLE 151551Z 19004KT 10SM FEW040 FEW250 26/08 A3018 RMK AO2 SLP231 T02610083
KCMH 151551Z 05007KT 10SM FEW250 27/13 A3018 RMK AO2 SLP215 T02670128 CHINO NW VISNO NW $
KYNG 151551Z 05006KT 10SM SCT250 26/08 A3020 RMK AO2 SLP222 T02560083
KALB 151551Z 26003KT 10SM FEW050 FEW250 26/11 A3017 RMK AO2 SLP216 T02610111
KNYC 151551Z AUTO VRB05KT 10SM FEW075 27/13 A3018 RMK AO2 SLP210 T02720128 $
KJFK 151551Z 12007KT 090V160 10SM FEW055 BKN100 BKN250 28/15 A3016 RMK AO2 SLP212 T02780150
KLGA 151551Z 05010KT 10SM FEW110 27/13 A3015 RMK AO2 SLP209 T02670128
KSLK 151551Z AUTO VRB03KT 10SM FEW047 22/10 A3018 RMK AO2 SLP219 T02220100
KEWR 151551Z 13007KT 070V160 10SM FEW060 SCT075 BKN100 28/12 A3014 RMK AO2 SLP207 T02780117
KTEB 151551Z VRB04KT 10SM CLR 28/14 A3013 RMK AO2 SLP204 T02830144 $
KIGM 151551Z AUTO 33004KT 10SM CLR 28/16 A3016 RMK AO2 SLP141 T02830161
KABE 151551Z 03009KT 10SM OVC070 26/12 A3017 RMK AO2 SLP215 T02610117
KVCT 151551Z 18008KT 2SM VCTS +RA BR BKN006 BKN042 OVC060 24/23 A3010 RMK AO2 LTG DSNT SW AND W RAE07B38 SLP189 P0005 T02390233
KILG 151551Z 08008KT 10SM CLR 28/16 A3014 RMK AO2 SLP206 T02830161
KSMX 151551Z VRB03KT 7SM CLR 17/13 A2999 RMK AO2 SLP157 T01670128
KP69 151552Z AUTO 00000KT 19/14 A3000 RMK AO1 SLP128 T01890139
KAQW 151552Z AUTO 24005KT 10SM CLR 24/11 A3017 RMK AO2 SLP215 T02440111
KGLS 151552Z 17008KT 10SM SCT030 32/23 A3008 RMK AO2 SLP185 T03170233
KATL 151552Z 09004KT 10SM FEW050 FEW200 31/17 A3016 RMK AO2 SLP202 T03060167 $
KBAN 151552Z AUTO 00000KT 10SM CLR 23/07 A3031 RMK AO2 SLP140 T02330072 $
KBLF 151552Z AUTO 05004KT 10SM FEW034 FEW046 BKN065 23/14 A3026 RMK AO2 SLP212 T02280139
KBLU 151552Z AUTO 16004KT 10SM CLR 23/04 A3025 RMK AO2 SLP138 T02280044
KCDJ 151552Z AUTO 19011G19KT 27/21 A2999 RMK AO1 SLP142 T02720211
KIAD 151552Z 30005KT 10SM FEW110 29/16 A3015 RMK AO2 SLP207 T02890156
KNHK 151552Z 10004KT 10SM FEW045 SCT100 BKN220 BKN280 29/18 A3013 RMK AO2 SLP202 T02890183 $
KSPS 151552Z 19012KT 10SM CLR 33/16 A3008 RMK AO2 SLP171 T03280161
KCVG 151552Z VRB03KT 10SM SCT042 BKN250 29/18 A3017 RMK AO2 SLP206 T02890178 $
KABQ 151552Z 35005KT 10SM FEW070 FEW250 28/11 A3031 RMK AO2 SLP163 T02830111
KSPI 151552Z 13006KT 10SM -RA FEW070 SCT120 23/21 A3011 RMK AO2 RAB05 SLP192 P0001 T02280206
KMLI 151552Z 14008G20KT 2SM R09/4000VP6000FT VCTS +RA BR BKN050 BKN070 OVC090 21/20 A3006 RMK AO2 WSHFT 1530 LTG DSNT SE AND W SLP174 P0027 T02110200
KMDH 151552Z 24008KT 10SM CLR 32/19 A3013 RMK AO2 SLP199 T03170194
KABI 151552Z 21008KT 170V230 10SM CLR 31/17 A3014 RMK AO2 SLP177 T03060167
KMWH 151552Z 00000KT 10SM CLR 22/07 A2995 RMK AO2 SLP133 T02170067
KOKC 151552Z 19008G15KT 150V260 10SM FEW250 32/17 A3010 RMK AO2 SLP173 T03170172
KNTD 151552Z 23005KT 4SM BR OVC007 17/15 A2998 RMK AO2 SLP153 VIS NW 2 1/2 T01720150 CHINO N VISNO N $
KNZY 151552Z 21005KT 10SM OVC011 17/16 A2997 RMK AO2 SLP147 T01720156 $
KHRL 151552Z 15007KT 10SM FEW029 32/23 A3003 RMK AO2 SLP170 T03170233
KNRB 151552Z 08006KT 10SM SCT025 SCT070 BKN250 29/25 A3016 RMK AO2 SLP213 T02940250 $
KHIE 151552Z AUTO 33009KT 10SM CLR 25/11 A3015 RMK AO2 SLP207 T02500111
KALS 151552Z AUTO VRB04KT 10SM CLR 23/11 A3048 RMK AO2 SLP216 T02280111
KAFN 151552Z AUTO 02004KT 10SM CLR 25/08 A3018 RMK AO2 SLP219 T02500083
KIJD 151552Z AUTO VRB03KT 10SM CLR 26/11 A3016 RMK AO2 SLP210 T02610106 TSNO
KBML 151552Z AUTO 31007KT 270V340 10SM CLR 24/11 A3014 RMK AO2 SLP207 T02440106
KTAN 151552Z AUTO 00000KT 10SM CLR 26/13 A3014 RMK AO2 SLP205 T02610128
KIOW 151552Z AUTO 12014G18KT 10SM VCTS SCT110 23/19 A3003 RMK AO2 LTG DSNT NW-E RAE05 SLP163 P0000 T02330194
KN60 151552Z AUTO 13005KT 26/22 A3005 RMK AO1 SLP167 T02610222
KSGF 151552Z 28007KT 10SM CLR 32/19 A3013 RMK AO2 SLP188 T03170189
KOMA 151552Z 29007KT 10SM SCT250 30/22 A2989 RMK AO2 SLP109 T03000217
KVTN 151552Z AUTO 05009KT 10SM FEW110 29/19 A3010 RMK AO2 SLP166 T02890194
KDDC 151552Z AUTO 22013G24KT 8SM CLR 34/16 A3006 RMK AO2 PK WND 22026/1534 SLP136 T03440156
KPWK 151552Z 21004KT 4SM RA BR BKN015 OVC110 20/18 A3016 RMK AO2 SLP211 P0005 T02000183
KPYM 151552Z AUTO VRB06KT 10SM CLR 25/14 A3015 RMK AO2 SLP209 T02500144
KCQX 151552Z AUTO 05009KT 10SM CLR 25/14 A3015 RMK AO2 SLP210 T02500144
KFIT 151552Z AUTO 03004KT 10SM CLR 26/07 A3016 RMK AO2 SLP211 T02610072
KORE 151552Z AUTO 02007KT 10SM CLR 26/09 A3017 RMK AO2 SLP215 T02610089
KCKV 151552Z AUTO VRB04KT 10SM FEW080 32/18 A3015 RMK AO2 SLP201 T03220178
KMLF 151552Z AUTO 21012G21KT 10SM CLR 26/12 A3025 RMK AO2 SLP170 T02560122
KTRM 151552Z AUTO VRB03KT 10SM CLR 35/16 A2986 RMK AO2 SLP113 T03500161
KSUX 151552Z 36013G22KT 10SM CLR 31/22 A2992 RMK AO2 SLP123 T03110217
KEST 151552Z AUTO 05010KT 10SM BKN023 BKN029 27/22 A2995 RMK AO2 SLP131 T02720217
KCID 151552Z 16015G31KT 1 1/2SM +TSRA BR FEW060 BKN100 OVC110 21/20 A2996 RMK AO2 PK WND 16031/1549 LTG DSNT SE AND W RAB1453E35B38 TSB04B41 SLP141 P0009 T02110200
PATA 151552Z 12005KT 10SM FU BKN100 14/07 A2968 RMK AO2 SLP050 FU ALQDS T01390067 $
KBDR 151552Z 16009KT 10SM CLR 26/16 A3015 RMK AO2 SLP210 T02610161
KDPA 151552Z 23003KT 2 1/2SM +RA BR FEW075 BKN100 BKN120 19/17 A3016 RMK AO2 SLP209 P0015 T01890172
KOKB 151552Z AUTO 27003KT 8SM OVC011 21/16 A2996 RMK AO2 SLP145 T02060161
KCNU 151552Z AUTO 19012KT 10SM CLR 31/20 A3007 RMK AO2 SLP169 T03110200
KPPF 151552Z AUTO 20008KT 10SM CLR 32/19 A3008 RMK AO2 SLP173 T03220189
KDCA 151552Z 07003KT 10SM FEW045 FEW075 SCT250 30/16 A3013 RMK AO2 SLP204 T03000161
PABA 151552Z AUTO 27005KT 10SM OVC007 00/M01 A2990 RMK AO2 SLP132 T00001011 FZRANO
KMKE 151552Z 14011KT 3SM -RA BR SCT008 OVC015 18/16 A3008 RMK AO2 SFC VIS 5 PRESFR SLP185 P0033 T01830161
KARR 151552Z 00000KT 2SM RA BR FEW032 SCT090 OVC110 18/18 A3016 RMK AO2 SLP209 P0023 T01830178
KDVN 151552Z AUTO 11009KT 6SM -RA BR FEW006 BKN080 OVC090 21/19 A3010 RMK AO2 LTG DSNT SE-W SLP186 P0018 T02060194
KNFG 151552Z 00000KT 10SM SCT009 19/16 A2997 RMK AO2 SLP148 T01940161
KNFW 151552Z VRB05KT 10SM CLR 33/20 A3009 RMK SLP171 T03280204
KBIS 151552Z 21003KT 10SM FEW008 26/22 A3006 RMK AO2 SLP170 T02610217
KREO 151552Z AUTO 24012G23KT 29/03 A3009 RMK AO1 SLP138 T02940028
KCLT 151552Z 06003KT 10SM SCT040 SCT250 31/20 A3015 RMK SLP199 T03060200
KMEB 151552Z AUTO 00000KT 10SM CLR 29/22 A3013 RMK AO2 SLP200 T02940222
KMFD 151552Z 35003KT 10SM CLR 24/09 A3023 RMK AO2 SLP231 T02440094
KTOL 151552Z VRB04KT 10SM CLR 27/11 A3018 RMK AO2 SLP218 T02720106
KMBG 151552Z AUTO 03003KT 10SM CLR 28/22 A3004 RMK AO2 SLP157 T02830222
KIEN 151552Z AUTO 11005KT 10SM SCT110 28/17 A3014 RMK AO2 SLP170 T02830172
KRAP 151552Z 10SM CLR 30/16 A3012 RMK AO2 SLP166 T03000161 $
PTTP 151552Z 00000KT 12SM -SHRA BKN017TCU OVC120 24/23 A2989 RMK TCU ALQDS SLP120 T02390234
KCFV 151552Z AUTO 19012G18KT 10SM CLR 34/18 A3006 RMK AO2 SLP169 T03440183
KHUT 151552Z 18008KT 10SM -RA FEW035 31/19 A3001 RMK AO2 RAB44 SLP133 P0000 T03110194
KLWC 151552Z AUTO 19008KT 10SM CLR 31/22 A3000 RMK AO1 SLP151 T03110217
KMHK 151552Z 21014KT 10SM CLR 33/19 A2998 RMK AO2 SLP138 T03330189
TISX 151553Z 11019G23KTKT 10SM SCT029 SCT037 31/23 A3002
KAEX 151553Z 20006KT 10SM CLR 32/23 A3008 RMK AO2 SLP186 T03170233
KBTR 151553Z 00000KT 10SM BKN027 30/23 A3010 RMK AO2 SLP192 T03000228
KDTN 151553Z AUTO VRB03KT 10SM CLR 32/22 A3010 RMK AO2 SLP188 T03170217
KESF 151553Z AUTO 00000KT 10SM FEW033 BKN044 30/24 A3009 RMK AO2 SLP188 T03000239
PAOR 151553Z AUTO 00000KT 8SM OVC110 12/09 A2979 RMK AO2 SLP089 T01170089 TSNO $
PAOM 151553Z 34007KT 10SM FEW044 FEW060 BKN110 11/07 A2967 RMK AO2 RAE21 SLP047 P0001 T01110067
PANC 151553Z 00000KT 10SM FEW060 BKN120 BKN250 13/11 A2978 RMK AO2 SLP086 T01330106
PACD 151553Z AUTO 14022G32KT 1/2SM FG VV002 09/09 A2977 RMK AO2 PK WND 14032/1552 SLP081 T00890089 TSNO
PADQ 151553Z 05003KT 10SM CLR 13/11 A2984 RMK AO2 SLP103 T01330111
PAQT 151553Z AUTO 00000KT 10SM OVC007 00/M02 A2990 RMK AO2 CIG 004V010 SLP124 T00001022 TSNO
PASO 151553Z AUTO 00000KT 10SM CLR 13/13 A2980 RMK AO2 SLP093 T01280128 TSNO
PABT 151553Z 03006KT 10SM FEW120 SCT210 13/03 A2971 RMK AO2 SLP067 T01280028
PAEG 151553Z AUTO 00000KT 10SM CLR 10/04 A2978 RMK AO2 SLP084 T01000039 TSNO
PAGK 151553Z AUTO 17006KT 10SM OVC120 11/09 A2982 RMK AO2 SLP097 T01110089 TSNO
KPBG 151553Z AUTO 15006KT 10SM CLR 23/14 A3014 RMK AO2 SLP207 T02330144
KCDD 151553Z AUTO 00000KT 10SM CLR 23/14 A3007 RMK AO2
KDEN 151553Z 00000KT 10SM FEW090 FEW160 SCT220 27/12 A3029 RMK AO2 SLP171 T02670122
KFST 151553Z AUTO 12011KT 10SM CLR 31/13 A3015 RMK AO2 SLP155 T03060133
KGGG 151553Z VRB03KT 10SM CLR 31/21 A3009 RMK AO2 SLP180 T03110211
KGVL 151553Z AUTO 00000KT 10SM CLR 31/16 A3019 RMK AO2 SLP203 T03060161
KHLN 151553Z 05008KT 10SM CLR 22/14 A3006 RMK AO2 SLP155 T02170139
KP68 151553Z AUTO VRB05KT 25/10 A3027 RMK AO1 SLP154 T02500100
PABI 151553Z 13003KT 10SM BKN110 OVC150 09/06 A2980 RMK AO2 SLP094 FU ALQDS T00940061
PACV 151553Z 00000KT 10SM OVC027 12/08 A2985 RMK AO2 SLP107 T01170083
PAWD 151553Z AUTO 00000KT 10SM OVC008 12/12 A2983 RMK AO2 SLP100 T01220117 TSNO
KALW 151553Z 20013KT 10SM CLR 25/07 A2999 RMK AO2 SLP149 T02500072
KARB 151553Z 19007KT 10SM CLR 26/13 A3018 RMK AO2 SLPNO T02560128
KASE 151553Z 36006KT 10SM CLR 21/10 A3047 RMK AO2 SLP187 T02110100
KAWM 151553Z AUTO 15007KT 10SM CLR 32/21 A3011 RMK AO2 SLP189 T03220206
KBKE 151553Z AUTO VRB04KT 10SM CLR 23/06 A3007 RMK AO2 SLP155 T02280061
KBNO 151553Z AUTO 18003KT 10SM CLR 22/05 A3013 RMK AO2 SLP162 T02170050
KBTM 151553Z AUTO 00000KT 10SM -RA FEW037 FEW075 FEW100 21/11 A3017 RMK AO2 RAB49 SLP151 P0000 T02110111
KBUR 151553Z 17004KT 10SM CLR 23/16 A2997 RMK AO2 SLP136 T02280156
KBWG 151553Z AUTO 00000KT 10SM CLR 31/19 A3015 RMK AO2 SLP204 T03110189
KCHO 151553Z 04005KT 10SM CLR 29/17 A3016 RMK AO2 SLP205 T02890167
KCSM 151553Z 20012KT 10SM CLR 32/18 A3011 RMK AO2 SLP168 T03170183
KCUB 151553Z AUTO 00000KT 9SM CLR 28/23 A3014 RMK AO2 SLP203 T02780233
KDBQ 151553Z 12016G23KT 10SM FEW004 OVC042 19/18 A3009 RMK AO2 PK WND 12031/1510 LTG DSNT N-SE RAE49 TSE18 SLP185 P0055 T01890183
KDFW 151553Z 13005KT 10SM CLR 33/18 A3007 RMK AO2 SLP173 T03280183
KDHT 151553Z AUTO 24009KT 10SM CLR 32/14 A3019 RMK AO2 SLP152 T03220144
KDNL 151553Z AUTO VRB05KT 10SM BKN025 BKN034 29/23 A3014 RMK AO2 SLP201 T02890233 TSNO
KDRA 151553Z AUTO 11010KT 10SM CLR 30/13 A3014 RMK AO2 SLP149 T03000133
KFFC 151553Z AUTO VRB03KT 10SM CLR 31/17 A3016 RMK AO2 SLP204 T03110167
KFFT 151553Z AUTO VRB03KT 10SM CLR 29/16 A3017 RMK AO2 SLP209 T02890156
KGIF 151553Z AUTO 10006KT 10SM FEW027 FEW033 30/23 A3016 RMK AO2 SLP210 T03000228 TSNO
KGKY 151553Z 10SM CLR 32/19 A3009 RMK AO2 SLP180 T03220194
KGTF 151553Z 20008KT 10SM CLR 29/11 A3002 RMK AO2 SLP125 T02890111 $
KHKY 151553Z 05005KT 10SM CLR 31/18 A3017 RMK AO2 SLP190 T03060178
KHSV 151553Z 31003KT 10SM FEW040 FEW250 32/18 A3016 RMK AO2 SLP204 T03170178
KIML 151553Z AUTO 05011G21KT 10SM CLR 32/17 A3013 RMK AO2 SLP159 T03170172
KITR 151553Z AUTO 04011KT 10SM CLR 32/14 A3019 RMK AO2 SLP153 T03170144
KLBB 151553Z 21008KT 10SM CLR 31/12 A3018 RMK AO2 SLP160 T03110122
KLFK 151553Z AUTO 17006KT 10SM SCT033 31/22 A3008 RMK AO2 SLP181 T03060217
KMCI 151553Z 20011KT 10SM FEW120 SCT170 29/22 A3000 RMK AO2 SLP146 TCU DSNT NW T02940217 $
KMCW 151553Z AUTO 11011KT 10SM BKN020 OVC026 26/21 A2998 RMK AO2 SLP139 T02560211
KOGB 151553Z AUTO 00000KT 10SM FEW008 27/24 A3015 RMK AO2 SLP206 T02670244
KPDK 151553Z 02004KT 10SM CLR 31/17 A3015 RMK AO2 SLP191 T03060167
KRQE 151553Z AUTO 00000KT 10SM CLR 24/11 A3041 RMK AO2 SLP159 T02440106
KSFB 151553Z VRB03KT 10SM CLR 31/22 A3015 RMK AO2 SLP207 T03060217
KSNY 151553Z AUTO 11007KT 10SM CLR 31/13 A3019 RMK AO2 SLP160 T03110128
KVGT 151553Z VRB03KT 10SM CLR 32/15 A3008 RMK AO2 SLP175 T03220150
KVRB 151553Z 13008KT 10SM CLR 32/24 A3015 RMK AO2 LTG DSNT NE AND E SLP210 T03170239
KRNT 151553Z 18007KT 10SM CLR 17/10 A3008 RMK AO2 SLP190 T01720100
PAAQ 151553Z 03003KT 10SM CLR 13/11 A2979 RMK AO2 SLP091 T01330106
PABE 151553Z 23014KT 4SM BR BKN004 OVC015 10/09 A2969 RMK AO2 RAE23 SLP054 P0000 T01000094
PADE 151553Z AUTO 26011KT 10SM OVC011 10/08 A2970 RMK AO2 SLP057 T01000083 TSNO
PAMR 151553Z 00000KT 10SM CLR 13/10 A2978 RMK AO2 SLP086 T01330100
KPIE 151553Z 09007KT 10SM CLR 30/22 A3013 RMK AO2 SLP201 T03000217
KNEW 151553Z 00000KT 10SM FEW030 29/24 A3011 RMK AO2 SLP190 T02890239 $
PHJR 151553Z AUTO 07003KT 10SM CLR 22/18 A3008 RMK AO2 SLP193 T02220178 TSNO
KALI 151553Z AUTO VRB06KT 10SM FEW038 32/23 A3004 RMK AO2 SLP169 T03170228
KAMA 151553Z 25009KT 10SM CLR 33/13 A3017 RMK AO2 SLP150 T03280133
KCDS 151553Z AUTO 17008KT 140V200 10SM CLR 32/14 A3013 RMK AO2 SLP169 T03220139
KDAL 151553Z 09005KT 10SM CLR 33/20 A3008 RMK AO2 SLP178 T03280200
KDRT 151553Z AUTO 16007KT 10SM CLR 30/19 A3007 RMK AO2 SLP169 T03000194
KFTW 151553Z 00000KT 10SM CLR 32/19 A3008 RMK AO2 SLP174 T03220189
KMWL 151553Z AUTO 14005KT 10SM CLR 32/18 A3008 RMK AO2 SLP172 T03220178
KBPT 151553Z 08005KT 10SM SCT040 28/24 A3009 RMK AO2 LTG DSNT E SLP187 T02830239
KPSX 151553Z AUTO 21010KT 10SM -RA FEW010 BKN014 OVC075 26/23 A3008 RMK AO2 RAB29 SLP186 P0000 T02610233
KHOU 151553Z 18006KT 10SM SCT035 SCT200 31/22 A3006 RMK AO2 SLP184 T03060217
KMAF 151553Z 14009KT 9SM CLR 28/14 A3016 RMK AO2 SLP164 T02830144 $
KCOT 151553Z AUTO 26003KT 10SM CLR 32/22 A3005 RMK AO2 SLP166 T03170222
KCLL 151553Z 00000KT 10SM SCT050 30/22 A3007 RMK AO2 SLP176 T03000217
KIAH 151553Z 18005KT 10SM BKN032 29/22 A3007 RMK AO2 SLP180 TCU DSNT NE AND SW T02940222
KRBD 151553Z VRB06KT 10SM CLR 32/18 A3009 RMK AO2 SLP178 T03220178
KTKI 151553Z 12004KT 10SM CLR 32/20 A3010 RMK AO2 SLP184 T03220200
KLVJ 151553Z AUTO 00000KT 10SM SCT035 BKN047 31/22 A3008 RMK AO2 SLP184 T03110222
KAFW 151553Z VRB03KT 10SM CLR 33/19 A3008 RMK AO2 SLP166 T03280189
KBMQ 151553Z AUTO 02005KT 10SM CLR 31/21 A3012 RMK AO2 SLP181 T03060206 $
KCXO 151553Z 16005KT 10SM BKN022 BKN028 29/21 A3008 RMK AO2 SLP181 T02940211
KDTO 151553Z 14008KT 110V200 10SM CLR 33/19 A3009 RMK AO2 SLP177 T03330194
KDWH 151553Z 00000KT 10SM BKN029 31/22 A3007 RMK AO2 SLP180 T03060222
KLBX 151553Z AUTO 23012G20KT 10SM FEW033 BKN042 BKN075 31/23 A3007 RMK AO2 SLP184 T03060228
KMFE 151553Z 16009G21KT 10SM FEW035 BKN120 31/22 A3005 RMK AO2 SLP173 T03110222
KRKP 151553Z AUTO 16005KT 9SM SCT065 BKN090 29/25 A3006 RMK AO2 SLP180 T02940250
KSGR 151553Z 00000KT 10SM -RA FEW036 SCT055 BKN080 30/22 A3006 RMK AO2 RAE16B45 SLP180 P0000 T03000222
KSSF 151553Z 05005KT 10SM 31/22 A3004 RMK AO2 SLP161 T03110217
KODO 151553Z AUTO 17008KT 10SM CLR 30/14 A3017 RMK AO2 SLP165 T03000144
KFTY 151553Z 00000KT 10SM CLR 31/18 A3015 RMK AO2 SLP197 T03060183
KUNV 151553Z VRB06KT 10SM SCT050 25/11 A3020
KCHA 151553Z 29003KT 10SM FEW040 SCT250 30/21 A3016 RMK AO2 SLP204 T03010206 TCU DSNT NW MDT CU SW-NW
KSEG 151553Z AUTO 14004KT 10SM SCT060 26/12 A3017 RMK AO2 SLP214 T02610117
KCSV 151553Z AUTO VRB03KT 10SM FEW038 27/17 A3022 RMK AO2 SLP213 T02670167 TSNO
KGUP 151553Z AUTO 26007KT 10SM CLR 25/12 A3039 RMK AO2 SLP103 T02500117
KCKB 151553Z 35004KT 10SM FEW039 26/15 A3018 RMK AO2 SLP207 T02610150
KHLG 151553Z 35006KT 10SM CLR 25/12 A3019 RMK AO2 SLP220 T02500122
KPKB 151553Z 05005KT 10SM FEW045 27/16 A3018 RMK AO2 SLP213 T02670156
KCQC 151553Z AUTO 30010KT 10SM CLR 26/11 A3044 RMK AO2 SLP196 T02560106
KMGW 151553Z VRB04KT 10SM FEW045 26/14 A3020 RMK AO2 SLP218 T02610144
KMBS 151553Z 22009G15KT 10SM CLR 26/14 A3016 RMK AO2 SLP209 T02610144
KCNM 151553Z AUTO 18006KT 10SM CLR 29/13 A3015 RMK AO2 SLP145 T02940133 $
KLVS 151553Z AUTO VRB04KT 10SM CLR 25/11 A3041 RMK AO2 SLP172 T02500106
KDMN 151553Z AUTO 07013KT 10SM CLR 31/07 A3021 RMK AO2 SLP139 T03110072 $
KFMN 151553Z 00000KT 10SM CLR 26/12 A3032 RMK AO2 SLP199 T02560122
KCMX 151553Z AUTO 18010KT 10SM CLR 23/12 A3007 RMK AO2 SLP181 T02330122
KBIV 151553Z AUTO 23007KT 10SM OVC060 22/17 A3015 RMK AO2 SLP210 T02220167
KBTL 151553Z 20009KT 10SM FEW050 24/16 A3018 RMK AO2 SLP213 T02440156
KDET 151553Z 17007KT 10SM FEW050 27/12 A3018 RMK AO2 SLP216 T02670122
KFNT 151553Z 20009KT 10SM FEW070 27/13 A3017 RMK AO2 SLP214 T02670128
KTVC 151553Z 22006KT 10SM FEW055 BKN180 OVC240 24/12 A3011 RMK AO2 SLP195 T02440122
KYIP 151553Z 16008KT 10SM FEW070 27/13 A3019 RMK AO2 SLP217 T02670128
KDTW 151553Z 18008KT 10SM FEW060 BKN220 26/12 A3019 RMK AO2 SLP220 T02560117
KGRR 151553Z 20008KT 10SM SCT085 OVC180 24/16 A3015 RMK AO2 SLP206 ACC SE T02390156
KGLR 151553Z AUTO 20005KT 10SM CLR 23/12 A3015 RMK AO2 SLP205 T02330122
KMCK 151553Z AUTO 05013KT 10SM CLR 32/18 A3006 RMK AO2 SLP147 T03170183
KPTK 151553Z 20009KT 10SM FEW060 FEW180 BKN250 26/09 A3019 RMK AO2 SLP217 T02560094
KGSH 151553Z AUTO 18007KT 10SM BKN070 25/17 A3016 RMK AO2 SLP208 T02500172
KCDR 151553Z AUTO 10006KT 10SM CLR 29/16 A3013 RMK AO2 SLP171 T02940156
KGGW 151553Z AUTO 17009KT 10SM CLR 29/16 A2996 RMK AO2 SLP128 T02890161
KBRO 151553Z 16012KT 10SM FEW039 SCT055 OVC110 29/23 A3005 RMK AO2 PK WND 15027/1516 RAB25E36 SLP175 P0000 T02940228
KINK 151553Z AUTO 13008KT 10SM CLR 29/14 A3014 RMK AO2 SLP154 T02890139 $
KEET 151553Z AUTO 00000KT 10SM CLR 29/21 A3015 RMK AO2 SLP200 T02940206
KCAG 151553Z AUTO 34003KT 10SM CLR 24/12 A3036 RMK AO2 SLP199 T02440122
KAPA 151553Z VRB04KT 10SM FEW140 SCT220 26/12 A3033 RMK AO2 SLP187 T02560117
KUAO 151553Z VRB03KT 10SM CLR 16/11 A3011 RMK AO2 SLP195 T01610106
KLVM 151553Z AUTO 00000KT 10SM CLR 23/11 A3013 RMK AO2 SLP156 T02330106
KLAA 151553Z AUTO 10SM CLR 29/14 A3013 RMK AO2 SLP142 T02890139 $
KHRI 151553Z AUTO 24013G24KT 10SM CLR 26/10 A2998 RMK AO2 SLP145 T02610100 TSNO
KSPB 151553Z AUTO 00000KT 10SM CLR 17/11 A3010 RMK AO2 SLP191 T01670111
KGSP 151553Z VRB04KT 10SM CLR 29/19 A3016 RMK AO2 SLP201 T02940189
KBFI 151553Z 19010KT 10SM CLR 16/11 A3008 RMK AO2 SLP186 T01610111
KCLM 151553Z AUTO 01005KT 10SM CLR 16/11 A3007 RMK AO2 SLP181 T01610106
KBLI 151553Z VRB05KT 10SM BKN095 16/12 A3005 RMK AO2 SLP181 T01610122
KFHR 151553Z AUTO 15007KT 10SM CLR 15/11 A3006 RMK AO2 SLP180 T01500111
KHQM 151553Z AUTO 13005KT 10SM OVC023 17/13 A3008 RMK AO2 SLP190 T01670133
KOMK 151553Z AUTO 04005KT 10SM CLR 23/07 A2995 RMK AO2 SLP132 T02330067
KPSC 151553Z 19006KT 10SM CLR 27/11 A2994 RMK AO2 SLP136 T02670111
KPUW 151553Z AUTO 36003KT 10SM CLR 18/10 A3005 RMK AO2 SLP163 T01830100
KSEA 151553Z 20012KT 10SM FEW015 FEW120 SCT250 16/10 A3009 RMK AO2 SLP192 T01610100
KSHN 151553Z AUTO 22010KT 10SM BKN011 BKN017 16/13 A3006 RMK AO2 SLP179 T01610128
KUIL 151553Z AUTO 15007KT 10SM -RA OVC014 15/13 A3004 RMK AO2 RAB29 SLP173 P0000 T01500133
KVUO 151553Z AUTO 17007KT 150V230 9SM CLR 17/11 A3010 RMK AO2 SLP194 T01670111
KORL 151553Z 11004KT 10SM FEW034 32/23 A3015 RMK AO2 SLP210 T03220228
KFLL 151553Z 10019G24KT 10SM FEW035CB FEW055 BKN100 BKN250 31/23 A3011 RMK AO2 SLP194 CB SW-W MOV W T03110233
KDTS 151553Z 00000KT 10SM CLR 29/22 A3011 RMK AO2 SLP196 T02890222
KBPK 151553Z AUTO 18003KT 10SM CLR 30/17 A3015 RMK AO2 SLP197 T03000172
KJBR 151553Z AUTO 17003KT 10SM CLR 33/16 A3013 RMK AO2 SLP198 T03280156 $
KDEQ 151553Z AUTO 17003KT 10SM CLR 33/21 A3009 RMK AO2 SLP182 T03280211
KMMK 151553Z AUTO 36006KT 10SM CLR 28/09 A3015 RMK AO2 SLP209 T02830094
KTIW 151553Z 18007KT 10SM CLR 16/11 A3009 RMK AO2 SLP187 T01560111
KFSM 151553Z 19003KT 10SM CLR 33/21 A3010 RMK AO2 SLP185 T03280206
KHRO 151553Z AUTO 00000KT 10SM CLR 31/20 A3017 RMK AO2 SLP197 T03060200
KRIL 151553Z AUTO 04004KT 10SM FEW110 25/11 A3033 RMK AO2 SLP188 T02500111
KPBI 151553Z 10012KT 10SM SCT036 SCT065 SCT150 BKN250 29/22 A3013 RMK AO2 SLP203 T02940217
PATK 151553Z 00000KT 10SM OVC016 12/10 A2980 RMK AO2 SLP091 T01170100
KSHR 151553Z AUTO 09003KT 10SM CLR 28/14 A3010 RMK AO2 SLP152 T02780139 $
KMYV 151553Z AUTO VRB03KT 10SM CLR 22/11 A2996 RMK AO2 SLP147 T02220111
KSMF 151553Z 15007KT 10SM CLR 20/12 A2994 RMK AO2 SLP139 T02000117
KCRQ 151553Z 29004KT 10SM OVC011 19/16 A2997 RMK AO2 SLP144 T01940161
KTOI 151553Z AUTO VRB04KT 10SM FEW023 30/21 A3014 RMK AO2 SLP199 T03000211
KDHN 151553Z 13004KT 10SM BKN016 28/24 A3016 RMK AO2 SLP206 T02830239
KBYI 151553Z AUTO 19014G22KT 10SM CLR 27/13 A3009 RMK AO2 SLP138 T02720133
KIDA 151553Z 35005KT 10SM CLR 23/15 A3018 RMK AO2 SLP169 T02330150
KMLP 151553Z AUTO 00000KT 10SM FEW120 20/03 A3017 RMK AO2 RAB02E13 SLP109 P0000 T02000033
KPIH 151553Z 16019G28KT 10SM CLR 29/09 A3014 RMK AO2 PK WND 15028/1552 SLP149 T02940094
KIAG 151553Z 20007KT 10SM FEW032 27/16 A3017 RMK AO2 SLP213 T02670161
KTWF 151553Z 23011KT 10SM CLR 29/07 A3009 RMK AO2 SLP127 T02940067 $
KBIL 151553Z 21007KT 10SM FEW140 SCT250 25/13 A3008 RMK AO2 SLP151 T02500133
KMLS 151553Z AUTO 15007KT 10SM CLR 27/15 A3002 RMK AO2 SLP142 T02720150
KGAG 151553Z AUTO 19010G18KT 10SM CLR 34/16 A3009 RMK AO2 SLP151 T03390156
KJER 151553Z AUTO 17005KT 10SM CLR 27/12 A3009 RMK AO2 SLP140 T02670122
KRXE 151553Z AUTO 00000KT 10SM CLR 24/12 A3019 RMK AO2 SLP174 T02390122
KDCU 151553Z AUTO 11004KT 10SM CLR 31/17 A3016 RMK AO2 SLP206 T03110172
KGOK 151553Z AUTO 19009KT 160V220 10SM CLR 33/16 A3007 RMK AO2 SLP170 T03330161
KGUY 151553Z AUTO 26015KT 10SM CLR 36/13 A3009 RMK AO2 SLP129 T03610128
KGZH 151553Z AUTO 36005KT 10SM CLR 29/22 A3014 RMK AO2 SLP201 T02890217
KHFD 151553Z 02008KT 10SM FEW060 FEW120 27/12 A3015 RMK AO2 SLP210 T02670122
KLAW 151553Z VRB03KT 10SM CLR 32/17 A3010 RMK AO2 SLP176 T03220167
KPWA 151553Z 19011KT 10SM CLR 34/17 A3009 RMK AO2 SLP168 T03390167
KDXR 151553Z 02008KT 10SM FEW090 28/13 A3017 RMK AO2 SLP214 T02780128
KBGR 151553Z 31011G16KT 10SM FEW050 26/13 A3006 RMK AO2 SLP177 T02610128
KFVE 151553Z AUTO 32014G20KT 10SM CLR 22/09 A3003 RMK AO2 SLP164 T02220094
KHUL 151553Z AUTO 31005KT 10SM FEW049 24/12 A3002 RMK AO2 SLP165 T02390122
KIWI 151553Z AUTO VRB06KT 10SM CLR 26/11 A3010 RMK AO2 SLP192 T02610106
KLOL 151553Z AUTO 00000KT 10SM CLR 27/M02 A3013 RMK AO2 SLP154 T02671022
KMLT 151553Z AUTO VRB05KT 10SM CLR 25/12 A3006 RMK AO2 SLP183 T02500122
KPNS 151553Z 15004KT 10SM FEW022 SCT041 29/24 A3012 RMK AO2 SLP199 T02890239
KAUG 151553Z AUTO 33009G14KT 10SM CLR 26/12 A3010 RMK AO2 SLP191 T02610122
KOXB 151553Z AUTO 00000KT 10SM BKN055 BKN085 OVC110 23/21 A3014 RMK AO2 RAB10E49 SLP206 P0000 T02330206
KPDX 151553Z 00000KT 10SM FEW015 17/11 A3010 RMK AO2 SLP191 T01720111
KABY 151553Z 07004KT 10SM BKN010 27/23 A3016 RMK AO2 SLP209 T02670228
KELD 151553Z AUTO VRB03KT 10SM CLR 31/23 A3012 RMK AO2 SLP194 T03110228
KLIT 151553Z 19004KT 10SM SCT070 BKN250 33/17 A3012 RMK AO2 SLP197 T03280167
KMRB 151553Z 00000KT 10SM CLR 26/16 A3016 RMK AO2 SLP208 T02610156
KPBF 151553Z AUTO 32005KT 10SM CLR 33/22 A3011 RMK AO2 SLP193 T03280217
KPGA 151553Z AUTO VRB03KT 10SM CLR 28/14 A3024 RMK AO2 SLP170 T02830144
KTUS 151553Z 17005KT 10SM CLR 33/18 A3005 RMK AO2 SLP121 T03280178
KTXK 151553Z 33003KT 10SM CLR 33/21 A3011 RMK AO2 SLP188 T03280211
KVLD 151553Z 05005KT 10SM CLR 29/22 A3016 RMK AO2 SLP218 T02890217
KDRO 151553Z AUTO 10SM CLR 24/10 A3043 RMK AO2 SLP202 T02440100
KLHX 151553Z AUTO 29006KT 10SM CLR 27/13 A3020 RMK AO2 SLP154 T02720128
KNRS 151553Z 26005KT 10SM BKN010 19/16 A2998 RMK SLP152 T01890161
KDAN 151553Z AUTO 06005KT 10SM CLR 28/19 A3015 RMK AO2 SLP199 T02780194
KHKS 151553Z 29004KT 10SM CLR 31/23 A3012 RMK AO2 SLP190 T03060228
KPIL 151553Z AUTO 12012G23KT 4SM +RA FEW025 SCT032 BKN060 27/24 A3005 RMK AO2 RAB46 SLP174 P0005 T02720239
KUTS 151553Z AUTO 10SM FEW026 SCT048 BKN055 31/23 A3008 RMK AO2 SLP180 T03110233
KTRL 151553Z AUTO 16006KT 10SM CLR 33/19 A3009 RMK AO2 SLP182 T03280194
KSSI 151553Z AUTO 34004KT 10SM FEW023 30/23 A3016 RMK AO2 SLP214 T03000228
KMAI 151553Z AUTO 04004KT 10SM CLR 26/22 A3012 RMK AO1 SLP198 T02610217
PHNL 151553Z 05007KT 10SM FEW020 SCT042 25/19 A3007 RMK AO2 SLP183 T02500194
KASD 151553Z AUTO 21004KT 10SM SCT037 BKN044 32/23 A3010 RMK AO2 SLP191 T03220233 TSNO
KBAF 151553Z 04007KT 10SM CLR 26/09 A3016 RMK AO2 SLP211 T02610094
KFYV 151553Z 19006KT 10SM FEW042 32/21 A3015 RMK AO2 SLP191 T03220206
KMLB 151553Z 09007KT 10SM SCT025 31/24 A3014 RMK AO2 SLP204 T03110239
KOWD 151553Z 31008KT 10SM CLR 28/10 A3013 RMK AO2 SLP203 T02780100
PHTO 151553Z 24005KT 10SM FEW036 OVC050 22/21 A3007 RMK AO2 SLP182 P0001 T02220211
KRVS 151553Z VRB05KT 10SM CLR 33/18 A3008 RMK AO2 SLP188 T03280183
KTUL 151553Z 22008G17KT 10SM FEW120 SCT250 33/17 A3008 RMK AO2 SLP176 T03280172
KRBG 151553Z AUTO 00000KT 10SM CLR 16/10 A3011 RMK AO2 SLP194 T01610100
KOVE 151553Z AUTO 00000KT 10SM CLR 24/11 A2997 RMK AO2 SLP149 T02390106
KTVL 151553Z AUTO 00000KT 10SM CLR 21/07 A3029 RMK AO2 SLP187 T02110067
KSDL 151553Z 24004KT 10SM CLR 33/17 A2997 RMK AO2 RAB16E26 SLP116 P0000 T03330167
KFXE 151553Z AUTO 09018G23KT 10SM CLR 31/23 A3011 RMK AO2 SLP199 T03110233 TSNO
KLEE 151553Z 08006KT 10SM 29/23 A3016 RMK AO2 SLP213 T02940233
KAPF 151553Z 06009KT 10SM FEW034 31/23 A3010 RMK AO2 SLP192 T03110233
KDAB 151553Z 06009KT 10SM SCT028 SCT250 26/23 A3016 RMK AO2 SLP211 T02560228
KFMY 151553Z VRB05G17KT 10SM FEW033 32/23 A3011 RMK AO2 SLP197 T03220233
KGNV 151553Z 09003KT 10SM CLR 31/22 A3017 RMK AO2 SLP213 T03060222 $
KMCO 151553Z 09008KT 10SM SCT031 SCT250 32/22 A3014 RMK AO2 SLP205 T03170217
KNIP 151553Z 36003KT 10SM FEW030 SCT055 BKN200 BKN250 31/23 A3016 RMK AO2 SLP210 T03060233 $
KNQX 151553Z 08007KT 10SM FEW025 BKN090 BKN250 33/19 A3008 RMK AO2 SLP184 T2 SET T03330194 $
KOPF 151553Z 05014G25KT 10SM VCTS FEW030 SCT035 BKN042 28/21 A3012 RMK AO2 WSHFT 1444 LTG DSNT E AND SE AND W SLP201 T02830211
KPGD 151553Z 07006G14KT 10SM SCT031 31/23 A3014 RMK AO2 SLP204 T03060233
KPMP 151553Z 09015G21KT 10SM FEW029 32/23 A3011 RMK AO2 LTG DSNT SW SLP198 T03170233
KRWI 151553Z AUTO 15005KT 10SM CLR 27/21 A3014 RMK AO2 SLP204 T02670211
KSPG 151553Z 12005KT 10SM CLR 29/22 A3011 RMK AO2 SLP196 T02940222
KSRQ 151553Z VRB04KT 10SM CLR 30/22 A3010 RMK AO2 SLP193 T03000222
KTMB 151553Z 11011KT 10SM FEW033 31/23 A3010 RMK AO2 LTG DSNT N AND W RAB1457E11 SLP190 P0000 T03060228
KSTS 151553Z 20003KT 7SM CLR 14/11 A3001 RMK AO2 SLP155 T01440106
KMKO 151553Z AUTO 21006KT 10SM CLR 33/21 A3012 RMK AO2 SLP190 T03280206
KSWO 151553Z 19014KT 10SM CLR 35/17 A3006 RMK AO2 SLP164 T03500167
KRME 151553Z 00000KT 10SM CLR 24/13 A3018 RMK AO2 SLP217 T02390133
KBHM 151553Z 10006KT 10SM FEW048 31/19 A3017 RMK AO2 SLP206 T03060194
KBFM 151553Z 12005KT 10SM SCT020 29/24 A3013 RMK AO2 SLP202 TCU DSNT SE-SW VCSH T02890239
PHLI 151553Z 07012KT 10SM SCT021 BKN032 BKN042 25/20 A3011 RMK AO2 SLP194 T02500200
KANB 151553Z AUTO 11005KT 10SM CLR 30/20 A3015 RMK AO2 SLP199 T03000200
KMGM 151553Z 07003KT 10SM CLR 30/22 A3013 RMK AO2 SLP200 T03000222
KTCL 151553Z 26004KT 10SM FEW027 30/23 A3013 RMK AO2 SLP199 T03000233
KMSL 151553Z AUTO 00000KT 10SM CLR 31/20 A3015 RMK AO2 SLP203 T03110200
KONO 151553Z AUTO 24007KT 10SM CLR 27/09 A2999 RMK AO2 SLP134 T02720089
KTLH 151553Z 00000KT 10SM SCT095 BKN120 27/23 A3014 RMK AO2 SLP204 T02670228
KLEB 151553Z 00000KT 10SM SCT055 26/12 A3015 RMK AO2 SLP202 T02610117
KMKL 151553Z 24005KT 10SM FEW050 33/18 A3015 RMK AO2 SLP204 T03280183
KOQT 151553Z AUTO 14003KT 10SM CLR 29/18 A3017 RMK AO2 SLP199 T02890178
KMWT 151553Z AUTO 31003KT 10SM CLR 32/22 A3011 RMK AO2 SLP181 T03170222
KPUB 151553Z 19007KT 10SM CLR 30/13 A3022 RMK AO2 SLP157 T03000128
KLLQ 151553Z AUTO 29007KT 10SM CLR 31/22 A3011 RMK AO2 SLP192 T03110217
KRUE 151553Z AUTO VRB03KT 10SM CLR 33/20 A3011 RMK AO2 SLP186 T03280200
KAKO 151553Z AUTO 15005KT 10SM CLR 30/12 A3024 RMK AO2 SLP165 T03000122
KGJT 151553Z 14003KT 10SM FEW120 26/13 A3026 RMK AO2 SLP167 T02610133
KHOT 151553Z AUTO VRB03KT 10SM CLR 32/21 A3013 RMK AO2 SLP194 T03170211
KCEZ 151553Z AUTO 14012G16KT 10SM CLR 28/11 A3034 RMK AO2 SLP177 T02830106
KHVR 151553Z AUTO 23010KT 10SM CLR 28/13 A2996 RMK AO2 SLP125 T02830133
KEEO 151553Z AUTO 12004KT 10SM FEW100 22/13 A3038 RMK AO2 SLP192 T02170128
KOLF 151553Z AUTO 00000KT 10SM CLR 27/18 A2998 RMK AO2 SLP141 T02720178
KMHT 151553Z 29006KT 10SM FEW060 FEW200 27/11 A3013 RMK AO2 SLP212 T02670106
KAGC 151553Z VRB03KT 10SM CLR 26/10 A3019 RMK AO2 SLP218 T02610100
KLXV 151553Z AUTO 00000KT 10SM CLR 16/08 A3066 RMK AO2 SLP209 T01610083
KMTJ 151553Z AUTO 24005KT 10SM SCT100 25/12 A3034 RMK AO2 SLP182 T02500122
KRTN 151553Z AUTO 00000KT 10SM CLR 27/10 A3036 RMK AO2 SLP171 T02670100
KSAF 151553Z 34008KT 10SM CLR 24/14 A3038 RMK AO2 SLP174 T02440144
KTCC 151553Z AUTO VRB03KT 10SM CLR 31/13 A3018 RMK AO2 SLP141 T03110133
KUUU 151553Z AUTO 35007KT 10SM CLR 25/13 A3015 RMK AO2 SLP207 T02500128
KTCS 151553Z AUTO 03009KT 10SM CLR 29/13 A3026 RMK AO2 SLP146 T02940128
KNUI 151553Z AUTO 24005KT 10SM FEW026 SCT070 BKN100 29/22 A3012 RMK AO2 SLP199 T02940217
KFLO 151553Z 19004KT 10SM SCT030 29/23 A3014 RMK AO2 SLP202 T02940233 $
KWST 151553Z AUTO 19005KT 10SM CLR 26/16 A3015 RMK AO2 SLP209 T02560161
KHKA 151553Z AUTO 24005KT 10SM CLR 32/19 A3013 RMK AO2 SLP200 T03220194 $
KFRG 151553Z 06008KT 10SM CLR 27/15 A3016 RMK AO2 SLP212 T02670150
KGWO 151553Z AUTO VRB04KT 10SM CLR 32/24 A3010 RMK AO2 SLP191 T03170244
KGLH 151553Z VRB04KT 10SM CLR 31/24 A3010 RMK AO2 SLP197 T03110244
KTUP 151553Z 06003KT 10SM CLR 32/20 A3013 RMK AO2 SLP198 T03170200
KHGR 151553Z 32004KT 10SM FEW070 27/15 A3017 RMK AO2 SLP219 T02670150
KMLU 151553Z 28004KT 10SM SCT023 32/23 A3011 RMK AO2 SLP194 T03170228
KMSY 151553Z 23004KT 10SM FEW023 BKN190 BKN250 31/24 A3010 RMK AO2 SLP197 TCU DSNT E AND W T03060244
KLFT 151553Z VRB03KT 10SM SCT024 30/24 A3010 RMK AO2 SLP192 T03000244
KLCH 151553Z 16005KT 10SM SCT029 30/23 A3009 RMK AO2 SLP196 T03000228
KARA 151553Z VRB03KT 10SM FEW026 32/24 A3010 RMK AO2 LTG DSNT SE SLP190 T03170239
KRMG 151553Z AUTO VRB04KT 10SM CLR 32/18 A3014 RMK AO2 SLP195 T03220178
KXNA 151553Z 24009G16KT 10SM CLR 33/19 A3015 RMK AO2 SLP189 T03280194
KPNC 151553Z AUTO 17010KT 10SM CLR 34/16 A3005 RMK AO2 SLP158 T03440156 TSNO
KENW 151553Z 22005KT 3SM RA BR BKN110 19/18 A3014 RMK AO2 SLP204 P0013 T01940178
KFLD 151553Z AUTO 00000KT 10SM FEW011 SCT037 BKN050 20/17 A3007 RMK AO2 RAE45 PRESRR SLP180 P0007 T02000172
KHEI 151553Z AUTO 16006KT 10SM CLR 30/21 A3008 RMK AO2 SLP163 T03000206
KSBM 151553Z AUTO 13009KT 4SM -RA BR BKN100 OVC110 16/15 A3005 RMK AO2 SLP177 P0015 T01610150
PANN 151553Z AUTO 09009KT 10SM CLR 11/06 A2970 RMK AO2 SLP060 T01110056 TSNO
PASC 151553Z 00000KT 8SM OVC006 M01/M02 A2987 RMK AO2 SLP115 T10061017 $
PATO 151553Z AUTO 00000KT 10SM CLR 09/08 A2984 RMK AO2 SLP104 T00940083 TSNO
KAXN 151553Z AUTO 07008KT 10SM FEW075 27/18 A3006 RMK AO2 SLP171 T02670183
KBDE 151553Z AUTO 00000KT 10SM CLR 26/18 A3005 RMK AO2 SLP175 T02610178
KBRD 151553Z AUTO VRB05KT 10SM SCT019 25/19 A3005 RMK AO2 SLP170 T02500189
KGEZ 151553Z AUTO 18005KT 10SM SCT085 28/17 A3017 RMK AO2 SLP210 T02830167
KHBR 151553Z AUTO 22016G23KT 10SM CLR 33/16 A3011 RMK AO2 SLP172 T03330156
KHIB 151553Z AUTO 07004KT 10SM CLR 24/17 A3005 RMK AO2 SLP175 T02440172 TSNO
KMSP 151553Z 08005KT 10SM BKN045 25/19 A3002 RMK AO2 SLP160 T02500189
KRWF 151553Z AUTO 08004KT 10SM BKN023 27/22 A2999 RMK AO2 SLP146 T02670217
KSTC 151553Z 09006KT 10SM CLR 25/19 A3002 RMK AO2 SLP169 T02500189
KFCM 151553Z 09009KT 10SM FEW023 27/21 A3000 RMK AO2 SLP152 T02670206
KPKD 151553Z AUTO VRB05KT 10SM CLR 25/15 A3006 RMK AO2 SLP175 T02500150
KLXT 151553Z AUTO 21012KT 10SM CLR 27/21 A3003 RMK AO2 SLP157 T02720206 $
KFNB 151553Z AUTO 22013G22KT 10SM CLR 31/23 A2994 RMK AO2 SLP126 T03110228
KHLC 151553Z AUTO 36006KT 10SM CLR 36/14 A3002 RMK AO2 SLP130 T03560144
KHSI 151553Z AUTO 04011KT 10SM CLR 32/21 A3003 RMK AO2 SLP146 T03170211
KHYR 151553Z AUTO 19008KT 10SM OVC017 22/18 A3007 RMK AO2 SLP179 T02170178
KMIC 151553Z VRB05KT 10SM FEW031 BKN038 OVC060 27/19 A3001 RMK AO2 SLP157 T02670189
KMIE 151553Z 14008KT 10SM FEW050 SCT080 28/14 A3017 RMK AO2 SLP207 T02830139
KODX 151553Z AUTO 01008KT 10SM CLR 30/23 A3002 RMK AO2 SLP151 T03000228
KOWA 151553Z AUTO 12013G17KT 10SM SCT021 SCT090 26/21 A3000 RMK AO2
KPAH 151553Z 00000KT 10SM CLR 32/19 A3013 RMK AO2 SLP198 T03170194
KSTP 151553Z 15007KT 10SM BKN041 26/19 A3002 RMK AO2 SLP160 T02560194
KAUS 151553Z 15005KT 10SM SCT028 SCT250 29/23 A3006 RMK AO2 SLP169 T02940228
KVIH 151553Z AUTO 19013KT 10SM CLR 32/17 A3013 RMK AO2 SLP188 T03170172
KADG 151553Z AUTO 22005KT 10SM CLR 25/13 A3019 RMK AO2 SLP220 T02500128
KDMO 151553Z AUTO 19009KT 10SM -RA FEW065 FEW080 SCT110 26/21 A3006 RMK AO2 RAB33 SLP170 P0000 T02560211
KJEF 151553Z 00000KT 10SM CLR 29/19 A3008 RMK AO2 SLP170 T02940194
KAQP 151553Z AUTO 04009KT 10SM CLR 28/17 A3001 RMK AO2
KBFF 151553Z AUTO 05005KT 10SM CLR 29/14 A3018 RMK AO2 SLP164 T02940144
KFOZ 151553Z AUTO 08007KT 10SM CLR 26/18 A3010 RMK AO2
KXVG 151553Z AUTO 09004KT 10SM CLR 23/18 A3006 RMK AO2
KTOP 151553Z 19010KT 10SM CLR 32/22 A2999 RMK AO2 SLP142 T03220217
KHUF 151553Z 00000KT 10SM OVC080 27/19 A3017 RMK AO2 SLP214 T02670189
KLWV 151553Z AUTO 19005KT 10SM SCT090 29/22 A3015 RMK AO2 SLP206 T02890217
KMDW 151553Z 21006KT 9SM -RA OVC021 21/18 A3016 RMK AO2 RAE09B35 SLP205 P0002 T02110178
KEWB 151553Z VRB04KT 10SM FEW040 27/11 A3014 RMK AO2 SLP205 T02720111
KMVY 151553Z 34008KT 10SM CLR 26/14 A3014 RMK AO2 SLP205 T02610144
KBVY 151553Z 33005KT 10SM CLR 26/10 A3013 RMK AO2 SLP197 T02610100
KACK 151553Z 34004KT 10SM CLR 26/17 A3014 RMK AO2 SLP208 T02560172
KMCB 151553Z AUTO 28005KT 10SM CLR 29/22 A3013 RMK AO2 SLP195 T02940222
KGPT 151553Z 20003KT 10SM BKN027 BKN033 BKN044 31/24 A3010 RMK AO2 SLP191 T03110239
KPQL 151553Z 00000KT 10SM FEW065 31/24 A3011 RMK AO2 SLP197 T03110239
KTHV 151553Z AUTO 12006KT 10SM CLR 27/15 A3016 RMK AO2 SLP212 T02720150
KTVR 151553Z AUTO 00000KT 10SM CLR 31/23 A3011 RMK AO2 SLP202 T03060228 $
KAMG 151553Z AUTO 00000KT 10SM SCT010 27/24 A3016 RMK AO2 RAE1454 SLP209 P0000 T02720239
KMCN 151553Z VRB04KT 10SM CLR 30/23 A3014 RMK AO2 SLP201 T03000233
KSAV 151553Z 00000KT 10SM FEW009 SCT150 BKN180 BKN250 27/22 A3015 RMK AO2 SLP209 T02720222
KAOO 151553Z AUTO 10SM CLR 24/12 A3021 RMK AO2 SLP221 T02440122
KBFD 151553Z AUTO 06005KT 10SM SCT060 24/08 A3023 RMK AO2 SLP226 T02390083
KLNS 151553Z 09007KT 10SM FEW060 28/14 A3015 RMK AO2 SLP208 T02830144
KMPO 151553Z AUTO VRB03KT 10SM FEW055 22/08 A3022 RMK AO2 SLP223 T02220083
KDUJ 151553Z AUTO 00000KT 10SM FEW060 23/07 A3022 RMK AO2 SLP221 T02330072
KLAX 151553Z 27005KT 3SM BR FEW002 OVC006 18/16 A2998 RMK AO2 SLP150 T01830161 $
PHKO 151553Z 00000KT 10SM FEW026 FEW031 BKN055 25/22 A3003 RMK AO2 SLP169 T02500222
PAWI 151553Z AUTO 30010KT 10SM OVC011 03/00 A2986 RMK AO2 SLP112 T00330000 TSNO
PABR 151553Z 26009KT 10SM OVC010 02/M01 A2985 RMK AO2 SNE02 CIG 007V013 SLP108 P0000 T00171011
PAEN 151553Z 14003KT 10SM BKN120 13/11 A2979 RMK AO2 SLP087 T01280111
PAFA 151553Z 05003KT 10SM FEW070 BKN100 BKN200 12/06 A2974 RMK AO2 SLP073 T01220061
PAJN 151553Z 00000KT 10SM FEW065 BKN085 BKN250 13/11 A2983 RMK AO2 SLP102 T01330106
PASI 151553Z 00000KT 10SM FEW030 FEW042 BKN070 14/12 A2981 RMK AO2 SLP093 T01390117 $
PAYA 151553Z AUTO 00000KT 10SM CLR 12/11 A2985 RMK AO2 SLP109 T01220111 TSNO $
PAOT 151553Z 30004KT 10SM CLR 10/09 A2966 RMK AO2 SLP045 T01000089
PAKT 151553Z 00000KT 7SM -RA SCT008 BKN010 OVC020 13/12 A2984 RMK AO2 SLP104 HARBOR WIND VRB03KT P0002 T01330122
KBNA 151553Z VRB03KT 10SM FEW050 SCT110 SCT250 32/18 A3016 RMK AO2 SLP205 T03170183
KTRI 151553Z VRB03KT 10SM SCT055 SCT080 28/18 A3018 RMK AO2 SLP194 T02830178 $
KTYS 151553Z 00000KT 10SM FEW045 SCT250 29/18 A3015 RMK AO2 SLP199 T02890183
KBCE 151553Z AUTO 14008KT 10SM CLR 21/12 A3046 RMK AO2 SLP195 T02060117
KOGD 151553Z 20015G25KT 10SM -RA OVC100 23/16 A3024 RMK AO2 RAB20 SLP173 P0000 T02330156 $
KCDC 151553Z AUTO 23005KT 10SM CLR 24/12 A3030 RMK AO2 SLP182 T02390122 $
KAGS 151553Z 13006KT 8SM CLR 28/24 A3012 RMK AO2 SLP199 T02830244 $
KOAK 151553Z 25008KT 10SM BKN010 BKN012 14/12 A3003 RMK AO2 SLP169 T01440117
KPRB 151553Z AUTO 28003KT 10SM CLR 19/10 A3000 RMK AO2 SLP153 T01890100
KPSP 151553Z 00000KT 10SM CLR 37/13 A2991 RMK AO2 SLP123 T03670128
KPUC 151553Z AUTO 11004KT 10SM -RA BKN085 OVC120 21/17 A3034 RMK AO2 RAB44 SLP184 P0000 T02060172
KSIY 151553Z AUTO 01004KT 10SM CLR 24/12 A3009 RMK AO2 SLP172 T02390122
KCNY 151553Z AUTO 34005KT 10SM 24/18 A3025 RMK AO2 SLP173 T02440183 $
KLAR 151553Z AUTO 18005KT 10SM FEW120 22/12 A3040 RMK AO2 SLP179 T02220117
KCPR 151553Z 22011KT 10SM CLR 27/11 A3024 RMK AO2 SLP163 T02670111
KLWD 151553Z AUTO 20015G25KT 10SM CLR 31/20 A2993 RMK AO2 SLP123 T03060200
KMIW 151553Z AUTO 13013KT 10SM CLR 26/21 A2996 RMK AO2 LTG DSNT E SLP136 T02560206
KSPW 151553Z AUTO 02014KT 10SM BKN023 29/22 A2994 RMK AO2 SLP128 T02890217
KAMW 151553Z AUTO 18009KT 10SM CLR 29/22 A2990 RMK AO2 SLP114 T02940222
KBRL 151553Z AUTO 34003KT 10SM OVC110 23/20 A3007 RMK AO2 LTG DSNT SW-N PRESRR SLP178 T02280200
KOTM 151553Z AUTO 17009KT 8SM -RA OVC110 24/22 A2999 RMK AO2 RAB47 SLP148 P0001 T02440222
KLSE 151553Z 00000KT 10SM SCT075 SCT110 22/19 A3004 RMK AO2 LTG DSNT SE RAE06 TSE1456 SLP163 P0001 T02170189
KLND 151553Z AUTO 00000KT 10SM CLR 23/10 A3026 RMK AO2 SLP171 T02280100
KRAC 151553Z AUTO 20005KT 4SM RA BR OVC016 19/18 A3014 RMK AO2 SLP206 P0022 T01890178
KRIW 151553Z AUTO 07004KT 10SM CLR 24/12 A3025 RMK AO2 SLP169 T02390122
KRWL 151553Z AUTO VRB05G14KT 10SM FEW080 OVC095 21/11 A3039 RMK AO2 RAB32E52 SLP182 P0000 T02110111
KWRL 151553Z AUTO 34003KT 10SM CLR 27/13 A3013 RMK AO2 SLP155 T02720128
KTOR 151553Z AUTO VRB03KT 10SM CLR 29/14 A3018 RMK AO2 SLP159 T02940144
PAIL 151553Z 23003KT 10SM SCT006 BKN012 OVC026 10/10 A2986 RMK AO2 RAB04E22 SLP112 P0000 T01000100
PAMC 151553Z AUTO 18009G17KT 140V210 7SM -RA FEW012 BKN047 OVC055 13/12 A2964 RMK AO2 SLP038 P0007 T01280117 TSNO
PAKW 151553Z AUTO 00000KT 7SM -RA FEW006 OVC060 13/11 A2982 RMK AO2 SLP098 P0002 T01330111 TSNO
KHVN 151553Z 17012KT 10SM CLR 28/17 A3015 RMK AO2 SLP210 T02830167
KEYE 151553Z AUTO 25004KT 10SM BKN050 BKN070 27/15 A3017 RMK AO2 SLP210 T02720150
KBVO 151553Z AUTO 20008G17KT 10SM CLR 34/18 A3008 RMK AO2 SLP172 T03390183
KCMI 151553Z 10SM FEW048 SCT085 BKN120 23/19 A3017 RMK AO2 SLP211 T02280194
KSDM 151553Z VRB04KT 10SM SCT010 21/16 A2997 RMK AO2 SLP145 T02110156
KSNA 151553Z 20003KT 10SM FEW013 21/16 A2997 RMK AO2 SLP146 T02110156
KFAT 151553Z 29005KT 10SM CLR 27/11 A2994 RMK AO2 SLP135 T02670106 $
KSDB 151553Z AUTO 14010KT 10SM CLR 30/09 A3019 RMK AO2 SLP156 T03000094 $
KCPS 151553Z 15004KT 10SM CLR 29/19 A3011 RMK AO2 SLP191 T02890194
KMTO 151553Z AUTO 10SM OVC095 24/21 A3015 RMK AO2 RAB05E15 SLP203 P0000 T02440211
KMSO 151553Z 16014KT 10SM CLR 19/11 A3009 RMK AO2 LTG DSNT SE PRESRR SLP166 T01890106
KCCR 151553Z 20012KT 10SM CLR 18/11 A2998 RMK AO2 SLP140 T01830111
KMAE 151553Z AUTO 29005KT 10SM CLR 26/10 A2995 RMK AO2 SLP137 T02560100
KLGB 151553Z 19005KT 8SM SCT008 20/16 A2997 RMK AO2 SLP149 T02000156
KMCE 151553Z AUTO 30005KT 10SM CLR 25/09 A2994 RMK AO2 SLP135 T02500094
KMOD 151553Z 32007KT 10SM CLR 23/08 A2994 RMK AO2 SLP137 T02330083
KMYF 151553Z 00000KT 10SM CLR 21/16 A2997 RMK AO2 SLP144 T02110156
KSBA 151553Z 15005KT 6SM HZ SCT007 17/14 A2997 RMK AO2 SLP147 T01720144 $
KSNS 151553Z 26008KT 9SM OVC010 16/12 A3004 RMK AO2 SLP180 T01610117
KIPL 151553Z AUTO 06007KT 10SM CLR 32/16 A2986 RMK AO2 SLP111 T03220161
KRAL 151553Z 00000KT 10SM CLR 24/16 A2997 RMK AO2 SLP133 T02390156
KFUL 151553Z 20005KT 10SM CLR 22/16 A2996 RMK AO2 SLP144 T02170161
KPMD 151553Z 02006KT 10SM CLR 32/11 A3005 RMK AO2 SLP137 T03220111
KCNO 151553Z 17003KT 9SM CLR 24/16 A2998 RMK AO2 SLP145 T02440161
KHHR 151553Z 27004KT 6SM HZ OVC010 19/16 A2998 RMK AO2 SLP150 T01940161
KSAC 151553Z 17006KT 10SM CLR 19/13 A2996 RMK AO2 SLP143 T01940128
KHJO 151553Z AUTO 32009KT 10SM CLR 28/07 A2995 RMK AO2 SLP139 T02780072
KONT 151553Z 17004KT 8SM FEW250 23/17 A2997 RMK AO2 SLP133 T02330167
KLVK 151553Z 31004KT 10SM CLR 18/12 A3000 RMK AO2 SLP155 T01780117
KRNM 151553Z 00000KT 10SM CLR 25/14 A2998 RMK AO2 SLP136 T02500144
KVCB 151553Z AUTO 00000KT 10SM CLR 22/12 A2996 RMK AO2 SLP142 T02220117
KACV 151553Z AUTO 29004KT 10SM BKN011 14/12 A3010 RMK AO2 SLP197 T01390117
KSJC 151553Z VRB03KT 10SM FEW014 18/12 A3002 RMK AO2 SLP164 T01780122
KWVI 151553Z AUTO VRB03KT 9SM OVC006 14/12 A3004 RMK AO2 SLP171 T01390122
KRDD 151553Z 00000KT 10SM CLR 28/09 A2995 RMK AO2 SLP135 T02780089
KDLN 151553Z AUTO 25009KT 10SM CLR 19/13 A3018 RMK AO2 PRESRR SLP163 T01890128 TSNO
KMLC 151553Z AUTO 25009KT 10SM CLR 33/21 A3011 RMK AO2 SLP183 T03280211
KCGI 151553Z 26009KT 10SM BKN250 32/21 A3013 RMK AO2 SLP200 T03170211
KFOE 151553Z 19009KT 10SM CLR 31/22 A3000 RMK AO2 SLP146 T03110217
KPOF 151553Z AUTO 22008KT 10SM CLR 32/18 A3014 RMK AO2 SLP200 T03220178
KSLN 151553Z 19014KT 10SM CLR 34/19 A2998 RMK AO2 SLP134 T03440189
KUNO 151553Z AUTO 23006KT 10SM CLR 31/15 A3019 RMK AO2 SLP205 T03110150
KIXD 151553Z 19010G19KT 10SM CLR 30/21 A3003 RMK AO2 SLP153 T03000206
KOJC 151553Z 20007KT 10SM CLR 29/21 A3002 RMK AO2 SLP151 T02890206
KRSL 151553Z AUTO 24021G31KT 10SM CLR 38/14 A2995 RMK AO2 PK WND 23034/1539 SLP115 T03830139
KBEH 151553Z AUTO 20004KT 9SM -RA FEW037 OVC055 21/19 A3016 RMK AO2 RAB27 SLP212 P0007 T02110189
KLAN 151553Z 20009KT 10SM FEW050 FEW060 26/13 A3018 RMK AO2 SLP214 T02560133
KLOU 151553Z 18003KT 10SM CLR 29/17 A3017 RMK AO2 SLP209 T02890172
KLOZ 151553Z AUTO VRB04KT 10SM SCT049 29/15 A3018 RMK AO2 SLP207 T02890150
KGRB 151553Z 13007KT 7SM -RA BKN022 OVC110 17/14 A3008 RMK AO2 SLP187 P0009 T01720144
KLBF 151553Z AUTO 06013KT 10SM CLR 32/18 A3010 RMK AO2 SLP156 T03170183
KAZO 151553Z 19010KT 10SM SCT075 24/16 A3016 RMK AO2 SLP210 T02440156
KMSN 151553Z 22007KT 10SM -RA SCT008 BKN110 BKN200 20/18 A3004 RMK AO2 SLP170 P0004 T02000183
KASX 151553Z AUTO VRB03KT 10SM FEW012 23/19 A3005 RMK AO2 SLP177 T02280189
KOVS 151553Z AUTO VRB06KT 10SM OVC050 21/19 A3005 RMK AO2 LTG DSNT N AND S SLP174 T02060189
KRHI 151553Z AUTO 11006KT 10SM OVC007 17/16 A3012 RMK AO2 RAE1454 CIG 006V010 SLP198 P0000 T01720156
KGRI 151553Z 03011KT 10SM CLR 33/21 A3003 RMK AO2 SLP150 T03280206
KETH 151553Z AUTO 04006KT 10SM SCT027 27/19 A3004 RMK AO2
KORB 151553Z AUTO 11005KT 10SM CLR 24/16 A3003 RMK AO2
KAIA 151553Z AUTO VRB04KT 10SM CLR 28/16 A3018 RMK AO2 SLP171 T02780156
KJLN 151553Z 26011KT 10SM BKN250 34/18 A3011 RMK AO2 SLP180 T03390183
KGLD 151553Z AUTO 04011KT 10SM CLR 31/16 A3014 RMK AO2 SLP149 T03110156
KJKL 151553Z AUTO 00000KT 10SM FEW038 27/18 A3019 RMK AO2 SLP207 T02670183
KHTL 151553Z AUTO 21008KT 10SM CLR 23/14 A3015 RMK AO2 SLP208 T02330144
KDVP 151553Z AUTO 05007KT 10SM SCT016 25/21 A3001 RMK AO2 T02510213
KELY 151553Z AUTO VRB04KT 10SM CLR 21/11 A3034 RMK AO2 SLP167 T02060111
KNSI 151553Z 01005KT 1/2SM FG OVC002 15/14 A2998 RMK AO2 SLP147 T01500144 $
KSTJ 151553Z 20010KT 10SM CLR 29/23 A2996 RMK AO2 SLP134 T02940228
PAPB 151553Z AUTO 2 1/2SM -RA BR FEW006 BKN010 OVC025 09/09 A2969 RMK AO2 RAE09B14 CIG 009V013 SLP041 P0003 T00890089 TSNO $
TJNR 151553Z AUTO 10010KT 10SM FEW025 31/26 A3004 RMK AO2 SLP174 T03060256
KFAR 151553Z 10003KT 10SM CLR 24/21 A3003 RMK AO2 SLP168 T02390206
KGFK 151553Z VRB04KT 10SM SCT040 BKN200 26/18 A3004 RMK AO2 SLP169 T02560178
KAAF 151553Z AUTO VRB06KT 10SM CLR 27/24 A3012 RMK AO2 SLP201 T02720239
KBCT 151553Z 06014G23KT 10SM SCT025 31/22 A3013 RMK LTG DSNT N-E
KBKV 151553Z VRB03KT 10SM CLR 30/22 A3015 RMK AO2 SLP207 T03000222
KCEW 151553Z AUTO VRB03KT 10SM FEW017 29/24 A3013 RMK AO2 SLP199 T02940244
KRSW 151553Z 07010G15KT 040V100 10SM FEW028 32/24 A3011 RMK AO2 SLP193 T03170244
KFPR 151553Z 12013KT 10SM CLR 31/23 A3014 RMK AO2 LTG DSNT NE SLP206 T03060233
KHWO 151553Z 08009G21KT 10SM TSRA SCT033 BKN050 OVC085 25/21 A3013 RMK AO2 PK WND 05034/1534 LTG DSNT SE AND W RAB36 TSB43 SLP204 P0002 T02500206
KCRG 151553Z 05006KT 10SM SCT025 SCT044 OVC055 31/23 A3016 RMK AO2 SLP211 T03110233 $
KEYW 151553Z 06006KT 10SM CLR 31/M01 A3008 RMK AO2 SLP186 T03111006
KMTH 151553Z AUTO 18010G20KT 1 3/4SM VCTS +RA BR SCT022 BKN028 BKN037 24/22 A3010 RMK AO2 RAB1459E17B41 SLP192 P0027 T02440222
KMIA 151553Z 07012G23KT 10SM BKN032 BKN045 BKN110 BKN250 30/23 A3010 RMK AO2 LTG DSNT NW-E SLP194 CB DSNT N-E-SE AND SW-NW MOV W T03000228 $
KECP 151553Z 30008KT 10SM CLR 28/23 A3011 RMK AO1 SLP205 T02780233
KTPA 151553Z 17005KT 10SM FEW040 FEW200 32/21 A3013 RMK AO2 SLP203 T03170206
KDEW 151553Z AUTO 18008KT 10SM CLR 16/13 A3002 RMK AO2 LTG DSNT E AND SE RAE01 TSE04 SLP160 P0000 T01560133
KEPH 151553Z AUTO 12004KT 10SM CLR 24/05 A2993 RMK AO2 SLP126 T02390050
KPAE 151553Z 17010G17KT 10SM CLR 17/09 A3007 RMK AO2 SLP183 T01670094
KSFF 151553Z 00000KT 10SM FEW080 SCT110CB 18/13 A3002 RMK AO2 LTG DSNT NE-SE RAB18E28 SLP151 P0000 T01780128
KGEG 151553Z 15006KT 10SM FEW080 FEW110 SCT160 BKN240 BKN300 17/12 A3001 RMK AO2 LTG DSNT NE-SE RAB1458E19B41E46 TSE27 SLP148 VIRGA CB DSNT NE AND SE SHRA DSNT NE AND SE P0000 T01720122
KDLS 151553Z AUTO 32012G16KT 10SM CLR 23/09 A2999 RMK AO2 SLP154 T02330094
KYKM 151553Z AUTO 36005KT 10SM CLR 25/08 A2997 RMK AO2 SLP139 T02500078
KBPI 151553Z AUTO 00000KT 10SM FEW110 19/08 A3040 RMK AO2 SLP193 T01940083
KBYG 151553Z AUTO 12003KT 10SM CLR 29/09 A3019 RMK AO2 SLP156 T02890094
KCYS 151553Z 00000KT 10SM CLR 26/12 A3033 RMK AO2 SLP172 T02610117
KDGW 151553Z AUTO VRB03KT CLR 29/16 A3024 RMK AO2 SLP163 T02890161 $
KEVW 151553Z AUTO 20004KT 10SM OVC090 18/13 A3041 RMK AO2 SLP196 T01830128
KGCC 151553Z AUTO 17013KT 10SM CLR 29/14 A3014 RMK AO2 SLP154 T02890139
KGEY 151553Z AUTO 15005KT 10SM CLR 27/12 A3012 RMK AO2 SLP153 T02720117
KLMT 151553Z VRB03KT 10SM CLR 21/12 A3015 RMK AO2 SLP165 T02060122
KLKV 151553Z AUTO 14006KT 10SM CLR 19/07 A3021 RMK AO2 SLP189 T01940072
KMMV 151553Z AUTO 00000KT 10SM FEW013 15/11 A3010 RMK AO2 SLP193 T01500106
KMFR 151553Z VRB04KT 10SM CLR 21/12 A3007 RMK AO2 SLP173 T02110122
KPDT 151553Z 21008G15KT 10SM CLR 25/08 A3002 RMK AO2 SLP146 T02500078
KHIO 151553Z 27004KT 10SM SCT016 16/11 A3010 RMK AO2 SLP190 T01610111
KTTD 151553Z 03004KT 10SM CLR 18/12 A3010 RMK AO2 SLP193 T01830117
KFAY 151553Z 21006KT 10SM FEW014 27/22 A3012 RMK AO2 SLP194 T02670222
KEQY 151553Z AUTO 00000KT 10SM BKN036 29/20 A3013 RMK AO2 SLP200 T02940200
KILM 151553Z 34005KT 10SM BKN110 24/23 A3011 RMK AO2 RAE35 SLP196 P0002 T02440228
KHZY 151553Z AUTO 10007KT 060V140 10SM CLR 26/10 A3020 RMK AO2 SLP222 T02610100
KLUK 151553Z VRB03KT 10SM CLR 28/16 A3017 RMK AO2 SLP210 T02830156
KBKL 151553Z 35009KT 10SM CLR 26/15 A3018 RMK AO2 SLP216 T02560150
KOSU 151553Z VRB03KT 10SM CLR 27/12 A3019 RMK AO2 SLP218 T02720117
KMGY 151553Z AUTO VRB03KT 10SM CLR 27/17 A3018 RMK AO2 SLP214 T02670167
KDFI 151553Z AUTO 16009KT 10SM CLR 26/12 A3018 RMK AO2 SLP215 T02610117
KFDY 151553Z AUTO 13007KT 10SM CLR 27/12 A3019 RMK AO2 SLP215 T02670117
KHAO 151553Z AUTO 00000KT 10SM CLR 28/17 A3018 RMK AO2 SLP216 T02780172
KLHQ 151553Z AUTO VRB03KT 10SM CLR 26/15 A3020 RMK AO2 SLP220 T02560150
KAOH 151553Z AUTO 12006KT 10SM CLR 26/11 A3020 RMK AO2 SLP220 T02610106
KLPR 151553Z AUTO 34003KT 10SM CLR 25/09 A3022 RMK AO2 SLP228 T02500094
KMNN 151553Z AUTO 12009KT 10SM CLR 26/13 A3020 RMK AO2 SLP222 T02560128
KPHD 151553Z AUTO VRB03KT 10SM CLR 26/11 A3020 RMK AO2 SLP220 T02560111
KTDZ 151553Z AUTO 15008KT 10SM CLR 27/10 A3020 RMK AO2 SLP221 T02670100
KZZV 151553Z AUTO 00000KT 10SM CLR 24/14 A3019 RMK AO2 SLP217 T02440144
KBGM 151553Z VRB04KT 10SM CLR 22/10 A3021 RMK AO2 SLP224 T02170100
KDKK 151553Z AUTO 29009KT 10SM CLR 25/12 A3020 RMK AO2 SLP225 T02500117 $
KELM 151553Z 00000KT 10SM CLR 26/06 A3018 RMK AO2 SLP217 T02610056
KGFL 151553Z AUTO 15003KT 10SM CLR 24/11 A3015 RMK AO2 SLP209 T02440111
KMSS 151553Z AUTO 22004KT 10SM CLR 24/13 A3016 RMK AO2 SLP213 T02440128
KPEO 151553Z AUTO VRB03KT 10SM CLR 24/08 A3020 RMK AO2 SLP223 T02440078
KPOU 151553Z VRB04KT 10SM CLR 26/12 A3015 RMK AO2 SLP207 T02610117
KFOK 151553Z 02005KT 10SM FEW110 27/14 A3017 RMK AO2 SLP215 T02720144
KABR 151553Z AUTO 06007KT 10SM FEW016 27/22 A3004 RMK AO2 SLP163 T02720222
KCUT 151553Z AUTO 10SM CLR 29/10 A3028 RMK AO2 SLP166 T02890100
KMHE 151553Z AUTO 03010G19KT 10SM CLR 31/23 A3001 RMK AO2 SLP149 T03060228
KPIR 151553Z AUTO 06008KT 10SM CLR 28/23 A3002 RMK AO2 SLP150 T02830228
KATY 151553Z AUTO 07007KT 10SM BKN015 BKN060 26/22 A3003 RMK AO2 SLP157 T02610222
KICR 151553Z AUTO 05010KT 10SM CLR 31/22 A3005 RMK AO2 SLP154 T03060217
KCDW 151553Z VRB03KT 10SM BKN075 OVC100 27/13 A3016 RMK AO2 SLP217 T02670133
KSMQ 151553Z AUTO VRB04KT 10SM OVC070 29/13 A3013 RMK AO2 SLP202 T02890128
KFWN 151553Z AUTO 08007KT 10SM CLR 26/15 A3018 RMK AO2 SLP216 T02560150
KTTN 151553Z 04005KT 10SM BKN070 27/12 A3014 RMK AO2 SLP199 T02720122
KDVT 151553Z 23004KT 10SM SCT110 33/17 A2996 RMK AO2 RAB03E18 SLP114 P0000 T03330167
KPRC 151553Z 04005KT 10SM CLR 23/16 A3028 RMK AO2 SLP179 T02330161
PAHO 151553Z 00000KT 10SM CLR 13/12 A2982 RMK AO2 SLP097 T01330117
PASN 151553Z AUTO 06004KT 1 1/2SM -RA BR SCT004 OVC100 06/06 A2971 RMK AO2 VIS 1V2 RAB26 SLP062 P0001 T00610061 TSNO
KGKJ 151553Z AUTO VRB04KT 10SM CLR 24/06 A3021 RMK AO2 SLP223 T02440061
KBBW 151553Z AUTO 03008KT 10SM CLR 29/22 A3008 RMK AO2 SLP156 T02940222
KBMG 151553Z 15006KT 10SM FEW036 BKN075 28/17 A3017 RMK AO2 SLP210 T02830172
KHBG 151553Z AUTO 28003KT 10SM SCT031 29/22 A3012 RMK AO2 SLP197 T02940222
KTYR 151553Z 00000KT 10SM CLR 31/22 A3010 RMK AO2 SLP183 T03060217
KGMU 151553Z 13006KT 10SM CLR 31/18 A3017 RMK AO2 SLP204 T03110178
KCRE 151553Z 25004KT 10SM BKN039 BKN060 BKN110 24/23 A3015 RMK AO1 RAE53 SLP209 P0001 T02440228
KEMP 151553Z AUTO 17015G21KT 10SM -RA CLR 29/20 A3002 RMK AO2 RAE18B43 SLP152 P0000 T02890200
KICT 151553Z 18010KT 10SM FEW120 SCT170 BKN220 OVC250 32/20 A3003 RMK AO2 SLP150 T03170200
TIST 151553Z 10012KT 10SM FEW032 SCT042 32/24 A3001 RMK AO2 RAB14E24 SLP164 P0000 T03170239
KOSH 151553Z 14007KT 10SM BKN009 18/17 A3004 RMK AO2 RAE31 CIG 005V011 SLP167 P0003 T01830172
KVEL 151553Z AUTO 00000KT 10SM OVC110 22/16 A3032 RMK AO2 SLP198 T02170161
KBKB 151554Z AUTO VRB03KT 10SM FEW021 29/23 A3007 RMK AO2 RAB21E37 SLP209 T02940228 PNO $
KMVL 151554Z AUTO VRB04KT 10SM BKN048 BKN060 24/13 A3016 RMK AO2 SLP212 T02390128
KAKH 151554Z AUTO 00000KT 10SM CLR 30/21 A3015 RMK AO2 SLP202 T03000211
KAKQ 151554Z AUTO VRB03KT 10SM CLR 29/22 A3011 RMK AO2 SLP196 T02890222
KAVL 151554Z 32008KT 260V340 10SM FEW044 27/16 A3022 RMK AO2 SLP207 T02670161
KCEU 151554Z AUTO 15004KT 10SM CLR 29/19 A3015 RMK AO2 SLP199 T02890189
KCOU 151554Z 19008KT 10SM CLR 28/19 A3008 RMK AO2 RAB15E28 SLP177 P0000 T02780194
KDDH 151554Z AUTO 00000KT 10SM CLR 26/11 A3018 RMK AO2 SLP215 T02560111
KLNK 151554Z 34009KT 300V010 10SM CLR 32/23 A2995 RMK AO2 SLP126 T03220228
KMKC 151554Z 19009KT 10SM CLR 30/21 A2999 RMK AO2 SLP147 T03000211
KORH 151554Z 33006KT 10SM CLR 24/09 A3018 RMK AO2 SLP214 T02390089
KRIC 151554Z 10004KT 10SM -RA SCT046 BKN060 BKN160 27/21 A3013 RMK AO2 RAB39 SLP207 P0000 T02670211
KUIN 151554Z AUTO 18009KT 10SM FEW049 SCT080 BKN110 22/19 A3003 RMK AO2 RAE38 SLP165 P0002 T02220189
KWAL 151554Z 09006KT 10SM FEW030 SCT060 BKN090 OVC250 28/21 A3013 RMK AO2 SLP201 T02780211
KEUG 151554Z 22004KT 10SM SCT015 16/11 A3012 RMK AO2 SLP199 T01610111
KEFD 151554Z 17004KT 10SM BKN033 30/22 A3006
KGED 151554Z AUTO 12004KT 10SM BKN080 27/20 A3014 RMK AO2 SLP204 T02720200
KCRW 151554Z 04003KT 10SM SCT030 SCT060 27/19 A3017 RMK AO2 SLP208 T02670189
KLEX 151554Z 32005KT 10SM CLR 29/14 A3018 RMK AO2 SLP210 T02940139 $
KPLN 151554Z AUTO 00000KT 10SM CLR 22/12 A3014 RMK AO2 SLP208 T02220122
KAPN 151554Z AUTO 09005KT 10SM CLR 23/15 A3016 RMK AO2 SLP212 T02330150
KLWT 151554Z AUTO 10004KT 10SM CLR 26/13 A3008 RMK AO2 SLP140 T02610128
KOLM 151554Z 21008KT 10SM FEW022 16/11 A3009 RMK AO2 SLP189 T01560111
KRKS 151554Z AUTO 13007KT 10SM -RA OVC090 18/13 A3039 RMK AO2 SLP206 P0000 T01830128
KUZA 151554Z AUTO 13003KT 10SM SCT037 29/21 A3015 RMK AO2 SLP195 T02940211
KLYH 151554Z 08005KT 10SM CLR 28/18 A3017 RMK AO2 SLP206 T02830183
KPSF 151554Z AUTO 00000KT 10SM SCT049 23/11 A3018 RMK AO2 SLP199 T02330111
KIZG 151554Z AUTO 03007KT 10SM FEW065 26/08 A3012 RMK AO2 SLP198 T02610078
KBTV 151554Z VRB03KT 10SM FEW060 25/11 A3015 RMK AO2 SLP209 T02500106
KTAD 151554Z AUTO VRB03KT 10SM CLR 29/10 A3030 RMK AO2 SLP162 T02940100
KJAN 151554Z 21003KT 10SM FEW050 30/22 A3012 RMK AO2 SLP193 T03000222
KRSP 151554Z AUTO VRB04KT CLR 24/14 A3022 RMK AO2 SLP225 T02390139 $
KROA 151554Z 00000KT 10SM SCT070 28/16 A3020 RMK AO2 SLP212 T02830161
KPHF 151554Z 08004KT 10SM CLR 29/22 A3011 RMK AO2 SLP197 T02890222
KOLS 151554Z AUTO 20005KT 10SM CLR 29/16 A3014 RMK AO2 SLP134 T02940161
KCAR 151554Z AUTO 33006KT 10SM CLR 23/12 A3002 RMK AO2 SLP167 T02280117
PHMK 151554Z 03008KT 10SM BKN041 23/19 A3008 RMK AO2 RAE11 SLP186 P0000 T02330194
KBWI 151554Z 00000KT 10SM FEW050 SCT250 30/18 A3012 RMK AO2 SLP200 T03000178
KSBY 151554Z 08006KT 10SM FEW085 BKN120 27/19 A3013 RMK AO2 SLP205 T02670189
KVSF 151554Z AUTO VRB04KT 10SM BKN065 25/11 A3016 RMK AO2 SLP211 T02500111
KMEM 151554Z 00000KT 10SM FEW050 34/18 A3013 RMK AO2 SLP196 T03440183
KNAK 151554Z AUTO 36004KT 10SM CLR 28/20 A3013 RMK AO2 SLP203 T02780200
KCOS 151554Z 00000KT 10SM SCT130 SCT200 30/08 A3035 RMK AO2 SLP167 T03000083
KJST 151554Z AUTO VRB04KT 10SM CLR 23/08 A3023 RMK AO2 SLP222 T02280083
KRDG 151554Z 03007KT 360V090 10SM CLR 29/12 A3015 RMK AO2 SLP211 T02890117 $
KOFP 151554Z AUTO 00000KT 10SM OVC050 28/22 A3015 RMK AO2 SLP206 T02780217
PAKN 151554Z 19011KT 2SM OVC005 09/09 A2982 BR
KALO 151554Z 14017G23KT 10SM CLR 26/21 A2996 RMK AO2 SLP139 T02560206
KDSM 151554Z 19008G18KT 10SM FEW120 FEW250 31/19 A2990 RMK AO2 SLP114 T03060194
KISW 151554Z AUTO 06004KT 10SM OVC011 17/14 A3011 RMK AO2 SLP194 T01720144
KMFI 151554Z AUTO 10004KT 10SM OVC009 17/14 A3010 RMK AO2 SLP191 T01670144
KINL 151554Z AUTO 10SM CLR 24/17 A3004 RMK AO2 SLP172 T02390167
KRFD 151554Z 17007KT 2 1/2SM -RA BR SCT005 BKN100 OVC120 19/18 A3013 RMK AO2 SFC VIS 3 PRESFR SLP200 P0014 T01940183
KRST 151554Z 14017KT 10SM FEW050 23/19 A3002 RMK AO2 SLP158 T02330189
KPIA 151554Z 05007KT 10SM BKN110 21/20 A3011 RMK AO2 RAE35 SLP193 P0004 T02110200
KSET 151554Z AUTO 08007KT 10SM CLR 28/17 A3010 RMK AO2 SLP187 T02780172
KAKR 151554Z AUTO 03006KT 10SM CLR 26/09 A3020 RMK AO2 SLP221 T02610094
KSUS 151554Z 23009KT 10SM CLR 31/18 A3007 RMK AO2 SLP174 T03060183
KTQE 151554Z AUTO 35006KT 10SM CLR 31/22 A2990 RMK AO2 SLP111 T03110222
KDEC 151554Z 00000KT 10SM SCT095 24/22 A3015 RMK AO2 SLP203 T02390222
KIND 151554Z 18004KT 10SM BKN070 27/14 A3017 RMK AO2 SLP210 T02670144
KSBN 151554Z 35004KT 4SM -RA BKN060 OVC075 22/19 A3017 RMK AO2 RAB40 SLP211 P0002 T02220189
KBOS 151554Z 12010KT 10SM FEW060 FEW250 25/12 A3014 RMK AO2 SLP205 T02500122
KLWM 151554Z VRB04KT 10SM CLR 27/10 A3015 RMK AO2 SLP209 T02670100
KPNE 151554Z 04004KT 10SM SCT065 30/14 A3015 RMK AO2 SLP210 T03000144
KDYL 151554Z AUTO 00000KT 10SM CLR 27/13 A3015 RMK AO2 SLP205 T02720133
KAVP 151554Z VRB03KT 7SM CLR 27/10 A3018 RMK AO2 SLP212 T02670100
KPHL 151554Z 09009KT 10SM SCT045 SCT085 SCT200 SCT260 29/16 A3014 RMK AO2 SLP206 T02940156
PHOG 151554Z 04007KT 10SM FEW020 SCT040 24/19 A3005 RMK AO2 SLP182 T02390194
KSLC 151554Z 17009KT 5SM -RA FEW045 BKN075 OVC095 22/17 A3024 RMK AO2 SLP181 P0004 T02170172 $
KAPC 151554Z 27006KT 10SM OVC008 16/12 A3000 RMK AO2 SLP152 T01560122
KAUW 151554Z AUTO 13008KT 10SM OVC010 18/15 A3007 RMK AO2 CIG 008V011 SLP184 T01830150
KEVV 151554Z VRB03KT 10SM BKN090 30/19 A3015 RMK AO2 SLP203 T03000189
KLAF 151554Z 21003KT 10SM -RA FEW060 OVC095 23/19 A3016 RMK AO2 RAB46 SLP209 P0000 T02330189
KMRY 151554Z 26007KT 10SM OVC007 15/11 A3005 RMK AO2 SLP188 T01500111
KHWD 151554Z 29003KT 9SM BKN013 16/12 A3002 RMK AO2 SLP175 T01610117
KBFL 151554Z VRB03KT 7SM CLR 28/15 A2995 RMK AO2 SLP135 T02830150
KRBL 151554Z AUTO 13004KT 10SM CLR 26/11 A2996 RMK AO2 SLP142 T02560111
KIPT 151554Z VRB04KT 10SM CLR 27/10 A3015 RMK AO2 SLP208 T02720100
KWLD 151554Z AUTO 19012KT 10SM CLR 34/19 A3005 RMK AO2 SLP160 T03390189
KAAO 151554Z AUTO 18010KT 10SM CLR 31/20 A3004 RMK AO2 SLP154 T03060200
PGUM 151554Z 11007KT 10SM -RA FEW018 FEW028 SCT035 28/26 A2987 RMK AO2 RAB54 SLP108 P0000 T02780256
KIMT 151554Z AUTO 20004KT 10SM CLR 19/13 A3011 RMK AO2 SLP194 T01890128
KFWA 151554Z 16008KT 10SM FEW085 BKN240 26/17 A3018 RMK AO2 SLP214 T02610167
KMOT 151554Z 11005KT 10SM OVC006 23/20 A3005 RMK AO2 SLP168 T02330200
PGSN 151554Z 12007KT 10SM FEW018 SCT035 28/24 A2988 RMK AO2 SLP140 T02780244 $
K2V6 151554Z AUTO 05007KT 10SM CLR 28/M02 A3020 RMK AO2
KBUY 151554Z AUTO 01006KT 10SM CLR 29/21 A3014 RMK AO2 SLP200 T02890206
KECG 151554Z 18005KT 10SM SCT036 SCT095 OVC110 26/23 A3014 RMK AO2 RAE06 SLP206 P0000 T02560233
KGSO 151554Z VRB05KT 10SM FEW030 SCT075 SCT250 28/20 A3015 RMK AO2 SLP197 TCU DSNT S T02830200
KEWN 151554Z 00000KT 10SM -RA BKN110 23/22 A3016 RMK AO2 SLP213 P0015 T02280222
KINT 151554Z 01004KT 10SM CLR 29/19 A3017 RMK AO2 SLP203 T02940189
KVTA 151554Z AUTO VRB04KT 10SM CLR 27/13 A3019 RMK AO2 SLP218 T02670133
KILN 151554Z AUTO VRB04KT 7SM CLR 27/16 A3019 RMK AO2 SLP215 T02670161
KBUF 151554Z 21011KT 10SM FEW037 FEW080 FEW270 26/13 A3018 RMK AO2 SLP218 MDT CU DSNT W-N T02560128
KDSV 151554Z AUTO VRB03KT 10SM CLR 26/09 A3018 RMK AO2 SLP226 T02610089
KMTP 151554Z AUTO VRB04KT 26/14 A3017 RMK AO1 SLP215 T02560144
KMGJ 151554Z AUTO 11007KT 10SM CLR 26/12 A3017 RMK AO2 SLP212 T02610122
KFZY 151554Z AUTO 35004KT 10SM FEW038 25/14 A3018 RMK AO2 SLP218 T02500144
KROC 151554Z VRB04KT 10SM FEW060 26/12 A3018 RMK AO2 SLP221 T02560122
KSYR 151554Z VRB03KT 10SM FEW040 26/11 A3018 RMK AO2 SLP214 T02610106
K12N 151554Z AUTO 00000KT 28/12 A3018 RMK AO1 SLP211 T02780122
KACY 151554Z 10010KT 10SM CLR 28/18 A3014 RMK AO2 SLP206 T02830178
KMIV 151554Z AUTO 10SM CLR 28/21 A3013 RMK AO2 SLP202 T02830206
KVAY 151554Z AUTO VRB05KT 10SM FEW044 30/14 A3014 RMK AO2 SLP207 T03000144
KGCN 151554Z 00000KT 10SM BKN100 22/12 A3040 RMK AO2 SLP188 T02170117
KFFZ 151554Z 29006KT 10SM CLR 34/18 A2995 RMK AO2 SLP114 T03390178
KPTW 151554Z AUTO 02004KT 10SM CLR 28/11 A3017 RMK AO2 SLP212 T02780111
KGCK 151554Z 23013KT 10SM CLR 34/14 A3006 RMK AO2 SLP134 T03440139
K9V9 151555Z AUTO 02010KT 10SM CLR A3003 RMK AO2
KVKS 151555Z AUTO 22005KT 10SM CLR 28/26 A3010 RMK A01
KC62 151555Z AUTO 19009KT 10SM CLR 25/16 A3019 RMK AO2 T02510164
K27K 151555Z AUTO 34003KT 10SM CLR 27/15 A3018 RMK AO1
KSUW 151555Z AUTO 06005KT 10SM CLR 18/12 A3006 RMK AO2 T01840120
KGWW 151555Z AUTO 17005KT 10SM SCT012 SCT031 SCT100 26/24 A3014 RMK AO2 T02550235
KCNW 151555Z 00000KT 10SM SKC 30/21 A3009
KGNT 151555Z AUTO 24005KT 10SM 20/14 A3043 RMK AO2 T01990144
KSPA 151555Z AUTO 00000KT 10SM CLR 30/17 A3016 RMK AO2
KPTB 151555Z AUTO 00000KT 10SM SCT070 BKN100 OVC120 27/22 A3013 RMK AO2 T02680215
KPRO 151555Z AUTO 23009G14KT 10SM CLR 31/20 A2990 RMK AO2 T03100199
KETB 151555Z AUTO 16006KT 10SM -RA SCT010 BKN032 OVC065 14/14 A3006 RMK AO2
KPBH 151555Z AUTO 21003KT 10SM OVC007 17/17 A3009 RMK AO2 T01650165
KDLL 151555Z AUTO 00000KT 10SM SCT020 SCT038 BKN120 17/17 A3006 RMK AO2 LTG DSNT W P0001 T01680165
KY51 151555Z AUTO 19008KT 1/4SM OVC010 18/18 A3007 RMK AO1 P0041 T01830183
KINF 151555Z AUTO 00000KT 7SM CLR 30/22 A3016 RMK AO2
KANQ 151555Z AUTO 17009KT 10SM CLR 25/14 A3018 RMK AO2
KM25 151555Z AUTO 24007KT 10SM CLR 31/19 A3016 RMK AO2 PWINO
KMCX 151555Z AUTO 00000KT 10SM -RA BKN070 OVC075 24/16 A3017 RMK AO2 T02350161
KW31 151555Z AUTO 35006KT 10SM OVC060 28/21 A3013 RMK AO1 T02770206
KFRR 151555Z AUTO 00000KT 10SM CLR 26/17 A3017 RMK AO1
KW96 151555Z AUTO 11005KT 10SM SCT049 BKN070 29/21 A3012 RMK AO1 T02850208
KHFY 151555Z AUTO 11005KT 10SM BKN070 OVC080 27/18 A3018 RMK AO2 T02730179
KRID 151555Z AUTO 17004KT 10SM CLR 25/19 A3020 RMK AO2
K4R5 151555Z AUTO 13004KT 10SM SCT080 OVC100 20/17 A3005 RMK AO2 T02030167
KBRY 151555Z AUTO 00000KT 10SM CLR 27/16 A3017 RMK AO1
K77S 151555Z AUTO 23005KT 10SM SCT014 15/12 A3011 RMK A01
KRSN 151555Z AUTO 00000KT 10SM CLR 31/21 A3014 RMK AO2 T03120207
KDRI 151555Z AUTO 19003KT SCT017 28/24 A3012 RMK AO2 T02780240 PWINO
KACP 151555Z AUTO 00000KT 10SM SCT022 SCT028 SCT033 31/22 A3010 RMK AO2 LTG DSNT SE
KIER 151555Z AUTO 00000KT 10SM SCT027 31/24 A3009 RMK AO2 T03070237
KMNE 151555Z AUTO 00000KT 10SM CLR 30/24 A3011 RMK AO2 T03010237
KBVU 151555Z AUTO RMK AO2 PNO PWINO TSNO
KCXP 151555Z AUTO 00000KT 10SM CLR 26/05 A3020 RMK AO2
OPFA 151555Z 36004KT 5000 FU FEW100 28/24 Q1003 NOSIG
OPLA 151555Z 34003KT 5000 FU SCT040 BKN100 27/23 Q1002 NOSIG RMK QFE975 A29.61
KAWG 151555Z AUTO 14009G14KT 10SM FEW110 22/22 A3000 RMK AO2 P0004
KCNC 151555Z AUTO 19013G20KT 10SM CLR 28/22 A2992 RMK AO2
KCSQ 151555Z AUTO 23018G24KT 10SM CLR 31/21 A2991 RMK AO2
KFSW 151555Z AUTO 00000KT 7SM -RA OVC002 23/22 A3004 RMK AO2 P0001
PATC 151555Z AUTO 02025KT 10SM BKN009 06/04 A2979 RMK AO2 PK WND 02029/1521 SLP089 T00570037
KEOK 151555Z AUTO 16007KT 9SM FEW047 SCT070 BKN120 22/21 A3001 RMK A01 P0001
KCKM 151555Z AUTO 00000KT 10SM CLR 30/25 A3012 RMK A01
KLNC 151555Z AUTO 10005KT 10SM CLR 32/20 A3010 RMK AO2 T03170199
KMPZ 151555Z AUTO 13007KT 10SM -RA SCT006 SCT011 BKN070 22/22 A3006 RMK AO2 P0009
NZCM 151555Z AUTO 11008KT 7000 BKN019 M30/M36 A2882 RMK AO2 SNE1531 BKN V SCT SLP767 T13011356 $
KAEJ 151555Z AUTO 34003KT 7SM 19/08 A3052 RMK AO2 T01940082
KBXA 151555Z AUTO 00000KT 10SM SCT029 BKN034 31/23 A3012 RMK AO2 T03120227
K1A6 151555Z AUTO 02004KT 10SM CLR 29/18 A3018 RMK AO2 T02870176
KUCY 151555Z AUTO 21005KT 8SM CLR 32/20 A3013 RMK A01
KHII 151555Z AUTO 32009KT 10SM CLR 35/16 A2994 RMK AO2
KACQ 151555Z AUTO 13012KT 10SM SCT016 25/21 A3001 RMK AO2
KSGS 151555Z AUTO 13003KT 10SM SCT034 24/19 A3002 RMK AO2 T02350185
KLMO 151555Z AUTO 00000KT 10SM CLR 30/10 A3028 RMK AO2 T03000096
K0E0 151555Z AUTO 00000KT 10SM CLR 26/09 A3039 RMK AO2 T02600089 TSNO
KACB 151555Z AUTO 26004KT 10SM CLR 24/14 A3013 RMK AO2 T02400140
KANJ 151555Z AUTO 12004KT 10SM CLR 22/13 A3014 RMK AO2 SLP206 T02170128
KAQO 151555Z AUTO 00000KT 10SM CLR 28/20 A3010 RMK AO2
KARM 151555Z AUTO 17006KT 10SM CLR 30/23 A3007 RMK AO2 LTG DSNT SW T02990228
KAST 151555Z AUTO 11008KT 10SM OVC023 17/12 A3008 RMK AO2 SLP186 T01670117
KAUN 151555Z AUTO 11005KT 10SM CLR 28/07 A3000 RMK A01
KBGE 151555Z AUTO 05005KT 10SM CLR 26/23 A3013 RMK AO2 T02610227
KBVI 151555Z AUTO 13004KT 10SM CLR 26/10 A3020 RMK AO2 T02610096
KCCU 151555Z AUTO 00000KT 10SM SCT050 OVC110 15/06 A3084 RMK AO2
KCPT 151555Z AUTO VRB03KT 10SM CLR 32/19 A3010 RMK A01
KDUX 151555Z AUTO 23010G14KT 10SM CLR 33/12 A3018 RMK AO2 T03260121
KF05 151555Z AUTO 21007KT 10SM CLR 32/15 A3010 RMK AO2 T03210152
KFQD 151555Z AUTO 00000KT 10SM CLR 29/18 A3017 RMK AO2
KOMH 151555Z AUTO 03005KT 10SM CLR 27/17 A3017 RMK AO2
KOSA 151555Z AUTO 13006KT 10SM CLR 32/21 A3010 RMK AO2 T03150213
KPYX 151555Z AUTO 24015G18KT 10SM CLR 35/11 A3011 RMK AO2 T03450111
KRHP 151555Z AUTO 24003KT 10SM SCT047 SCT055 28/19 A3020 RMK AO2 T02780190
KRYW 151555Z AUTO 00000KT 10SM SCT035 32/20 A3010 RMK AO2 T03220203
KSOW 151555Z AUTO 05005KT 10SM CLR 27/12 A3037 RMK AO2
KJVW 151555Z AUTO 00000KT 10SM CLR 30/30 A3011 RMK AO2
KBCB 151555Z AUTO 00000KT 10SM SCT038 BKN050 26/16 A3025 RMK AO2 T02560159
KEMV 151555Z AUTO 00000KT 4SM HZ SCT021 28/22 A3013 RMK AO2 T02840222
KFKN 151555Z AUTO 00000KT 10SM SCT110 28/21 A3012 RMK AO2 T02800213
KAVC 151555Z AUTO 20005KT 10SM SCT025 28/20 A3019 RMK AO2 T02780202
KJYO 151555Z AUTO 00000KT 10SM CLR 27/18 A3017 RMK AO2
KLNP 151555Z AUTO 35003KT 10SM SCT036 SCT042 BKN060 24/16 A3026 RMK AO2
KBQX 151555Z AUTO 26020G28KT 1/4SM FG 25/24 A3009 RMK A01
KVAF 151555Z AUTO 15010KT 10SM CLR 32/23 A3009 RMK A01
KHHV 151555Z AUTO 18011KT 10SM SCT023 29/24 A3005 RMK A01
KPVJ 151555Z AUTO 21007KT 10SM CLR 33/16 A3010 RMK AO2 T03250164
KMKJ 151555Z AUTO 00000KT 10SM SCT044 BKN055 BKN070 28/15 A3026 RMK AO2 T02840152
KOKV 151555Z AUTO 07003KT 10SM CLR 26/15 A3017 RMK AO2
KCHK 151555Z AUTO 18009KT 10SM CLR 32/18 A3008 RMK AO2 T03210181
KRKR 151555Z AUTO 00000KT 10SM CLR 33/20 A3010 RMK AO2
KW22 151555Z AUTO 00000KT 10SM CLR 31/12 A3020 RMK AO2
KERV 151555Z AUTO 36004KT 10SM CLR 28/21 A3012 RMK AO2 T02840205
KGVT 151555Z AUTO 00000KT 10SM CLR 32/19 A3010 RMK AO2 TSNO T03170187
KCCO 151555Z AUTO 02003KT 10SM CLR 30/17 A3017 RMK AO2 T02960165
KLOM 151555Z AUTO 08003KT 10SM SCT060 SCT080 BKN100 26/14 A3016 RMK AO2 T02640138
KBKS 151555Z AUTO 16008KT 10SM CLR 31/23 A3004 RMK AO2 SLP133 T03110225 $
KGLE 151555Z AUTO 16007KT 10SM CLR 32/18 A3012 RMK AO2 T03240183
KBPG 151555Z AUTO 21007KT 10SM CLR 28/15 A3017 RMK AO2 T02820155
KJSO 151555Z AUTO 00000KT 10SM BKN019 OVC026 27/23 A3012 RMK AO2 T02730225 TSNO
KLHB 151555Z AUTO 00000KT 10SM CLR 31/22 A3008 RMK AO2 T03090219
KBYY 151555Z AUTO 15009KT 7SM RA SCT025 SCT045 BKN065 24/23 A3009 RMK AO2 T02480231
KEBG 151555Z AUTO 15012G16KT 10SM SCT032 BKN100 32/23 A3005 RMK AO2 T03180234 PWINO
KINJ 151555Z AUTO 00000KT 10SM CLR 31/21 A3009 RMK AO2 T03100205
KJWY 151555Z AUTO 17003KT 10SM CLR 31/20 A3011 RMK AO2 T03120203
KLUD 151555Z AUTO 17007KT 10SM CLR 32/18 A3010 RMK AO2 T03200183
KSNK 151555Z AUTO 22004KT 10SM CLR 28/14 A3016 RMK AO2 T02790137
KPSN 151555Z AUTO 12005KT 10SM FEW032 FEW038 29/22 A3008 RMK AO2
KPEQ 151555Z AUTO 12004KT 10SM CLR 31/14 A3013 RMK AO2 T03080139
KGYB 151555Z AUTO 00000KT 10SM SCT028 SCT047 30/21 A3007 RMK AO2 T03040213
KJXI 151555Z AUTO 06004KT 10SM CLR 31/19 A3010 RMK AO2 T03090185
KJDD 151555Z AUTO 12003KT CLR 32/20 A3010 RMK AO2 PWINO
KPKV 151555Z AUTO 00000KT 7SM SCT006 BKN038 OVC055 25/23 A3010 RMK AO2 P0002 T02480230
KSLR 151555Z AUTO 12006KT 10SM CLR 32/19 A3012 RMK AO2 T03240188
KRAS 151555Z AUTO 16006KT 10SM SCT060 OVC090 29/24 A3008 RMK AO2 LTG DSNT N T02860245
KORG 151555Z AUTO 32004KT 10SM VCTS BKN022 BKN033 OVC100 30/25 A3011 RMK AO2 LTG DSNT SE AND S T02970247
KHRX 151555Z AUTO 22006KT 10SM CLR 32/12 A3021 RMK AO2 T03210119
KCWC 151555Z AUTO 19007KT 150V210 10SM CLR 32/16 A3011 RMK AO2 T03220161
KMNZ 151555Z AUTO 00000KT 10SM CLR 31/18 A3013 RMK AO2 T03110181
KECU 151555Z AUTO 13005KT 10SM CLR 27/20 A3020 RMK AO2
KMDD 151555Z AUTO 17009KT 10SM 29/15 A3017 RMK AO2 T02880145
KBKD 151555Z AUTO 18007KT 5SM HZ CLR 32/17 A3011 RMK AO2 T03200171
K0F2 151555Z AUTO 18005KT 10SM CLR 32/18 A3011 RMK AO2 T03190182
KDZB 151555Z AUTO 00000KT 10SM CLR 29/20 A3010 RMK AO2 LTG DSNT SE T02910204
KFTN 151555Z AUTO VRB03KT 10SM CLR 29/23 A3008 RMK A01
KEDC 151555Z AUTO 13005KT 10SM FEW034 SCT042 31/20 A3006 RMK AO2
KLRU 151555Z AUTO 11006KT 10SM CLR 31/06 A3024 RMK AO2 T03130061
KATS 151555Z AUTO 15006KT 10SM CLR 29/15 A3019 RMK AO2
KALM 151555Z AUTO 26006KT 10SM CLR 31/08 A3021 RMK AO2
KLAM 151555Z AUTO 03005KT 10SM CLR 23/12 A3046 RMK AO2 T02260121
K3I2 151555Z AUTO 00000KT 7SM CLR 28/18 A3018 RMK AO2 T02820178
KGCD 151555Z AUTO 00000KT 10SM CLR 22/04 A3011 RMK AO2 LTG DSNT N T02170037
KCJR 151555Z AUTO 34005KT 10SM CLR 28/16 A3017 RMK AO2 T02820163
KSJX 151555Z AUTO 00000KT 10SM CLR 21/12 A3014 RMK AO2 T02100123
KSLH 151555Z AUTO 14003KT 10SM CLR 22/12 A3013 RMK AO2
KCAD 151555Z AUTO 18006KT 10SM SCT043 24/14 A3013 RMK AO2 T02350139
KCVX 151555Z AUTO 00000KT 10SM CLR 22/13 A3013 RMK AO2 T02230129
KIRS 151555Z AUTO 21008KT 10SM SCT075 24/15 A3016 RMK AO2 T02420153
KOEB 151555Z AUTO 17006KT 10SM CLR 25/14 A3018 RMK AO2 T02460140
KOZW 151555Z AUTO 20010G14KT 10SM CLR 26/12 A3019 RMK AO2 T02570124
KRMY 151555Z AUTO 16006KT 10SM CLR 24/14 A3018 RMK AO2 T02400136
KRQB 151555Z AUTO 24008KT 10SM SCT039 26/16 A3013 RMK AO2 T02560155
KTEW 151555Z AUTO 18004KT 10SM SCT050 BKN060 25/14 A3018 RMK AO2 T02500137
KTTF 151555Z AUTO 17010G14KT 10SM CLR 26/14 A3018 RMK AO2 T02550139
KVLL 151555Z AUTO 21008KT 10SM CLR 27/08 A3020 RMK AO2 T02660082
KHAI 151555Z AUTO 19007KT 10SM BKN075 24/17 A3017 RMK AO2 T02360167
KDRM 151555Z AUTO 16003KT 10SM CLR 21/07 A3016 RMK AO2 T02110069
KFFX 151555Z AUTO 24004KT 10SM BKN080 22/15 A3014 RMK AO2 T02220154
KAMN 151555Z AUTO 19013KT 10SM CLR 27/11 A3015 RMK AO2 T02710110
KBAX 151555Z AUTO 19007KT 10SM CLR 25/13 A3017 RMK AO2 T02530127
KHYX 151555Z AUTO 21008KT 10SM SCT065 27/14 A3016 RMK AO2 T02650136
KP58 151555Z AUTO 11014KT 22/M02 A3016 RMK AO1 SLP209 T02171022
KRNP 151555Z AUTO 20010KT 10SM SCT060 SCT070 26/13 A3017 RMK AO2 T02610126
KFKS 151555Z AUTO 24003KT 10SM CLR 20/12 A3013 RMK AO2 T02010120
KPTT 151555Z AUTO 23015G20KT 10SM CLR 36/16 A3004 RMK AO2 T03550158
KIYA 151555Z AUTO 00000KT 10SM SCT027 31/22 A3010 RMK AO2 T03090220
KVDI 151555Z AUTO 27003KT 10SM BKN014 27/23 A3016 RMK AO2
K04V 151555Z AUTO 14006KT 10SM 21/10 A3052 RMK AO2 PWINO
KTME 151555Z AUTO 29004KT 8SM FEW033 32/23 A3008 RMK AO2
KOKM 151555Z AUTO 24003KT 10SM CLR 33/19 A3010 RMK AO2 T03260190
KTBR 151555Z AUTO 00000KT 10SM SCT014 27/22 A3015 RMK AO2 T02670220
KIIY 151555Z AUTO 00000KT 10SM CLR 29/20 A3015 RMK AO2 T02920202
KHQU 151555Z AUTO 00000KT 10SM SCT030 SCT036 31/21 A3014 RMK AO2 T03060206
KJYL 151555Z AUTO 00000KT 10SM BKN013 28/23 A3016 RMK AO2 T02750232
KTMA 151555Z AUTO 00000KT 10SM -DZ 26/23 A3016 RMK AO2 T02580229
KDZJ 151555Z AUTO 00000KT 10SM CLR 27/18 A3022 RMK AO2 T02740180
KLIC 151555Z AUTO 09005KT 10SM CLR 31/10 A3028 RMK AO2 SLP159 T03060100
KSBS 151555Z AUTO 28003KT 10SM SCT110 21/13 A3039 RMK AO1 T02100125
KDUC 151555Z AUTO 17009KT 10SM CLR 32/18 A3012 RMK AO2 T03160177
KDUA 151555Z AUTO 18003KT 10SM 33/17 A3012 RMK AO2
K2J9 151555Z AUTO 12005G10KT 10SM CLR 27/25 A3014 RMK AO2
PASV 151555Z AUTO VRB06KT 3SM -SHRA BR BKN007 09/08 A2973 RMK AO2 RAB1255E1515DZB1515E1517SHRAB1517 SLP065 P0001 T00850078 $
PATL 151555Z AUTO 00000KT 2 1/2SM -RA BKN002 12/11 A2966 RMK AO2 RAB1355 SLP038 P0006 T01170110 TSNO $
KPUJ 151555Z AUTO 00000KT CLR 28/18 A3018 RMK AO2 PWINO
KPSO 151555Z AUTO 03009KT 10SM CLR 23/08 A3050 RMK AO2 T02340084
KEIK 151555Z AUTO 00000KT 10SM CLR 28/09 A3027 RMK AO2 T02820088 PWINO
KBDU 151555Z AUTO 04005KT 10SM CLR 28/08 A3028 RMK AO2
K4BM 151555Z AUTO 18005KT 10SM SCT120 13/04 A3080 RMK AO2
K33V 151555Z AUTO 12005KT 10SM SCT085 20/11 A3051 RMK AO1
KMDQ 151555Z AUTO 00000KT 10SM CLR 30/19 A3018 RMK A02 T03030189
K4A9 151555Z AUTO 35004KT 10SM CLR 30/17 A3015 RMK AO2 T03030167
KALX 151555Z AUTO 00000KT 10SM CLR 29/22 A3015 RMK AO2 T02850217
KBEA 151555Z AUTO 09004KT 10SM BKN040 BKN046 OVC065 26/24 A3006 RMK AO2 LTG DSNT NE T02580236 PWINO
K0VG 151555Z AUTO VRB03KT 10SM FEW060 28/16 A3019 RMK AO2
KEAT 151555Z AUTO 29009KT 10SM CLR 23/04 A2995 RMK AO2 SLP131 T02330044
KSEZ 151555Z AUTO 00000KT 10SM CLR 28/13 A3026 RMK AO2
KPLU 151555Z AUTO VRB04KT 10SM OVC019 17/12 A3010 RMK AO2
KRFI 151555Z AUTO 00000KT 10SM CLR 31/18 A3012 RMK AO2 T03120183
KWWR 151555Z AUTO 20010G15KT 10SM CLR 33/15 A3011 RMK AO2
KRNO 151555Z 00000KT 10SM CLR 25/03 A3018 RMK AO2 SLP156 T02500033
KTEX 151555Z AUTO 16005KT 10SM SCT070 21/07 A3061 RMK AO2
KSTF 151555Z AUTO 00000KT 10SM FEW030 30/23 A3012 RMK AO2
KVTP 151555Z AUTO 26009KT 10SM SCT110 17/00 A3068 RMK AO2
K8A0 151555Z AUTO 00000KT 10SM CLR 31/17 A3017 RMK AO2
KSHD 151555Z AUTO 04005KT 10SM CLR 26/16 A3021 RMK AO2 T02640164
KJGG 151555Z AUTO 14004KT 10SM CLR 29/24 A3013 RMK AO2
KEZF 151555Z AUTO 00000KT 10SM SCT065 29/17 A3012 RMK AO2 T02880168
KTSP 151555Z AUTO 00000KT 9SM CLR 27/09 A3016 RMK AO2
KJWG 151555Z AUTO 19009G15KT 10SM CLR 33/17 A3011 RMK AO2 T03300171
KNKX 151555Z VRB03KT 10SM SCT012 21/16 A2996 RMK AO2 SLP142 T02110156
KSCK 151555Z VRB04KT 10SM CLR 23/11 A2995 RMK AO2 SLP141 T02330106
KO69 151555Z AUTO 00000KT 10SM CLR 15/11 A3002 RMK A01
KMCC 151555Z AUTO 16007KT 10SM CLR 20/12 A2995 RMK AO2
K2V5 151555Z AUTO 07008KT 10SM CLR 32/12 A3017 RMK AO2
KIZA 151555Z AUTO 00000KT 5SM HZ CLR 18/13 A2998 RMK AO2
KPVF 151555Z AUTO 17003KT 10SM CLR 28/05 A3007 RMK AO1
KEDU 151555Z AUTO 10SM CLR 20/12 A2995 RMK AO1
KTQH 151555Z AUTO RMK AO2 PWINO PNO
KRMN 151555Z AUTO 00000KT 10SM CLR 29/17 A3018 RMK AO2 T02920167
KLKU 151555Z AUTO 04006KT 10SM SCT110 27/18 A3016 RMK AO2 T02740176
KMAN 151555Z AUTO 36007KT 10SM 28/08 A3001 RMK A01
KCQB 151555Z AUTO 21008KT 10SM CLR 32/18 A3011 RMK AO2 T03210185
KSNL 151555Z AUTO 20006KT 10SM CLR 31/14 A3011 RMK AO2 T03140140
KGIC 151555Z AUTO 00000KT 10SM CLR 24/10 A3005 RMK AO1
K4O4 151555Z AUTO VRB03KT 10SM CLR 32/21 A3011 RMK AO2
KCDA 151555Z AUTO 25003KT 10SM SCT060 22/10 A3018 RMK AO2 T02220098
K1P1 151555Z AUTO 28006G14KT 10SM BKN060 24/10 A3013 RMK AO2 T02410101
KHHF 151555Z AUTO 22008KT 10SM CLR 35/15 A3010 RMK AO2 T03460148
KVCV 151555Z 04004KT 10SM CLR 31/12 A3010 RMK AO2
KCPW 151555Z AUTO 20011G21KT 10SM SCT120 12/06 A3087 RMK AO2
KCLK 151555Z AUTO 20009KT 10SM CLR 31/16 A3011 RMK AO2
KAXS 151555Z AUTO 19009KT 5SM HZ CLR 33/15 A3011 RMK AO2 T03280149
KLHM 151555Z AUTO 17009KT 10SM CLR 23/10 A2995 RMK AO1
KRPH 151555Z AUTO VRB05KT 10SM CLR 32/18 A3008 RMK AO2 SLP782 T03160177 $
KCUH 151555Z AUTO 20009G14KT 10SM CLR 32/18 A3008 RMK AO2 T03230175
K11R 151555Z AUTO 10005KT 10SM SCT029 BKN038 31/22 A3007 RMK AO2 T03140223
KGOP 151555Z AUTO 10SM CLR 31/19 A3011 RMK AO2
KJAS 151555Z AUTO 22006KT 9SM BKN029 BKN034 BKN039 29/24 A3008 RMK AO2
KSEP 151555Z AUTO 00000KT 10SM CLR 33/17 A3013 RMK AO2 T03250165
KSOA 151555Z AUTO 00000KT 10SM CLR 28/19 A3018 RMK AO2
KDKR 151555Z AUTO 20004KT 9SM SCT019 BKN025 BKN031 29/24 A3009 RMK AO2
KAPY 151555Z AUTO 16008KT 10SM CLR 34/20 A3005 RMK AO2 T03350195 TSNO
KCQW 151555Z AUTO 00000KT 10SM FEW016 SCT021 28/23 A3013 RMK AO2 LTG DSNT S PWINO
KMKS 151555Z AUTO 00000KT 10SM SCT100 25/23 A3016 RMK AO2 LTG DSNT SE
KBBP 151555Z AUTO 00000KT 10SM SCT013 SCT100 27/24 A3013 RMK AO2
KHVS 151555Z AUTO 00000KT 10SM FEW080 FEW095 26/23 A3014 RMK AO2 LTG DSNT E AND SW
KEDE 151555Z AUTO 20007KT 10SM SCT008 BKN070 OVC100 26/26 A3016 RMK AO2 T02620255
KOJA 151555Z AUTO 22012KT 10SM CLR 32/17 A3010 RMK AO2 T03250173
KHAF 151555Z AUTO 34006KT 5SM BR OVC007 13/13 A3005 RMK AO2
KBPC 151555Z AUTO 26010G14KT CLR 35/12 A3012 RMK AO2 PWINO
KBKN 151555Z AUTO 18015KT 10SM CLR 34/17 A3005 RMK AO2
KGZL 151555Z AUTO 28006KT 10SM CLR 34/20 A3009 RMK AO2
KRCE 151555Z AUTO 19010G16KT 10SM CLR 32/17 A3009 RMK AO2
KWYS 151555Z AUTO 00000KT 10SM CLR 18/11 A3032 RMK AO2
K4A6 151555Z AUTO 00000KT 10SM CLR 30/21 A3016 RMK AO2
KJFX 151555Z AUTO 00000KT 10SM CLR 34/23 A3015 RMK AO2 PWINO
KCQF 151555Z AUTO RMK AO2 PWINO PNO
KMFV 151555Z AUTO 14008KT 110V170 10SM SCT085 27/19 A3012 RMK AO2 T02680191
KVJI 151555Z AUTO 27005KT 10SM BKN032 OVC041 27/19 A3022 RMK AO2 T02740189
KCDH 151555Z AUTO 31004KT 10SM SCT037 SCT048 33/25 A3010 RMK AO2
KVDF 151555Z AUTO 00000KT 10SM CLR A3014 RMK AO2 P0001
KFVX 151555Z AUTO 11005KT 10SM CLR 29/19 A3014 RMK AO2 T02870192
K1F0 151555Z AUTO 13007KT 10SM CLR 32/20 A3010 RMK AO2 T03220203
KW99 151555Z AUTO 11004KT 10SM CLR 27/16 A3019 RMK AO2 T02720157
KCAO 151555Z AUTO 25009KT 10SM CLR 33/11 A3025 RMK AO2 SLP158 T03280106
KSRR 151555Z AUTO 08004KT 10SM CLR 25/09 A3044 RMK AO2 LTG DSNT W AND NW
KSVC 151555Z AUTO 11003KT 10SM CLR 32/08 A3029 RMK AO2 T03150084
KPCM 151555Z AUTO 15007KT 10SM CLR 32/25 A3016 RMK AO2
KSNC 151555Z AUTO VRB04KT 10SM CLR 28/10 A3016 RMK AO2
KJFZ 151555Z AUTO 00000KT 10SM SCT038 SCT065 23/15 A3025 RMK AO2 T02320153
KL35 151555Z AUTO 18007KT 134V194 10SM CLR 24/07 A3037 RMK AO2
KOBE 151555Z AUTO 11008G14KT 090V150 10SM CLR 31/25 A3012 RMK AO2 LTG DSNT NE AND E
KAXX 151555Z AUTO 00000KT 10SM CLR 20/11 A3055 RMK AO2 T02040106
KDVO 151555Z AUTO 00000KT 10SM CLR 16/12 A3001 RMK AO2
KCWV 151555Z AUTO 00000KT 10SM BKN009 27/24 A3016 RMK AO2 T02680241
KFSO 151555Z AUTO 00000KT 10SM CLR 25/14 A3015 RMK AO2 T02460138
KCPK 151555Z AUTO 14005KT 10SM SCT011 BKN110 27/23 A3012 RMK AO2 LTG DSNT S T02650234
KSFQ 151555Z AUTO 16005KT 10SM BKN016 BKN110 28/24 A3014 RMK AO2 T02760237
KMTV 151555Z AUTO 03003KT 10SM BKN030 BKN035 26/20 A3019 RMK AO2 T02640204
KPSK 151555Z AUTO 08005KT 10SM SCT048 SCT060 26/17 A3024 RMK AO2 T02590172
KHLX 151555Z AUTO 00000KT 10SM SCT042 SCT050 25/13 A3024 RMK AO2 T02470129
KRWV 151555Z AUTO 12004KT 10SM SCT033 SCT039 BKN050 31/22 A3007 RMK AO2 T03130223
KSNH 151555Z AUTO 00000KT 10SM CLR 32/20 A3013 RMK A01
KCDN 151555Z AUTO 00000KT 10SM SCT014 27/23 A3015 RMK AO2
KCKI 151555Z AUTO 00000KT 10SM BKN009 BKN085 25/21 A3015 RMK AO2
KHZD 151555Z AUTO 00000KT 10SM CLR 31/20 A3014 RMK A01
KGGE 151555Z AUTO 00000KT 10SM BKN006 BKN060 OVC100 24/23 A3017 RMK AO2 LTG DSNT S
K3J7 151555Z AUTO 00000KT 10SM SCT028 27/22 A3015 RMK AO2
K3T5 151555Z AUTO 00000KT 10SM SCT031 SCT050 BKN055 30/21 A3004 RMK AO2 LTG DSNT S T03000214
KSTK 151555Z AUTO 00000KT 10SM CLR 30/13 A3019 RMK AO2
KUVA 151555Z AUTO 00000KT 10SM CLR 30/21 A3009 RMK AO2 T02990209
KLKR 151555Z AUTO 00000KT 10SM CLR 30/22 A3014 RMK AO2
KPHT 151555Z AUTO VRB06KT 10SM CLR 31/19 A3015 RMK A01
KJSV 151555Z AUTO 00000KT 10SM CLR 32/19 A3011 RMK AO2
KMAO 151555Z AUTO 00000KT 10SM SCT011 BKN100 25/22 A3014 RMK AO2
KSRE 151555Z AUTO 10SM CLR 32/17 A3011 RMK AO2
KMNI 151555Z AUTO 24003KT 10SM SCT009 24/22 A3015 RMK AO2
KNBG 151555Z 15007KT 10SM FEW015 SCT080 BKN130 BKN250 29/23 A3011 RMK AO2 SLP195 T2 SET T02940233 $
KCCA 151555Z AUTO 00000KT 8SM CLR 32/17 A3013 RMK AO2
KMQS 151555Z AUTO VRB06G16KT CLR 26/16 A3018 RMK AO2
KONM 151555Z AUTO 34005KT 10SM CLR 27/12 A3028 RMK AO2 T02710124
KAXH 151555Z AUTO 00000KT 10SM BKN030 BKN040 BKN065 32/22 A3008 RMK AO2 T03170216
KCMR 151555Z AUTO 00000KT 10SM CLR 25/10 A3040 RMK AO2
K4M9 151555Z AUTO 25003KT 8SM CLR 31/23 A3014 RMK AO2 PWINO
KPAN 151555Z AUTO 00000KT 10SM CLR 29/10 A3029 RMK AO2 PWINO
KGBK 151555Z AUTO 3SM HZ FEW021 FEW038 FEW049 29/24 A3010 RMK A01
KCVH 151555Z AUTO 00000KT 10SM CLR 17/11 A3003 RMK A01
K7L2 151555Z AUTO VRB04KT 10SM CLR 26/23 A3009 RMK AO2
KHZE 151555Z AUTO 13006G12KT 10SM FEW018 27/24 A3006 RMK AO2
KD60 151555Z AUTO 14009KT 5SM BR OVC007 23/23 A3007 RMK AO2
K06D 151555Z AUTO 16004KT 10SM OVC014 22/22 A3009 RMK AO2
KD55 151555Z AUTO 23006KT 10SM BKN015 BKN022 BKN033 25/25 A3008 RMK AO2
PACZ 151555Z 36011KT 2 1/2SM -SHRA BR BKN006 11/10 A2964 RMK AO2A RAE1505SHRAB150 SLP039 BWC LOW
PAIM 151555Z AUTO 00000KT 10SM FEW085 FEW110 10/07 A2968 RMK AO2 SLP045 T01040066
KDLZ 151555Z AUTO 10003KT 10SM CLR 24/08 A3021 RMK AO2
KRCR 151555Z AUTO 21005KT 10SM BKN050 OVC060 25/18 A3017 RMK AO2
KTYQ 151555Z AUTO 23005KT 10SM SCT039 SCT045 OVC065 26/16 A3019 RMK AO2 T02550162
KRZL 151555Z AUTO 00000KT 3SM RA SCT035 SCT041 OVC065 18/17 A3019 RMK AO2 P0009
KPRG 151555Z AUTO 17006KT 10SM SCT075 OVC085 22/20 A3017 RMK AO2 T02180202
KMQB 151555Z AUTO 18004KT 10SM OVC110 21/20 A3007 RMK AO2 T02110195
KRPJ 151555Z AUTO 00000KT 1 3/4SM +RA BKN004 BKN015 OVC075 19/19 A3016 RMK AO2 P0019 T01870185 TSNO
KCLI 151555Z AUTO 34005KT OVC008 16/15 A3012 RMK AO2 P0001 PWINO T01630154
KDLH 151555Z 11003KT 10SM FEW030 22/16 A3005 RMK AO2 SLP177 T02220161
KEGV 151555Z AUTO 19007KT 150V220 10SM BKN015 BKN027 BKN034 19/14 A3011 RMK AO2 T01900137
KEHA 151555Z AUTO 23012KT 10SM CLR 34/12 A3016 RMK AO2 PWINO T03430121
KFWC 151555Z AUTO 00000KT 10SM SCT090 28/20 A3014 RMK AO1 T02810200
KGHW 151555Z AUTO 06009G14KT 10SM CLR 27/18 A3005 RMK AO2
KJOT 151555Z AUTO 00000KT 2 1/2SM RA SCT022 SCT044 OVC090 20/19 A3016 RMK AO2 P0013 T01970185
KPPQ 151555Z AUTO 17004KT 10SM SCT085 OVC100 23/23 A3009 RMK AO2 LTG DSNT N P0001 T02250225
KULM 151555Z AUTO 09006KT 10SM SCT022 26/20 A2998 RMK AO2
KPVB 151555Z AUTO 16013KT 10SM BKN003 BKN020 OVC049 A3008 RMK AO1 P0008
KPCZ 151555Z AUTO 23007KT 10SM BKN012 OVC018 19/17 A3012 RMK AO2 T01900169
KIBM 151555Z AUTO 15015G18KT 10SM CLR 30/12 A3024 RMK AO2 T02980115
KAIT 151555Z AUTO 04004KT 10SM SCT021 24/19 A3004 RMK AO2
KAUM 151555Z AUTO 12011KT 10SM SCT029 SCT033 23/20 A3001 RMK AO2
KHCO 151555Z AUTO 00000KT 10SM SCT021 24/21 A3004 RMK AO2
KJMR 151555Z AUTO 00000KT 10SM BKN010 21/18 A3006 RMK AO2
KMJQ 151555Z AUTO 06009KT 10SM BKN019 26/20 A2998 RMK AO2 PWINO
KMOX 151555Z AUTO 09011G14KT 10SM CLR 27/16 A3004 RMK AO2
KMVE 151555Z AUTO 05004KT 10SM SCT020 26/21 A3001 RMK AO2
KONA 151555Z AUTO 12004KT BKN046 BKN060 OVC070 21/19 A3004 RMK AO2 PWINO
KPQN 151555Z AUTO 08006KT 10SM SCT013 26/21 A3002 RMK AO2
KROX 151555Z AUTO 00000KT 10SM 25/18 A3005 RMK AO2
KTWM 151555Z AUTO 00000KT 10SM CLR 22/17 A3004 RMK AO2
KEZS 151555Z AUTO 28006KT 10SM -RA BKN025 OVC034 17/17 A3011 RMK AO2 P0003 T01670167
KRCM 151555Z AUTO 14004KT 10SM CLR 25/21 A3003 RMK AO2
KOXI 151555Z AUTO 27010KT 20/18 A3019 RMK AO1
KAIG 151555Z AUTO 15010KT 10SM -RA OVC004 15/15 A3010 RMK AO2 T01530152
KOGA 151555Z AUTO 06011KT 10SM CLR 33/15 A3013 RMK AO2 T03300148
KARV 151555Z AUTO 16008KT 10SM OVC010 18/15 A3010 RMK AO2 T01750150
KBJI 151555Z AUTO 10003KT 10SM CLR 23/17 A3007 RMK AO2 T02280167
KCBG 151555Z AUTO 00000KT 10SM CLR 26/18 A3004 RMK AO2
KCOQ 151555Z AUTO 15003KT 10SM OVC001 22/14 A3005 RMK AO2 TSNO
KELO 151555Z AUTO 00000KT 10SM CLR 23/14 A3007 RMK AO2
KFSE 151555Z AUTO 08004KT 10SM CLR 24/16 A3006 RMK AO2
KGBG 151555Z AUTO 05007KT 10SM -RA SCT008 SCT032 OVC090 21/21 A3013 RMK AO2 T02050205 TSNO
KHCD 151555Z AUTO 09005KT 10SM SCT036 27/21 A3002 RMK AO2 T02690210
KIRK 151555Z AUTO 19012KT 10SM OVC110 23/19 A3002 RMK AO2 SLP161 T02330194
KLXN 151555Z AUTO 04011KT 10SM CLR 31/22 A3006 RMK AO2 T03050218
KMZH 151555Z AUTO 00000KT 10SM CLR 23/16 A3005 RMK AO2
KONL 151555Z AUTO 02010G15KT 10SM CLR 31/21 A3004 RMK AO2 T03100209
KSTE 151555Z AUTO 00000KT 10SM OVC013 18/15 A3013 RMK AO2 T01790145
KUNU 151555Z AUTO 00000KT 10SM OVC005 15/15 A3009 RMK AO2 P0001 T01500150
KBDH 151555Z AUTO 10007KT 10SM SCT022 SCT028 SCT036 28/20 A3004 RMK AO2
KJYR 151555Z AUTO 01011KT 9SM CLR 30/24 A2999 RMK AO2
KFET 151555Z AUTO 32008KT 10SM CLR 31/22 A2993 RMK AO2 T03080222
KTIF 151555Z AUTO 02010KT 10SM CLR 30/18 A3013 RMK AO2 T02960181
KLCG 151555Z AUTO 34015G19KT 10SM CLR 30/22 A2996 RMK AO2 T03020217
KRPD 151555Z AUTO 14006KT 10SM 23/18 A3008 RMK AO2 T02270181
KAFK 151555Z AUTO 26012G19KT 10SM CLR 31/20 A2993 RMK AO2 T03120195
KDXX 151555Z AUTO 01005KT 10SM SCT019 28/22 A3003 RMK AO2
KDYT 151555Z AUTO VRB04KT 10SM CLR 15/12 A3005 RMK AO2
KGYL 151555Z AUTO 10006KT 10SM SCT019 BKN033 27/21 A3000 RMK AO2 T02710205
KJYG 151555Z AUTO 09008KT 10SM BKN018 BKN023 25/21 A2997 RMK AO2 TSNO
KLVN 151555Z AUTO 13007KT 10SM SCT020 26/18 A3001 RMK AO2
KMLE 151555Z AUTO 27007KT 10SM CLR 30/21 A2990 RMK AO2 T02960212
KMWM 151555Z AUTO 06007KT 10SM CLR 25/21 A2998 RMK AO2
KPWC 151555Z AUTO 00000KT 10SM CLR 24/18 A3009 RMK AO2
KROS 151555Z AUTO 00000KT 10SM SCT013 SCT036 BKN046 22/18 A3005 RMK AO2 T02170180
KRRT 151555Z AUTO 08004KT 10SM CLR 23/20 A3005 RMK AO2
KSAZ 151555Z AUTO 04004KT 10SM CLR 26/17 A3005 RMK AO2
KTOB 151555Z AUTO 12014G19KT 10SM CLR 24/19 A3001 RMK AO2
KVVV 151555Z 05008KT 10SM 27/19 A3003 RMK AO2
KHZX 151555Z AUTO 10004KT 10SM CLR 23/17 A3006 RMK AO2
KGDB 151555Z AUTO 06006KT 10SM BKN022 BKN026 28/22 A3001 RMK AO2 T02840217
KCFE 151555Z AUTO VRB05KT 10SM BKN031 BKN042 BKN048 25/20 A3002 RMK AO2
KTKC 151555Z AUTO 06007KT 10SM SCT018 SCT022 27/20 A3000 RMK AO2 T02710203
KLYV 151555Z AUTO 04008KT 10SM SCT015 SCT022 25/20 A3000 RMK AO2
KCIR 151555Z AUTO 27003KT 10SM CLR 30/22 A3014 RMK AO2 T03040218
KSYN 151555Z AUTO 14009G16KT 10SM SCT043 SCT050 26/19 A3000 RMK AO2 T02550189
KPEX 151555Z AUTO 08006KT 10SM CLR 27/20 A3003 RMK AO2
K21D 151555Z AUTO 17004KT 10SM SCT036 25/19 A3004 RMK AO2
K14Y 151555Z AUTO 11005KT 10SM CLR 25/19 A3005 RMK AO2
KY63 151555Z AUTO 10005KT 10SM OVC070 26/19 A3005 RMK AO2 T02560189
KD39 151555Z AUTO 05007KT 10SM CLR 26/18 A3004 RMK AO2 T02630180
KLNL 151555Z AUTO 19008KT 10SM CLR 20/14 A3012 RMK AO2 T01970135
KEFK 151555Z AUTO 33007KT 280V020 10SM SCT048 23/09 A3017 RMK AO2 T02270090
KFKA 151555Z AUTO 13009KT 10SM SCT030 SCT038 22/18 A3004 RMK AO2 LTG DSNT E T02190181
KOVL 151555Z AUTO 11008KT 060V130 10SM SCT022 BKN027 OVC035 26/20 A3000 RMK AO2
KSME 151555Z AUTO VRB03KT 10SM CLR 28/19 A3016 RMK AO2
KUGN 151555Z 21006KT 5SM -RA BR OVC015 19/18 A3014 RMK AO2 SLP200 P0008 T01940183
KO22 151555Z AUTO 00000KT 10SM CLR 30/08 A3001 RMK A01
KGHG 151555Z AUTO 06005KT 10SM CLR 23/12 A3015 RMK AO2
EHRD 151555Z AUTO 28007KT 250V020 9999 NCD 21/11 Q1022 NOSIG
KUTA 151555Z AUTO 04005KT 10SM SCT080 31/23 A3012 RMK AO2 T03080231
KUOX 151555Z AUTO 11006KT 10SM CLR 30/21 A3015 RMK AO2 PWINO
KCRX 151555Z AUTO RMK AO2 PNO PWINO TSNO
KLGC 151555Z AUTO 00000KT 10SM CLR 29/19 A3015 RMK AO2 T02940185
KAYS 151555Z AUTO 00000KT 10SM SCT013 A3016 RMK AO2
KVPC 151555Z AUTO 00000KT 10SM CLR 30/20 A3016 RMK AO2
KWDR 151555Z AUTO 00000KT 10SM CLR 30/17 A3018 RMK AO2 LTG DSNT SE
KJES 151555Z AUTO 00000KT 10SM SCT016 BKN070 OVC120 28/23 A3018 RMK AO2
KGOO 151555Z AUTO 00000KT 10SM CLR 27/06 A3008 RMK A01
KRTS 151555Z AUTO 00000KT 10SM CLR 24/M01 A3023 RMK AO2
KFOT 151555Z AUTO 10SM BKN008 OVC015 13/13 A3010 RMK AO1
KIDI 151555Z AUTO 33005KT 10SM BKN050 BKN060 25/12 A3023 RMK A01
KUKT 151555Z AUTO 00000KT 10SM FEW070 28/09 A3017 RMK A01
KAAT 151555Z AUTO 00000KT 10SM CLR 21/03 A3018 RMK AO2 SLP174 T02110028
KXLL 151555Z AUTO 03008KT 10SM BKN065 BKN090 28/11 A3018 RMK AO2
K0A9 151555Z AUTO 00000KT 10SM CLR 28/18 A3018 RMK A01
KM02 151555Z AUTO 26003KT 9SM CLR 31/15 A3015 RMK A01
KFLY 151555Z AUTO 00000KT 10SM CLR 28/07 A3042 RMK AO2 T02840072
KQHY 151555Z AUTO 00000KT 10SM CLR 31/24 A3012 RMK AO2 SLP206 T03080239
KY19 151555Z AUTO 14005KT 10SM CLR 25/24 A3007 RMK AO2
KS25 151555Z AUTO 11008G13KT 10SM CLR 27/23 A3003 RMK AO2
K08D 151555Z AUTO 13010KT 10SM OVC005 22/22 A3007 RMK AO2
KBAC 151555Z AUTO 00000KT 10SM FEW018 25/23 A3007 RMK AO2
KICL 151555Z AUTO 23015G24KT 10SM CLR 31/22 A2993 RMK AO2
KAIO 151555Z AUTO 23013G19KT 10SM CLR 30/23 A2987 RMK AO2
KOLZ 151555Z AUTO 13014G21KT 10SM BKN011 BKN090 23/21 A3001 RMK A01
KSLB 151555Z AUTO 03007KT 10SM CLR 28/22 A2993 RMK AO2
KIKV 151555Z AUTO 20011KT 8SM CLR 30/21 A2991 RMK AO2
KSDA 151555Z AUTO 24015G21KT 7SM CLR 31/21 A2989 RMK AO2
KRDK 151555Z AUTO 23017KT 10SM CLR 31/21 A2990 RMK AO2
KDEH 151555Z AUTO 13009G15KT 10SM BKN022 OVC028 21/21 A3002 RMK AO2
KIIB 151555Z AUTO 12014KT 10SM SCT010 SCT015 BKN090 23/22 A3002 RMK AO2 T02280218
KCKP 151555Z AUTO 35010G15KT 10SM CLR 29/22 A2992 RMK AO2 T02940215
KSHL 151555Z AUTO 03012G20KT 10SM BKN021 26/21 A2995 RMK AO2
KEFT 151555Z AUTO 21013KT 10SM -DZ OVC002 19/18 A3009 RMK AO2 P0003 T01920183
KMDZ 151555Z AUTO 15003KT 10SM OVC007 16/16 A3011 RMK AO2 T01600160 PWINO
KOEO 151555Z AUTO 14003KT 10SM CLR 26/21 A3007 RMK AO2 T02620211
KMRJ 151555Z AUTO 18007KT 10SM OVC003 18/18 A3009 RMK AO2 P0001
KPDC 151555Z AUTO 11006KT 10SM SCT014 SCT028 OVC041 20/19 A3004 RMK AO2 T01980190
KOOA 151555Z AUTO 15010KT 10SM BKN100 26/24 A2999 RMK AO2 T02560242
KTKV 151555Z AUTO 00000KT 10SM OVC007 17/15 A3011 RMK AO2 T01670154 PWINO
KRCX 151555Z AUTO 15004KT 10SM OVC009 20/20 A3010 RMK AO2 T01950195
KC29 151555Z AUTO 21009KT 10SM SCT007 BKN070 OVC120 20/19 A3005 RMK AO1 P0001 T02030192
KBCK 151555Z AUTO 03006KT 10SM SCT010 SCT060 SCT075 21/18 A3006 RMK AO2 LTG DSNT S T02070176
KUBE 151555Z AUTO 12003KT 10SM SCT014 OVC039 23/18 A3007 RMK AO2
KFXY 151555Z AUTO 11009KT 10SM OVC020 26/22 A2997 RMK AO2
KI75 151555Z AUTO 21016G20KT 10SM CLR 31/21 A2992 RMK AO2 T03080206
KLRJ 151555Z AUTO 36013KT 8SM CLR 28/22 A2993 RMK AO2
KCCY 151555Z AUTO 12016KT 10SM BKN016 OVC022 24/22 A2999 RMK AO2
KAXA 151555Z AUTO 06005KT 10SM FEW025 28/24 A2993 RMK A01
KCIN 151555Z AUTO 27006KT 9SM CLR 29/21 A2988 RMK AO2
KHNR 151555Z AUTO 25010KT 10SM CLR 28/23 A2989 RMK A01
KADU 151555Z AUTO 26006KT 10SM SCT003 BKN023 OVC070 29/21 A2990 RMK AO2
KMUT 151555Z AUTO 10011KT 22/22 A3006 RMK AO2 P0001
PALU 151555Z AUTO 07014KT 10SM OVC015 05/02 A2989 RMK AO2 SLP122 T00460017
KIFA 151555Z AUTO 13010G16KT 10SM SCT110 26/22 A2995 RMK AO2 T02620223
KMXO 151555Z AUTO RMK AO2 PNO PWINO
KGGI 151555Z AUTO 15010KT 10SM CLR 27/22 A2997 RMK AO2 P0001 T02700218
KPEA 151555Z AUTO 16009KT 10SM SCT110 27/21 A2994 RMK AO2 T02710210
EHEH 151555Z AUTO 29003KT 190V340 9999 SCT054 22/10 Q1022 BLU NOSIG
EHBK 151555Z AUTO 27006KT 200V340 9999 NSC 22/07 Q1022 NOSIG
EHDL 151555Z AUTO VRB05KT 9999 SCT049 BKN054 BKN064 21/09 Q1021 BLU
EHGG 151555Z AUTO 28009KT 240V320 9999 NSC 19/11 Q1021 NOSIG
EHGR 151555Z AUTO 33008KT 250V350 9999 BKN046 BKN051 BKN066 23/11 Q1022 BLU
EHLE 151555Z AUTO 28012KT 240V320 9999 FEW036 20/12 Q1021 NOSIG
EHLW 151555Z AUTO 26010KT 240V300 9999 FEW023 SCT027 OVC100 18/13 Q1021 BLU
KCAV 151555Z AUTO 14010KT 9SM CLR 27/22 A2993 RMK A01
KBNW 151555Z AUTO VRB06KT 10SM CLR 28/23 A2992 RMK AO2
KDNS 151555Z AUTO 00000KT 10SM CLR 29/25 A2990 RMK AO2
KFFL 151555Z AUTO 13007KT 10SM OVC110 23/20 A3003 RMK A01
KTIP 151555Z AUTO 00000KT 10SM RA SCT048 BKN070 OVC100 21/19 A3017 RMK AO2 T02110186
KC09 151555Z AUTO 00000KT 2SM RA BKN016 BKN034 OVC048 19/19 A3014 RMK AO2 P0014 T01900190
KFOA 151555Z AUTO 23005KT 10SM CLR 28/22 A3014 RMK AO2
KIGQ 151555Z AUTO 00000KT 10SM -RA OVC033 20/20 A3018 RMK AO2 T01960195
KTAZ 151555Z AUTO 00000KT 10SM SCT100 24/20 A3014 RMK AO2 T02420203
KDNV 151555Z AUTO 14005KT 10SM BKN085 22/19 A3017 RMK AO2 T02160189
KIJX 151555Z AUTO 11008KT 22/22 A3009 RMK AO2 LTG DSNT NW P0003 T02190219
KTNU 151555Z AUTO 17008KT 10SM CLR 27/23 A2992 RMK A01
KVYS 151555Z AUTO 14004KT 2SM +RA SCT003 SCT018 OVC050 20/19 A3013 RMK AO2 T01970193
K1H2 151555Z AUTO 31003KT 10SM OVC085 27/21 A3017 RMK AO2 T02660213
KGPI 151555Z 36004KT 10SM CLR 22/11 A2999 RMK AO2 SLP139 T02170106
KCMA 151555Z VRB03KT 6SM HZ FEW009 18/14 A2997 RMK AO2 SLP157 T01830139
KENL 151555Z AUTO 00000KT 10SM CLR 28/21 A3014 RMK AO2 T02840212
FJDG 151555Z 13012KT 9000 BR FEW020 FEW043 SCT070 26/24 A2987 RMK SLP112 T02570236
KRSV 151555Z AUTO 23003KT 10SM OVC090 27/22 A3016 RMK AO2 T02660216
KVNC 151555Z AUTO VRB05G12KT 8SM CLR 31/23 A3013 RMK AO2
K42J 151555Z AUTO 09007G13KT 060V120 10SM FEW033 30/23 A3015 RMK A01
K3LF 151555Z AUTO 00000KT 10SM BKN100 24/18 A3015 RMK AO2 T02440179
KAAA 151555Z AUTO 12003KT 5SM RA OVC100 21/21 A3011 RMK AO2 P0007 T02120212
KVER 151555Z AUTO 18007KT 10SM CLR 29/22 A3006 RMK AO2 LTG DSNT NE T02850216
KUKL 151555Z AUTO 18009KT 10SM CLR 25/20 A3004 RMK AO2 T02470195
KPTS 151555Z AUTO 21007KT 10SM CLR 32/20 A3008 RMK AO2 T03190199 PWINO
KVKY 151555Z AUTO 03003KT 10SM 29/21 A3014 RMK A01
KVOA 151555Z AUTO 05004KT 10SM CLR 29/23 A3012 RMK A01
KSYF 151555Z AUTO 06008KT 10SM CLR 33/14 A3014 RMK AO2 T03280136 PWINO
KSLO 151555Z AUTO 23006KT 10SM CLR 28/20 A3015 RMK AO2 T02820200
KJYM 151555Z AUTO 16007KT 10SM CLR 24/11 A3019 RMK AO2 T02410114
KLDM 151555Z AUTO 25005KT 10SM BKN060 OVC085 20/15 A3013 RMK AO2 T01950147
KMCD 151555Z AUTO 08003KT 10SM CLR 19/14 A3015 RMK AO2 T01930142
KMGN 151555Z AUTO 00000KT 10SM CLR 21/12 A3013 RMK AO2 T02190129
KMOP 151555Z AUTO 17010G17KT 10SM SCT050 SCT060 26/14 A3014 RMK AO2 T02550137
KGLW 151555Z AUTO 00000KT 10SM CLR 30/19 A3017 RMK AO2 T02980193
PAEH 151555Z AUTO 02011KT 310V170 7SM SCT002 BKN049 09/08 A2978 RMK AO2 SLP087 T00860083
K1R7 151555Z AUTO 00000KT 10SM SCT028 BKN036 30/29 A3014 RMK AO2
KSAA 151555Z AUTO 17004KT 10SM BKN110 23/09 A3041 RMK AO2
KUNI 151555Z AUTO 01003KT 10SM CLR 28/17 A3018 RMK AO2 T02760170
KLUA 151555Z AUTO 02005KT 10SM CLR 26/13 A3018 RMK AO2
KHFJ 151555Z AUTO 25008KT 10SM CLR 31/20 A3014 RMK AO2
EHAM 151555Z 27013KT 9999 FEW027 20/12 Q1022 NOSIG
EHAK 151555Z AUTO 28012KT 260V320 9999 FEW007/// SCT038/// BKN042/// 14/13 Q1018
EHDV 151555Z AUTO 24016KT 210V280 9999 FEW004/// SCT020/// BKN023/// 16/// Q1019
EHFD 151555Z AUTO 26017KT 9999 DZ FEW008/// SCT043/// 15/13 Q1019
EHJA 151555Z AUTO 23014KT 9999 -DZ SCT027/// BKN030/// OVC034/// 16/13 Q1020
EHVK 151555Z AUTO 30006KT 230V340 9999 FEW075 21/08 Q1021 BLU
EHVL 151555Z AUTO 27014KT 9999 FEW017 BKN087 OVC093 18/13 Q1021 BLU
EHWO 151555Z AUTO 29009KT 230V340 9999 NCD 22/10 Q1022 BLU
EHQE 151555Z AUTO 00000KT 9999 NSC 17/12 Q1021
EHMA 151555Z AUTO 28015KT 9999 FEW025 SCT046 17/12 Q1021
EHPG 151555Z AUTO 24011KT 9999 NSC 17/13 Q1022
EHSA 151555Z AUTO 22011KT 9999 ///////// 17/13 Q1022 W18/H7
EHSC 151555Z AUTO 25008KT 9999 ///////// 17/13 Q1022 W19/H7
KOSC 151555Z AUTO 21005KT 10SM CLR 25/13 A3015 RMK AO2 T02480132
KPHN 151555Z AUTO 22006KT 10SM CLR 26/10 A3017 RMK AO2
KDUH 151555Z AUTO 19004KT 10SM CLR 26/11 A3018 RMK AO2 T02640110
KFPK 151555Z AUTO 18009KT 10SM CLR 25/13 A3017 RMK AO2 T02510131
KAHQ 151555Z AUTO 31007KT 10SM CLR 30/22 A2994 RMK AO2 T03000224
KLWA 151555Z AUTO 25007KT 10SM OVC065 21/18 A3017 RMK AO2 T02120178
KPZQ 151555Z AUTO 14004KT 10SM CLR 22/13 A3015 RMK AO2 T02220129
KCFS 151555Z AUTO 20008KT 10SM CLR 28/12 A3016 RMK AO2 T02760118
KANW 151555Z AUTO 04010KT 10SM CLR 30/20 A3011 RMK AO2 T03000201
KRRL 151555Z AUTO 24004KT 10SM OVC010 17/17 A3009 RMK AO2 T01660166 TSNO
KCKN 151555Z AUTO 00000KT 10SM CLR 26/19 A3005 RMK AO2
KFBL 151555Z AUTO 13013G17KT 10SM BKN024 BKN033 26/20 A3001 RMK AO2
KFFM 151555Z AUTO 08006KT CLR 27/19 A3002 RMK AO2 PWINO
KLJF 151555Z AUTO 11007KT 10SM SCT026 28/20 A3002 RMK AO2
KSAR 151555Z AUTO 25006KT 10SM CLR 29/19 A3014 RMK AO2 T02940188
KPMV 151555Z AUTO 25010KT 10SM CLR 30/22 A2991 RMK AO2 T03000218
KERY 151555Z AUTO 13003KT 10SM CLR 22/12 A3014 RMK AO2 T02170118
KISQ 151555Z AUTO 13003KT 10SM CLR 19/14 A3013 RMK AO2 T01900144
KLXL 151555Z AUTO 11003KT 10SM 25/20 A3004 RMK AO2
KRZN 151555Z AUTO 00000KT 10SM CLR 24/18 A3005 RMK AO2 T02370183
KAUH 151555Z AUTO 03009KT 10SM CLR 31/23 A3001 RMK AO2 T03050231
KJKJ 151555Z AUTO 06004KT 10SM CLR 26/20 A3004 RMK AO2 TSNO
KVWU 151555Z AUTO 00000KT 10SM CLR 27/18 A3005 RMK AO2
KGLY 151555Z AUTO VRB08KT 9SM CLR 26/22 A3004 RMK AO2
KY70 151555Z AUTO 18010G14KT 10SM SCT050 25/13 A3015 RMK AO2 T02540131
K04W 151555Z AUTO 17004KT 10SM OVC013 23/20 A3006 RMK AO2
KMKG 151555Z 20005KT 10SM OVC055 22/17 A3014 RMK AO2 SLP206 T02170167
KGHB 151555Z AUTO VRB04KT 9SM BKN019 BKN038 BKN048 30/25 A3011 RMK A01
KGWR 151555Z AUTO 07005KT 10SM CLR 26/26 A3005 RMK A01
KI35 151555Z AUTO 24003KT 10SM SCT047 BKN060 27/16 A3019 RMK AO2 T02680163
KEZM 151555Z AUTO 00000KT 10SM BKN012 BKN021 OVC120 27/23 A3016 RMK AO2
K6A1 151555Z AUTO 00000KT 10SM SCT023 29/21 A3016 RMK AO2 T02930213
K2I0 151555Z AUTO 00000KT 10SM BKN090 31/19 A3016 RMK AO2 T03060186
KGGP 151555Z AUTO 19005KT 10SM SCT041 BKN049 OVC065 24/17 A3017 RMK AO2
K6A2 151555Z AUTO 00000KT 10SM CLR 29/18 A3017 RMK AO2
KD25 151555Z AUTO 17007KT 10SM OVC010 18/16 A3011 RMK AO2 T01800162
KM40 151555Z AUTO 06005KT 10SM CLR 32/24 A3015 RMK AO2
KMQJ 151555Z AUTO RMK AO1
KD95 151555Z AUTO 22004KT 10SM SCT060 27/05 A3018 RMK AO2 T02710047
K05U 151555Z AUTO 00000KT 10SM CLR 27/10 A3030 RMK A01
KFYG 151555Z AUTO 00000KT 10SM 30/19 A3009 RMK AO2
KAJZ 151555Z AUTO 12006KT 10SM CLR 28/12 A3031 RMK AO2 T02820118
KBGF 151555Z AUTO 00000KT 10SM CLR 30/19 A3017 RMK A01
KOQN 151555Z AUTO 08004KT 10SM CLR 27/14 A3016 RMK AO2
KCKZ 151555Z AUTO 13003KT 10SM CLR 27/12 A3018 RMK AO2
K6B0 151555Z AUTO 34003KT 10SM CLR 24/11 A3017 RMK AO2 T02360114
KT35 151555Z AUTO 00000KT 10SM SCT033 31/21 A3008 RMK AO2 LTG DSNT SW T03110214
KTHA 151555Z AUTO VRB03KT 10SM CLR 30/19 A3017 RMK A01
KSRB 151555Z AUTO 00000KT 10SM CLR 29/22 A3017 RMK A01
KTOC 151555Z AUTO 00000KT 10SM CLR 30/18 A3016 RMK AO2 T02980177
KFZG 151555Z AUTO 00000KT 10SM SCT014 27/24 A3017 RMK AO2 T02700235
KAZE 151555Z AUTO 00000KT 10SM -RA BKN011 BKN034 26/24 A3015 RMK AO2 T02640236
KFMM 151555Z AUTO VRB04KT 10SM CLR 28/15 A3023 RMK AO2 LTG DSNT S
KZPH 151555Z AUTO 06004KT 10SM SCT028 30/23 A3015 RMK A02 LTG DSNT W T03010233
KF46 151555Z AUTO 00000KT 10SM CLR 31/20 A3010 RMK AO2 T03130203
KGPH 151555Z AUTO 21006KT 10SM 28/20 A3000 RMK AO2
KCKF 151555Z AUTO 00000KT 10SM CLR 27/23 A3015 RMK AO2 T02660225
KHAE 151555Z AUTO 15006KT 10SM CLR 22/19 A3006 RMK AO2 P0003 LTG DSNT N
KOCQ 151555Z AUTO 02003KT 10SM OVC050 16/15 A3010 RMK AO1 P0001 T01600152
KRNV 151555Z AUTO 00000KT 10SM CLR 30/24 A3011 RMK AO2 T02990241 TSNO
KCFD 151555Z AUTO 00000KT 10SM BKN050 29/22 A3009 RMK AO2 T02930220
KOPL 151555Z AUTO 18003KT 10SM SCT025 SCT044 SCT070 30/25 A3010 RMK AO2 LTG DSNT E AND SE T03000251
K54J 151555Z AUTO 00000KT 10SM BKN014 BKN020 27/23 A3013 RMK AO2 T02660227
KEMM 151555Z AUTO 32011KT 10SM CLR 16/10 A3041 RMK AO2
K82V 151555Z AUTO 15006KT 10SM CLR 28/12 A3026 RMK AO2
K1V6 151555Z AUTO 29013KT 7SM CLR 28/10 A3028 RMK AO2
KY23 151555Z AUTO 13006KT 10SM BKN014 24/18 A3007 RMK AO2 T02360179
KPRS 151555Z AUTO 14004KT 10SM CLR 31/17 A3015 RMK AO2 T03070172
KCMD 151555Z AUTO 00000KT 10SM CLR 29/18 A3018 RMK AO2
KFBR 151555Z AUTO 25004KT 10SM -RA SCT050 SCT065 BKN090 19/13 A3042 RMK AO2 T01850133
KDYA 151555Z AUTO 15003KT 10SM CLR 29/23 A3013 RMK AO2 T02850228
KFWB 151555Z AUTO VRB04KT 10SM CLR 32/20 A3016 RMK AO2
KLXY 151555Z AUTO 00000KT 10SM SCT025 SCT030 30/22 A3009 RMK AO2 T02980222
KSJS 151555Z AUTO 13003KT 10SM SCT034 SCT040 BKN047 28/18 A3019 RMK AO2 T02790183
KC35 151555Z AUTO 00000KT 10SM BKN007 OVC110 17/17 A3006 RMK AO2 T01730173 PWINO
KIMM 151555Z AUTO 07009KT 10SM FEW034 FEW042 32/23 A3010 RMK AO2
KMMI 151555Z AUTO 00000KT 10SM CLR 30/19 A3018 RMK A01
K5M9 151555Z AUTO 26007KT 10SM CLR 32/18 A3015 RMK AO2 T03200177
KF70 151555Z AUTO 00000KT 10SM CLR 25/15 A2998 RMK AO2
KRZR 151555Z AUTO 00000KT 10SM CLR 29/21 A3014 RMK A01
KCVC 151555Z AUTO 06004KT 10SM CLR 30/18 A3015 RMK AO2
K28J 151555Z AUTO VRB03G10KT 10SM CLR 29/19 A3016 RMK AO2
KSEM 151555Z AUTO 20004KT 10SM SCT016 28/23 A3013 RMK AO2
K0R0 151555Z AUTO VRB05KT 10SM FEW027 32/23 A3015 RMK AO2 LTG DSNT S AND SW
KHHG 151555Z AUTO 16004KT 10SM CLR 26/18 A3017 RMK AO2 T02580180
KHZL 151555Z AUTO 35004KT 10SM SCT050 SCT090 23/10 A3024 RMK AO2
KSCD 151555Z AUTO 00000KT 10SM SCT075 BKN090 OVC120 29/22 A3015 RMK AO2 T02880215
KBHC 151555Z AUTO 00000KT 10SM SCT035 SCT075 BKN100 26/23 A3016 RMK AO2
KL18 151555Z AUTO 00000KT 10SM CLR 20/16 A2998 RMK AO2
K24J 151555Z AUTO 04003KT 10SM CLR 28/21 A3015 RMK A01
KSYM 151555Z AUTO 00000KT 10SM CLR 28/16 A3019 RMK AO2
KPVE 151555Z AUTO VRB04KT 10SM CLR 32/20 A3014 RMK A01
KN38 151555Z AUTO VRB05KT 10SM CLR 24/06 A3022 RMK AO2
KRNC 151555Z AUTO 00000KT 10SM CLR 29/19 A3017 RMK A01
KSYI 151555Z AUTO 00000KT 10SM CLR 29/20 A3016 RMK A01
KMOR 151555Z AUTO 00000KT 10SM CLR 29/19 A3016 RMK A01
PAUT 151555Z AUTO 14013KT 10SM OVC002 A2976 RMK AO2
KMEV 151555Z AUTO 34003KT 10SM CLR 24/06 A3019 RMK AO2
KLCQ 151555Z AUTO 10004KT 10SM SCT055 28/22 A3016 RMK AO2
KRZT 151555Z AUTO 11004KT 10SM CLR 26/13 A3018 RMK AO2 PWINO
K1A9 151555Z AUTO 00000KT 10SM CLR 28/22 A3013 RMK AO2 T02840220
KGKT 151555Z AUTO 00000KT 10SM CLR 29/19 A3016 RMK A01
KPOY 151555Z AUTO 13010KT 10SM CLR 26/07 A3018 RMK AO2 LTG DSNT W
KU68 151555Z AUTO 16005KT 10SM CLR 28/08 A3013 RMK AO2
KEQA 151555Z AUTO 21010G14KT 10SM CLR 32/19 A3006 RMK AO2
PAAD 151555Z AUTO 00000KT 7SM OVC004 M03/M04 A2988 RMK AO2 T10301036
KBDG 151555Z AUTO 00000KT 10SM 23/12 A3043 RMK AO1 T02290120
KY49 151555Z AUTO 10003KT 10SM CLR 22/18 A3007 RMK AO2 T02180179
K3N8 151555Z AUTO 12004KT 10SM CLR 25/17 A3006 RMK AO2 T02480174
K6L4 151555Z AUTO 00000KT 10SM SCT040 SCT050 SCT060 27/17 A3019 RMK AO2
KCLW 151555Z AUTO 12004KT 10SM CLR 29/21 A3013 RMK AO2
KEDN 151555Z AUTO 00000KT 10SM SCT015 27/22 A3013 RMK AO2 T02650224
KFKR 151555Z AUTO 23005KT 1 3/4SM -RA HZ FEW004 OVC038 24/19 A3018 RMK AO2 P0001
KW78 151555Z AUTO 00000KT 10SM BKN090 27/20 A3015 RMK AO1 T02670202
KASN 151555Z AUTO 00000KT 10SM CLR 30/22 A3015 RMK AO2 T03010216
KBKT 151555Z AUTO 02003KT 10SM SCT023 OVC070 28/21 A3013 RMK AO1 T02840214
KHVE 151555Z AUTO 00000KT 10SM CLR 26/14 A3027 RMK AO2
KDTA 151555Z AUTO 17008KT 10SM 25/11 A3024 RMK AO1
KW81 151555Z AUTO 05003KT 10SM SCT060 OVC085 26/18 A3014 RMK AO1 T02610184
KOLG 151555Z AUTO 00000KT 10SM BKN021 BKN025 22/17 A3005 RMK AO1
KLVL 151555Z AUTO 17005KT SCT024 29/22 A3014 RMK AO1 T02890221
K0V4 151555Z AUTO 10005KT 10SM CLR 29/20 A3015 RMK AO1 T02860202
KPBX 151555Z AUTO 35003KT 10SM SCT021 BKN026 BKN032 26/17 A3019 RMK AO2 T02630173
K66R 151555Z AUTO 17003KT 10SM SCT028 SCT036 31/22 A3007 RMK AO2 LTG DSNT SW T03100224
KGVE 151555Z AUTO 05005KT 10SM CLR 28/16 A3015 RMK AO1 T02760163
K8W2 151555Z AUTO 36005KT 10SM CLR 27/15 A3017 RMK AO1 T02690150
KW13 151555Z AUTO 32003KT 10SM CLR 25/17 A3020 RMK AO1 T02510169
KS39 151555Z AUTO 00000KT 10SM CLR 21/08 A3010 RMK AO2 LTG DSNT NE
K1K1 151555Z AUTO 16005KT 10SM CLR 29/19 A3005 RMK AO2 T02850188
K7W4 151555Z AUTO 00000KT 10SM CLR 28/19 A3015 RMK AO1 T02800194
KW63 151555Z AUTO 00000KT 10SM OVC020 27/23 A3013 RMK AO1
KRCV 151555Z AUTO 08008KT 10SM CLR 22/10 A3052 RMK AO2 T02160102
KW75 151555Z AUTO 04004KT 10SM SCT025 SCT075 28/21 A3012 RMK AO1 T02750214
KELK 151555Z AUTO 20009G15KT 10SM CLR 32/18 A3015 RMK AO2 T03210178
KCXE 151555Z AUTO 32005KT 10SM SCT028 BKN090 28/21 A3014 RMK AO1 T02760207
KAQX 151555Z AUTO 00000KT 10SM BKN012 BKN120 26/25 A3014 RMK AO2
KM91 151555Z AUTO 00000KT 10SM FEW085 31/20 A3014 RMK A01
KCFJ 151555Z AUTO 27004KT 10SM RA SCT039 SCT055 OVC070 22/12 A3019 RMK AO2 T02180116
KIMS 151555Z AUTO 00000KT 10SM CLR 26/18 A3020 RMK AO2
KOZS 151555Z AUTO 19009G14KT 10SM CLR 31/17 A3011 RMK AO2
KHMZ 151555Z AUTO 00000KT 10SM CLR 24/12 A3020 RMK AO2 T02420120
KELA 151555Z AUTO 11004KT 10SM SCT024 SCT035 SCT047 31/23 A3006 RMK AO2 LTG DSNT SW T03110226
K5A6 151555Z AUTO 00000KT 10SM CLR 30/24 A3012 RMK AO2 T03020236
KCXU 151555Z AUTO 00000KT 10SM SCT009 26/22 A3014 RMK AO1 T02560221
KAVQ 151555Z AUTO 23005KT 10SM CLR 33/17 A2998 RMK AO2 T03310171
K18A 151555Z AUTO 00000KT 10SM CLR 30/21 A3016 RMK AO2 T02990207
KJZP 151555Z AUTO 00000KT 10SM SCT050 29/16 A3021 RMK AO2 T02890163
K49A 151555Z AUTO 00000KT CLR 29/17 A3021 RMK AO2 T02920169 PWINO
KCZL 151555Z AUTO 00000KT 10SM CLR 30/18 A3017 RMK AO2
K9A5 151555Z AUTO 33003KT 10SM CLR 29/18 A3017 RMK AO2 T02940179
K0S9 151555Z AUTO 12006KT 10SM OVC015 14/12 A3006 RMK AO2 PWINO
KTVY 151555Z AUTO 00000KT 10SM OVC110 20/18 A3024 RMK AO2 P0005
KJAU 151555Z AUTO 00000KT 10SM FEW050 FEW055 29/17 A3021 RMK A01
KI63 151555Z AUTO 18008KT 10SM SCT120 22/22 A3006 RMK AO2 LTG DSNT NW P0001 T02150215
K5T9 151555Z AUTO 09005KT 10SM CLR 30/21 A3005 RMK A01
KSIK 151555Z AUTO 26008KT 10SM CLR 32/19 A3014 RMK AO2
KPMU 151555Z AUTO 00000KT 10SM BKN030 31/23 A3012 RMK AO2
KHQG 151555Z AUTO 23008KT 10SM CLR 33/16 A3010 RMK AO2 T03290163
KJHN 151555Z AUTO 29005KT 10SM CLR 33/11 A3011 RMK AO2 T03300110
KRLD 151555Z AUTO 21006KT 10SM CLR 27/10 A2994 RMK AO2 T02720095
KK88 151555Z AUTO 18007KT 10SM CLR 28/19 A3007 RMK AO1 T02800191
K22N 151555Z AUTO 00000KT 10SM OVC060 24/12 A3019 RMK AO2
KTKX 151555Z AUTO VRB05KT 10SM CLR 34/18 A3012 RMK AO2 TSNO
KBYL 151555Z AUTO 36004KT 10SM CLR 27/18 A3019 RMK AO1
K82C 151555Z AUTO 17003KT 7SM BKN004 OVC120 18/17 A3005 RMK AO2 T01830174
KJTC 151555Z AUTO VRB03KT 10SM CLR 24/12 A3043 RMK AO2 P0001
KMYJ 151555Z AUTO 14003KT 10SM -RA SCT036 SCT043 SCT048 23/20 A3009 RMK AO2
EHHW 151555Z AUTO 25014KT 200V270 9999 FEW016/// 17/12 Q1020
KM21 151555Z AUTO 00000KT 10SM SCT085 30/21 A3016 RMK AO2 T03020207
K46U 151555Z AUTO 13007KT 10SM CLR 20/10 A3031 RMK A01
KJCA 151555Z AUTO 01005KT 10SM CLR 30/19 A3017 RMK AO2 T02970195
KTGI 151555Z AUTO 00000KT 10SM SCT042 SCT075 BKN120 28/21 A3013 RMK AO1 T02750206
K2G9 151555Z AUTO 28005KT 10SM 22/11 A3024 RMK AO2
KJAQ 151555Z AUTO 26003KT 10SM CLR 26/08 A3001 RMK AO1 T02580078
KDKX 151555Z AUTO 10003KT 10SM 30/20 A3016 RMK A01
K4V0 151555Z AUTO 28003KT 10SM BKN110 24/14 A3031 RMK AO2 T02350143
KMNV 151555Z AUTO 00000KT 10SM 29/21 A3016 RMK A01
KCPU 151555Z AUTO 00000KT 10SM 26/09 A2999 RMK AO2 T02560085
K57C 151555Z AUTO 16006KT 7SM -RA SCT012 SCT070 OVC100 17/17 A3007 RMK AO2 P0017 T01740174
KC07 151555Z AUTO 00000KT 10SM SCT048 BKN075 OVC090 14/10 A3070 RMK AO2
KPLR 151555Z AUTO 00000KT 10SM CLR 30/22 A3015 RMK A01
KM08 151555Z AUTO VRB03KT 10SM CLR 32/20 A3013 RMK A01
K1M5 151555Z AUTO 08003KT 10SM CLR 30/19 A3016 RMK A01
K2P2 151555Z AUTO 24004KT 10SM CLR 19/15 A3011 RMK AO2 T01850145
KOWI 151555Z AUTO 19010KT 10SM CLR 31/22 A3001 RMK AO2 PWINO
K3F3 151555Z 06004KT 10SM BKN033 BKN039 BKN047 A3014 RMK AO2
KHMP 151555Z AUTO 08003KT 10SM CLR 30/19 A3019 RMK AO2 T02970187
KEKX 151555Z AUTO 00000KT 10SM SCT050 SCT065 SCT080 28/16 A3018 RMK AO2 T02800164
KF00 151555Z AUTO 17005KT 10SM CLR 33/20 A3011 RMK AO2 T03280199
KIKG 151555Z AUTO 16006KT 10SM SCT036 BKN090 32/22 A3005 RMK AO2 T03240224
KLRY 151555Z AUTO 20006KT 10SM CLR 26/21 A3006 RMK AO2 P0001
KEVU 151555Z AUTO 22013G20KT 10SM CLR 31/22 A2994 RMK AO2 T03150226
K8B0 151555Z AUTO 32009KT 10SM FEW050 SCT060 A3016 RMK AO2
KY31 151555Z AUTO 20005KT 10SM SCT065 25/14 A3015 RMK AO2 T02520143
KGPC 151555Z AUTO 22004KT 10SM SCT042 BKN070 OVC080 26/18 A3018 RMK AO2 T02650176
KM75 151555Z AUTO 00000KT 10SM CLR 27/15 A2994 RMK A01
KBAM 151555Z AUTO 06003KT 10SM CLR A3017 RMK AO1
KFYE 151555Z AUTO VRB04KT 10SM CLR 31/20 A3013 RMK A01
KCXW 151555Z AUTO 00000KT 10SM CLR 33/18 A3010 RMK A01
KHTH 151555Z AUTO 00000KT 10SM CLR 29/02 A3016 RMK A01
KKY8 151555Z AUTO 00000KT 10SM FEW080 31/23 A3015 RMK A01
KREG 151555Z AUTO 00000KT 10SM VCTS CLR 30/24 A3010 RMK AO2 LTG DSNT S AND SW T03020239
KSXU 151555Z AUTO 00000KT 10SM CLR 28/11 A3025 RMK AO2 T02780106
K3S8 151555Z AUTO 00000KT 10SM CLR 19/11 A3012 RMK AO2
KBEC 151555Z AUTO 17009KT 10SM CLR 30/20 A3004 RMK AO2 T02970195
KGRN 151555Z AUTO 09008KT 10SM SCT120 29/17 A3016 RMK AO2 T02880166
KM04 151555Z AUTO 00000KT 10SM CLR 32/20 A3013 RMK A01
K2A0 151555Z AUTO 13004KT 10SM CLR 30/20 A3015 RMK A01
KLBO 151555Z AUTO 23009KT 10SM CLR 32/16 A3015 RMK AO2
K8A3 151555Z AUTO 00000KT 10SM CLR 28/20 A3018 RMK A01
KHLB 151555Z AUTO 00000KT 10SM CLR 28/15 A3019 RMK A01
KPCD 151555Z AUTO 23005KT 10SM CLR 31/20 A3013 RMK AO2 T03090202
KDNA 151555Z AUTO 10006KT 10SM CLR 31/09 A3021 RMK AO2
K2J3 151555Z AUTO 20004KT 10SM BKN016 28/24 A3015 RMK AO2 T02830245
KRAW 151555Z AUTO 21005KT 10SM SCT120 27/21 A3009 RMK AO2 T02690209
KFRH 151555Z AUTO 19004KT 10SM SCT070 SCT080 27/16 A3017 RMK AO1
KMBY 151555Z AUTO 16011G17KT 10SM CLR 25/18 A3004 RMK AO2
KHCR 151555Z AUTO 22008KT OVC090 23/11 A3030 RMK AO2 PWINO
KDSF 151555Z AUTO 00000KT 10SM CLR 30/23 A3012 RMK A01
KWBF 151555Z AUTO 12005KT 6SM HZ FEW021 29/25 A3013 RMK A01
KRKW 151555Z AUTO VRB04KT 10SM FEW047 SCT055 SCT065 28/17 A3020 RMK A01
KLUG 151555Z AUTO 33003KT 10SM CLR 30/20 A3016 RMK A01
KMBT 151555Z AUTO 00000KT 10SM CLR 30/19 A3014 RMK A01
KO32 151555Z AUTO 13005KT 10SM CLR 27/15 A2994 RMK AO2 T02670149
KGCY 151555Z AUTO 22003KT 10SM SCT034 SCT043 27/18 A3018 RMK A01
KHPT 151555Z AUTO 14009G16KT 10SM SCT017 26/22 A2995 RMK AO2
KEZZ 151555Z AUTO 22014G20KT 10SM CLR 29/21 A2999 RMK AO2 T02920214
KLNQ 151555Z AUTO 20003KT 10SM SCT019 31/25 A3013 RMK AO2 T03100250
K2M2 151555Z AUTO 00000KT 10SM CLR 30/17 A3017 RMK A01
KL52 151555Z AUTO 3SM BR CLR 16/14 A2999 RMK A01
KAAS 151555Z AUTO 00000KT 10SM CLR A3023 RMK AO1
KLYO 151555Z AUTO 22013KT 10SM CLR 34/18 A3000 RMK AO2 T03370183
KC83 151555Z AUTO 24012KT 10SM CLR 23/10 A2996 RMK AO2
K06C 151555Z AUTO 22004KT 19/18 A3015 RMK AO2 P0012 T01900176
KL08 151555Z AUTO 00000KT 10SM CLR 36/04 A2990 RMK AO2
KLUV 151555Z AUTO 15008KT 10SM SCT075 OVC095 29/13 A3019 RMK AO2
K33N 151555Z AUTO 05004KT 9SM CLR 26/20 A3014 RMK A01
KTCY 151555Z AUTO 10003KT 10SM CLR 21/10 A2995 RMK A01
KC65 151555Z AUTO 23004KT 10SM OVC050 24/17 A3017 RMK A01
K6S0 151555Z AUTO VRB04KT 10SM CLR 24/12 A3013 RMK A01
KDLO 151555Z AUTO 28003KT 10SM CLR 26/08 A2995 RMK AO2 T02580083
KSUZ 151555Z AUTO 26007KT 9SM CLR 33/M28 A3011 RMK A01
K13K 151555Z AUTO 18009KT 10SM CLR 29/22 A3005 RMK AO2 T02920217
KTYL 151555Z AUTO 07011KT 10SM CLR 28/12 A3034 RMK AO2
KBRG 151555Z AUTO 05003KT 10SM CLR 27/10 A3030 RMK AO2 T02690097
K2J5 151555Z AUTO 21003KT 10SM BKN013 BKN019 OVC110 27/24 A3016 RMK AO2 T02750241
K48A 151555Z AUTO 16004KT 10SM SCT013 SCT110 27/24 A3015 RMK AO2 T02720238
KKNB 151555Z AUTO 00000KT 10SM CLR 25/15 A3032 RMK A01
KSXK 151555Z AUTO 03015KT 10SM FEW027 29/23 A2994 RMK AO2
KH71 151555Z AUTO 21009KT 10SM 33/18 A3008 RMK AO2
KRVL 151555Z AUTO VRB04KT 10SM CLR 27/13 A3017 RMK AO2
K41U 151555Z AUTO 00000KT 10SM SCT090 OVC120 22/16 A3031 RMK AO1 T02150156
K4F2 151555Z AUTO 14004KT 10SM CLR 30/24 A3010 RMK AO2 T02990237
KT74 151555Z AUTO 00000KT 10SM SCT035 31/21 A3007 RMK AO2 T03090211
KT41 151555Z AUTO 24004KT 10SM BKN036 OVC046 30/16 A3008 RMK AO2 LTG DSNT E T02990155
KRGA 151555Z AUTO 00000KT 10SM SCT050 30/15 A3019 RMK AO2
KHMT 151555Z AUTO 00000KT 10SM CLR 27/15 A2998 RMK AO2 T02740150
KGYF 151555Z AUTO 16013KT 10SM SCT022 SCT028 29/23 A3007 RMK AO2 LTG DSNT E AND W T02950234
KS21 151555Z AUTO VRB06KT 10SM CLR 20/11 A3018 RMK AO2 LTG DSNT NE
K00U 151555Z AUTO 15003KT 10SM CLR 26/14 A3003 RMK A01
KMIO 151555Z AUTO 20007KT 10SM CLR 32/20 A3009 RMK AO2
KPWD 151555Z AUTO 12008KT 10SM FEW005 24/22 A3001 RMK AO2 TSNO
K6S8 151555Z AUTO 00000KT 10SM 24/12 A3008 RMK A01 Laurel
KS85 151555Z AUTO VRB06KT 060V130 10SM 29/18 A2997 RMK A01 Culbertson
KCII 151555Z AUTO 19004KT 10SM 27/10 A3002 RMK A01
KCPF 151555Z AUTO 00000KT 10SM SCT045 27/17 A3018 RMK AO2
KE41 151555Z AUTO 18007KT 10SM CLR 28/17 A3017 RMK AO2 T02770173
KFPY 151555Z AUTO 09004KT 10SM CLR 30/21 A3014 RMK AO2 LTG DSNT S T03000210
KMJD 151555Z AUTO VRB04KT 10SM BKN034 31/24 A3010 RMK AO2 LTG DSNT SE-W
KVHN 151555Z AUTO 20003KT 10SM CLR 30/12 A3023 RMK AO2 T03030122
KJSY 151555Z AUTO 10SM CLR 23/10 A3010 RMK AO2 T02330100 TSNO
KK82 151555Z AUTO 03006KT 10SM CLR 34/13 A3000 RMK AO2
KT69 151555Z AUTO 18009KT 10SM CLR 32/23 A3005 RMK A01
KDWA 151555Z AUTO 31003KT 10SM CLR 20/13 A2996 RMK AO2
K63S 151555Z AUTO 00000KT 10SM CLR 19/11 A2999 RMK A01
KOAR 151555Z AUTO 26010KT 7SM OVC007 09/06 A3003 RMK AO2 PWINO
KPJC 151555Z AUTO 04003KT 10SM +RA CLR 25/08 A3019 RMK AO2
K81R 151555Z AUTO 22003KT 10SM CLR 29/20 A3013 RMK AO2 T02860197
KGNG 151555Z AUTO 15006KT 10SM CLR 27/13 A3008 RMK AO2 LTG DSNT NW
KE42 151555Z AUTO 23011KT 10SM CLR 35/14 A3013 RMK AO2 T03460141
KRVJ 151555Z AUTO 26005KT 10SM BKN011 27/24 A3016 RMK AO2 T02710241
KU52 151555Z AUTO 17008KT 10SM CLR 24/12 A3031 RMK AO2
KVVS 151555Z AUTO 29003KT 10SM CLR 25/13 A3021 RMK AO2 T02520134
K35A 151555Z AUTO 00000KT 10SM CLR 30/20 A3018 RMK A02 T02960202
KRVF 151555Z AUTO 31004KT 10SM CLR 21/10 A3016 RMK AO2 LTG DSNT NW
KMZJ 151555Z AUTO 17006KT 10SM CLR 34/18 A3000 RMK AO2
KSPK 151555Z AUTO 00000KT 10SM FEW090 21/17 A3026 RMK AO2 P0001
KO05 151555Z AUTO 14003KT 10SM CLR 19/06 A3020 RMK A01
KAGI 151555Z AUTO 15009KT 7SM CLR 30/24 A3010 RMK AO2 LTG DSNT NE T03030236
KLLN 151555Z AUTO VRB06KT 10SM CLR 29/14 A3021 RMK AO2
KTWT 151555Z AUTO 00000KT 10SM CLR 31/20 A3014 RMK AO2
KT78 151555Z AUTO VRB04G10KT 10SM FEW032 FEW041 SCT050 30/24 A3007 RMK AO2
KHRF 151555Z AUTO 10017G22KT 10SM FEW050 SCT070 OVC100 20/11 A3004 RMK AO2
K1R8 151555Z AUTO 00000KT 10SM SCT021 BKN060 28/23 A3012 RMK AO2
KK62 151555Z AUTO 00000KT 10SM CLR 26/16 A3018 RMK AO2
KEGT 151555Z AUTO 19010G15KT 10SM CLR 33/19 A3004 RMK AO2 T03270191
KMQW 151555Z AUTO 00000KT 10SM SCT014 SCT025 28/24 A3015 RMK AO2 T02800241
KUMP 151555Z AUTO 00000KT 10SM OVC070 28/16 A3018 RMK AO2 T02820159
K8T6 151555Z AUTO VRB06G11KT 10SM BKN036 OVC047 32/22 A3003 RMK AO2 LTG DSNT NE
K40U 151555Z AUTO 08007KT 10SM OVC080 20/15 A3035 RMK AO2 T01970148
KHDL 151555Z AUTO 00000KT 10SM 27/24 A3013 RMK AO2 TSNO
K36K 151555Z AUTO VRB03G12KT 10SM CLR 35/11 A3011 RMK AO2
KATA 151555Z AUTO 12005KT 10SM CLR 31/22 A3009 RMK AO2 SLP089 T03120222
KAGO 151555Z AUTO VRB03KT 10SM CLR 32/22 A3009 RMK A01
KFSK 151555Z AUTO 22012KT 10SM CLR 30/20 A3007 RMK AO2 T02980196
KW43 151555Z AUTO 19008KT 10SM CLR 28/13 A3018 RMK AO2
KPNA 151555Z AUTO 00000KT 10SM CLR 18/08 A3041 RMK AO2
LIEB 151555Z 18007KT CAVOK 30/24 Q1014 RMK SKC QUK 1 QUL 0 VIS MAR 30 KM MON LIB VIS MIN 9999
LIVT 151555Z 28001KT CAVOK 30/20 Q1012
KRPX 151555Z AUTO 16004KT 27/12 A2997 RMK Roundup
K7BM 151555Z AUTO 00000KT 10SM SCT095 18/ A3066 RMK AO2
KGNB 151555Z AUTO 00000KT 10SM CLR 19/05 A3054 RMK AO2 T01940054
KPPA 151555Z AUTO 23008KT 10SM CLR 35/15 A3017 RMK AO2 T03480145
K20V 151555Z AUTO 00000KT 10SM BKN120 17/11 A3050 RMK AO2
KAEL 151555Z AUTO 12012G18KT 10SM BKN014 23/21 A3000 RMK AO2
KEXX 151555Z AUTO 00000KT 10SM CLR 29/20 A3014 RMK AO2 T02920200
KHBV 151555Z AUTO 17007KT 10SM CLR 32/20 A3007 RMK AO2 T03160200
LIBN 151555Z 36008KT CAVOK 32/12 Q1013
LIBQ 151555Z VRB02KT 9999 FEW004 21/13 Q1023
LIVM 151555Z AUTO 12008KT 080V170 //// 32/21 Q1012
LIRE 151555Z 25008KT CAVOK 28/25 Q1014
EHFS 151555Z AUTO 28009KT 240V330 9999 NCD 21/11 Q1023
LIMU 151555Z 24010KT 9999 FEW025 28/24 Q1015
KSWW 151555Z AUTO 19006KT 160V230 10SM CLR 31/14 A3018 RMK AO2 T03100141
KRBO 151555Z AUTO 18008G15KT 150V210 10SM CLR 32/23 A3005 RMK AO2 LTG DSNT N T03200225
KCOM 151555Z AUTO 00000KT 10SM CLR 29/17 A3014 RMK AO2 T02900174
KGNC 151555Z AUTO 14008KT 10SM CLR 30/14 A3023 RMK AO2 T02970137
KPEZ 151555Z AUTO 23003KT 10SM CLR 31/24 A3006 RMK AO2 LTG DSNT E T03050236
KLZZ 151555Z AUTO 06003KT 10SM CLR 29/20 A3007 RMK AO2 T02900197
K5C1 151555Z AUTO 00000KT 10SM CLR 27/21 A3012 RMK AO1
KASL 151555Z AUTO 20004KT 10SM CLR 30/21 A3011 RMK AO1 T03000211
KCEY 151555Z AUTO 21007KT 10SM CLR 31/20 A3015 RMK AO1
KDQH 151555Z AUTO 00000KT 10SM BKN012 27/23 A3018 RMK AO2 T02650229
KTVI 151555Z AUTO 00000KT 10SM SCT100 26/22 A3017 RMK AO2
KHEQ 151555Z AUTO 09004KT 10SM CLR 33/14 A3017 RMK AO2
KHYW 151555Z AUTO 20003KT 10SM SCT009 25/22 A3016 RMK AO2
KANK 151555Z AUTO 01004KT 10SM SCT120 22/09 A3055 RMK AO1 T02180089
KONX 151555Z AUTO 19007KT 10SM BKN010 BKN014 OVC120 25/25 A3013 RMK AO2 T02520252
KE16 151555Z AUTO 13003KT 10SM CLR 17/11 A3004 RMK AO2
LIBA 151555Z 09008KT CAVOK 32/14 Q1013
LIBV 151555Z 01011KT CAVOK 30/02 Q1013
LIBY 151555Z 21003KT CAVOK 29/21 Q1012 RMK SKC QUK 1 QUL 0 VIS MAR 30 KM VIS MIN 9999
LICT 151555Z 35015KT CAVOK 28/22 Q1014
LICZ 151555Z /////KT CAVOK 30/18 Q1013
LIED 151555Z 13009KT 9999 FEW025 35/15 Q1014
LIMV 151555Z /////KT 9999 FEW011 26/20 Q1016
LIPI 151555Z 18006KT CAVOK 32/12 Q1012
LIMH 151555Z AUTO 31008G18KT //// 10/M04 Q1035
LIMK 151555Z 17003KT CAVOK 34/13 Q1015
LIMN 151555Z 25006KT 200V290 CAVOK 36/14 Q1011
LIMS 151555Z 08006KT 9999 FEW040 36/21 Q1010
LIMY 151555Z 09008KT CAVOK 32/22 Q1014
LIPA 151555Z 08004KT 9999 FEW060 32/14 Q1012
LIPC 151555Z 11009KT CAVOK 31/18 Q1012
LIPF 151555Z /////KT CAVOK 36/19 Q1011
LIPL 151555Z 20003KT CAVOK 35/19 Q1011
LIPS 151555Z /////KT CAVOK 33/16 Q1012
LIQC 151555Z 25004KT 9999 FEW023 SCT030 28/24 Q1015 RMK SCT QUK 1 QUL 0 VIS MAR 20 KM VIS MIN 9999
LIRG 151555Z 21009KT CAVOK 34/15 Q1014
LIRH 151555Z 18010KT 9999 SCT040 32/18 Q1013
LIRK 151555Z AUTO 29007KT //// 23/07 Q1027
LIRL 151555Z 25007KT CAVOK 32/15 Q1014
LIRM 151555Z 20008KT CAVOK 29/24 Q1014
LIRS 151555Z 23014KT CAVOK 32/21 Q1013
LIRT 151555Z 29004KT CAVOK 27/03 Q1020
LIRV 151555Z 24013KT CAVOK 32/11 Q1015
LIRX 151555Z 30002KT CAVOK 30/23 Q1015
LIVC 151555Z AUTO 25007KT //// 21/12 Q1028
LIVF 151555Z 00000KT CAVOK 32/11 Q1015
LIVP 151555Z 20020KT 180V240 9999 SCT025 18/12 Q1024
KQTZ 151555Z VRB02KT 9999 SKC 40/07 A2946 RMK SLP972 WND DATA ESTMD ALSTG/SLP ESTMD
KPVW 151555Z AUTO 23005KT 10SM CLR 29/13 A3018 RMK AO2 T02940134
KGCM 151555Z AUTO 23005KT 10SM CLR 32/15 A3011 RMK AO2
KE38 151555Z AUTO 03003KT 10SM CLR 29/12 A3029 RMK AO2 T02900115
KT82 151555Z AUTO 00000KT 10SM CLR 28/21 A3012 RMK AO2 T02760206
KMEZ 151555Z AUTO 00000KT 10SM CLR 32/22 A3015 RMK AO2
KXSA 151555Z AUTO 00000KT 10SM SCT028 SCT055 27/23 A3014 RMK AO2 T02720230
KBWD 151555Z AUTO 00000KT 10SM CLR 30/18 A3012 RMK AO1
KDCM 151555Z AUTO 00000KT 10SM SCT034 29/20 A3015 RMK AO2 LTG DSNT SE
KLUX 151555Z AUTO 00000KT 10SM CLR 29/20 A3015 RMK AO2
KRBW 151555Z AUTO 00000KT 10SM CLR 25/23 A3016 RMK AO2
K5SM 151555Z AUTO 21004KT 10SM CLR 15/07 A3075 RMK AO2
KSQL 151555Z VRB03KT 10SM SCT010 17/12 A3003
KCTJ 151555Z AUTO 07004KT 10SM SCT043 29/18 A3021 RMK AO2 T02870179
KIDP 151555Z AUTO 19014G17KT 10SM CLR 34/17 A3007 RMK AO2 T03360173
KDKB 151555Z AUTO 00000KT 4SM RA SCT042 SCT070 OVC120 19/18 A3017 RMK AO2 P0013 T01850181
KFEP 151555Z AUTO 00000KT 4SM -RA SCT004 BKN100 OVC110 19/19 A3014 RMK AO2 P0009 T01930192
KPNT 151555Z AUTO 00000KT 5SM -RA SCT045 BKN075 OVC095 20/19 A3015 RMK AO2 T01960191
KBUU 151555Z AUTO 18005KT 3SM 18/18 A3007 RMK AO2 T01780176 PWINO
KHDE 151555Z AUTO 03008KT 10SM CLR 30/22 A3005 RMK AO2 T02960217
KSBO 151555Z AUTO 17003KT 10SM BKN015 27/24 A3016 RMK AO2
KRNH 151555Z AUTO 19003KT 10SM SCT027 25/17 A3005 RMK AO2 T02510173
KETC 151555Z AUTO 14005KT 7SM BKN019 BKN025 OVC065 27/23 A3014 RMK AO2 T02680226
EBFN 151555Z AUTO 32009KT 9999 NCD 20/10 Q1023 BLU
EBCV 151555Z AUTO 31005KT 9999 SCT065/// 24/08 Q1022 BLU
EBDT 151555Z AUTO 32004KT 9999 FEW059/// 23/08 Q1022 BLU
EBFS 151555Z AUTO 35007KT 9999 FEW055/// 21/07 Q1023 BLU
EBLB 151555Z AUTO 36006KT 9999 FEW050/// 17/05 Q1023 BLU
KOPN 151555Z AUTO 00000KT 10SM CLR 29/20 A3017 RMK AO2
KEBS 151555Z AUTO 14007KT 10SM CLR 29/24 A2990 RMK AO2
EBBE 151555Z AUTO 27005KT 9999 FEW070/// 22/08 Q1022 BLU
EBBL 151555Z AUTO 34006KT 9999 BKN058/// 23/09 Q1022 BLU
KCBK 151555Z AUTO 03014KT 10SM CLR 33/17 A3011 RMK AO2 T03260173
KNRN 151555Z AUTO 07014KT 10SM CLR 34/17 A3006 RMK AO2
LIQO 151555Z AUTO 32006KT //// 29/17 Q1017
KMZZ 151555Z AUTO 21006KT 7SM OVC065 26/18 A3018 RMK AO2 T02610175
KLOT 151555Z AUTO 23003KT 19/19 A3016 RMK AO2 P0015 T01870187 PWINO
KHZR 151555Z AUTO 00000KT 10SM SCT022 30/24 A3011 RMK AO2 LTG DSNT SE AND S T02960240
KMGC 151555Z AUTO 27004KT 2 1/2SM +RA OVC044 18/18 A3019 RMK AO2 VIS 1 3/4V5
K3K3 151555Z AUTO 26003KT 10SM CLR 34/12 A3011 RMK AO2
KPPO 151555Z AUTO 24005KT 7SM RA SCT023 SCT029 OVC050 20/19 A3019 RMK AO2 P0001 T02040191
KE11 151555Z AUTO 14007KT 10SM CLR 29/13 A3019 RMK AO2 T02940128
KIOB 151555Z AUTO 26004KT 10SM SCT055 28/16 A3020 RMK AO2 PWINO
KF44 151555Z AUTO 08003KT 10SM CLR 30/21 A3008 RMK AO2
K5R8 151555Z AUTO 20004KT 10SM SCT032 SCT038 SCT044 30/23 A3010 RMK AO2 T03010229
KT20 151555Z AUTO 00000KT 10SM SCT032 SCT038 BKN060 30/22 A3006 RMK AO2 LTG DSNT S T03030222
KDCY 151555Z AUTO 17004KT 10SM CLR 29/20 A3015 RMK AO2 T02890201
KOWP 151555Z AUTO 18007KT 10SM CLR 34/17 A3010 RMK AO2 T03350174 PWINO
KAFO 151555Z AUTO 00000KT 10SM CLR 16/11 A3033 RMK AO2
KFGX 151555Z AUTO 00000KT 10SM SCT035 SCT060 28/17 A3019 RMK AO2 T02750172
KPXE 151555Z AUTO 24005KT 10SM CLR 27/23 A3015 RMK AO2 T02700231
KBMC 151555Z AUTO 10SM SCT120 24/13 A3022 RMK AO1 T02390134
KUYF 151555Z AUTO 00000KT 10SM CLR 26/09 A3021 RMK AO2
K6I2 151555Z AUTO 03003KT 10SM CLR 29/17 A3019 RMK AO2
K3AU 151555Z AUTO 18008KT 10SM CLR 30/17 A3005 RMK AO2
KAJR 151555Z AUTO 03004KT 7SM CLR 30/16 A3018 RMK AO2 T03020161
K3D2 151555Z AUTO 00000KT 10SM CLR 18/13 A3011 RMK AO2 T01820128
KI19 151555Z AUTO 14004KT 10SM CLR 26/17 A3021 RMK AO2 T02580169 PWINO
KPIM 151555Z AUTO 00000KT 10SM CLR 30/20 A3016 RMK AO2 T03010201
KVBW 151555Z AUTO 00000KT 10SM CLR 27/16 A3018 RMK AO1 T02660156
K6P9 151555Z AUTO 19006KT 10SM CLR 30/18 A3013 RMK AO2 T02980181
KTMT 151555Z AUTO 24005KT 10SM CLR A3027 RMK AO2
K17J 151555Z AUTO 09003KT 10SM CLR 26/21 A3014 RMK AO2 T02550209
KD73 151555Z AUTO 00000KT 10SM CLR A3016 RMK AO2
KTXW 151555Z AUTO 18008KT 10SM SCT031 BKN036 BKN045 31/23 A3005 RMK AO2 T03140228
KULS 151555Z AUTO 27006KT 10SM CLR 33/12 A3008 RMK AO2
KJVY 151555Z AUTO 00000KT 10SM CLR 28/19 A3017 RMK AO2
KMHP 151555Z AUTO 29004KT 10SM SCT012 27/25 A3015 RMK AO2 T02690247
KS34 151555Z AUTO 00000KT 10SM 21/M19 A3001 RMK Plains
KTHM 151555Z AUTO 27004KT 10SM 21/16 A3003 RMK Thompson Falls
KTFP 151555Z AUTO 21007G14KT 10SM CLR 31/23 A3006 RMK AO2 LTG DSNT NW THRU E T03140234
LICF 151555Z 04004KT CAVOK 30/19 Q1014 RMK SKC QUK 2 QUL 0 VIS MAR 20 KM MON LIB NC VIS MIN 9999
LIVE 151555Z 01006KT CAVOK 24/08 Q1020
LIVO 151555Z 08003KT 9999 FEW025TCU SCT028 21/17 Q1018
KDMW 151555Z AUTO 00000KT 10SM CLR 27/17 A3017 RMK AO2
KCGE 151555Z AUTO 34003KT 10SM BKN070 OVC085 28/20 A3013 RMK A01
KOIN 151555Z AUTO 06014G20KT 10SM CLR 35/18 A3011 RMK AO1 T03450176
K20U 151555Z AUTO 18006KT 10SM CLR 28/18 A3007 RMK AO2
KBWW 151555Z AUTO 18009KT 10SM CLR 29/20 A3010 RMK AO2
K9D7 151555Z AUTO 00000KT 10SM OVC015 23/21 A3009 RMK AO2 TSNO
K46D 151555Z AUTO VRB05KT 10SM CLR 25/21 A3009 RMK AO2
K2C8 151555Z AUTO 14003KT 10SM CLR 25/22 A3004 RMK AO2
KD50 151555Z AUTO 13008KT 9SM SCT017 26/24 A3003 RMK AO2
KD57 151555Z AUTO 16007KT 10SM CLR 27/22 A3005 RMK AO2
KGAF 151555Z AUTO 00000KT 9SM FEW041 24/19 A3006 RMK AO2
K5H4 151555Z AUTO 14007KT 090V160 10SM FEW008 FEW013 24/10 A3007 RMK AO2
K2D5 151555Z AUTO VRB07KT 9SM SCT018 26/21 A3006 RMK AO2
KS32 151555Z AUTO 11007KT 9SM CLR 25/25 A3007 RMK AO2 TSNO
KBWP 151555Z AUTO 11006KT 10SM CLR 27/19 A3002 RMK AO2
TNCB 151555Z 13010KT 080V180 9999 SCT016 31/24 Q1014
TNCE 151555Z AUTO 08016KT 050V110 //// // ///////// 31/24 Q1016 RE//
K2IS 151555Z AUTO 06011KT 7SM CLR 31/23 A3012 RMK AO2 LTG DSNT E T03080234
KCTY 151555Z AUTO 08006KT 10SM CLR 29/22 A3015 RMK AO2 LTG DSNT SW T02860223
KCGC 151555Z AUTO 10005KT 10SM CLR 30/20 A3014 RMK AO2 LTG DSNT W
KFHB 151555Z AUTO 09005KT 10SM SCT027 29/24 A3016 RMK AO2 T02940237
KX07 151555Z AUTO 09006KT 9SM FEW036 31/24 A3016 RMK A01 P0002
KSEF 151555Z AUTO 14007KT 10SM SCT036 BKN042 31/22 A3014 RMK AO2 LTG DSNT E AND NW T03100219
KX60 151555Z AUTO 12004KT 10SM CLR 30/23 A3015 RMK AO2 LTG DSNT W T02980226
KBVS 151555Z AUTO 17004KT 10SM CLR 17/13 A3005 RMK A01
KCLS 151555Z AUTO 00000KT 10SM OVC015 14/13 A3011 RMK AO2
KORS 151555Z AUTO 16010KT 9SM CLR 17/12 A3003 RMK AO2
KNOW 151555Z AUTO 06003KT 10SM CLR 15/11 A3006 RMK AO2 T01470114
K1S5 151555Z AUTO 00000KT 10SM CLR 23/11 A2996 RMK AO2 LTG DSNT NE T02250113
KS52 151555Z AUTO 13003KT 10SM BKN110 21/04 A2996 RMK AO2 T02120042
KECS 151555Z AUTO 19003KT 10SM CLR 28/08 A3019 RMK AO2
K2G4 151555Z AUTO 35005KT 10SM SCT047 20/11 A3026 RMK AO1
KBDN 151555Z AUTO 00000KT 10SM CLR 22/09 A3011 RMK AO2 LTG DSNT NE
K6S2 151555Z AUTO 00000KT 10SM OVC013 15/13 A3013 RMK AO2
K4S1 151555Z AUTO 33003KT 5SM BR CLR 13/11 A3011 RMK AO2
KS33 151555Z AUTO 00000KT 10SM CLR 21/08 A3009 RMK AO2 LTG DSNT NE
KONP 151555Z AUTO 11004KT 10SM OVC015 15/11 A3015 RMK AO2
KTMK 151555Z AUTO 00000KT 10SM OVC016 15/11 A3012 RMK AO2
KASJ 151555Z AUTO 00000KT 10SM OVC090 26/23 A3014 RMK AO2 T02630230
KVUJ 151555Z AUTO 00000KT 10SM CLR 29/21 A3019 RMK AO2 LTG DSNT E T02920213
KHBI 151555Z AUTO 31004KT 10SM CLR 28/21 A3017 RMK AO2 T02770205
KGEV 151555Z AUTO 00000KT 10SM SCT041 BKN048 BKN060 23/15 A3028 RMK AO2 T02290145
KCTZ 151555Z AUTO 21003KT 10SM SCT011 26/25 A3013 RMK AO2 T02590252
KEYF 151555Z AUTO 25003KT 10SM SCT009 SCT120 25/22 A3013 RMK AO2 T02530224
KHRJ 151555Z AUTO 22004KT 10SM CLR 27/22 A3014 RMK AO2 T02660224
K1A5 151555Z AUTO 00000KT 10SM CLR 27/19 A3025 RMK AO2 T02680186
KHNZ 151555Z AUTO 00000KT 10SM SCT024 SCT029 26/21 A3014 RMK AO2 P0001 T02580212
KDPL 151555Z 7SM BKN008 OVC110 25/23 A3014 RMK AO2 P0001
KFFA 151555Z AUTO 00000KT 10SM RA SCT050 SCT080 OVC100 23/23 A3014 RMK AO2 T02330233
KIPJ 151555Z AUTO 07004KT 10SM CLR 30/17 A3016 RMK AO2 T02990173
KLHZ 151555Z AUTO 13003KT 7SM CLR 27/21 A3015 RMK AO2
KMQI 151555Z AUTO 00000KT 10SM SCT065 BKN090 OVC110 24/22 A3016 RMK AO2 P0002 T02360215
KMRN 151555Z AUTO 35003KT 10SM CLR 29/19 A3021 RMK AO2 T02930186
KMWK 151555Z AUTO 16004KT 10SM SCT040 SCT047 SCT055 28/20 A3019 RMK AO2 T02800197
KUKF 151555Z AUTO 00000KT 10SM SCT047 27/16 A3023 RMK AO2
KPGV 151555Z AUTO 19005KT 10SM SCT039 26/23 A3014 RMK AO2
KSIF 151555Z AUTO 09003KT 10SM BKN032 BKN039 28/19 A3015 RMK AO2 T02770192
KIXA 151555Z AUTO 18006KT 10SM CLR 26/24 A3013 RMK AO2
KRCZ 151555Z AUTO 00000KT 10SM SCT019 28/23 A3013 RMK AO2 T02750228
KRUQ 151555Z AUTO 00000KT 10SM CLR 29/19 A3015 RMK AO2 T02870187
KTDF 151555Z AUTO 00000KT 10SM SCT025 26/20 A3017 RMK AO2
KTTA 151555Z AUTO 25003KT 10SM SCT024 28/23 A3012 RMK AO2 T02830225
KEHO 151555Z AUTO 03004KT 10SM CLR 30/19 A3016 RMK AO2 T02970185
KSCR 151555Z AUTO 00000KT 10SM SCT024 BKN033 OVC070 29/22 A3014 RMK AO2 T02870222
KJNX 151555Z AUTO 00000KT 10SM CLR 26/22 A3013 RMK AO2
KSUT 151555Z AUTO 16006KT 10SM CLR 24/23 A3015 RMK AO2 T02360225
KSVH 151555Z AUTO 06005KT 10SM CLR 30/17 A3016 RMK AO2 T02980168
K24A 151555Z AUTO 00000KT 10SM CLR 24/17 A3026 RMK AO2 LTG DSNT SE T02450174
KAFP 151555Z AUTO 00000KT 10SM CLR 29/22 A3013 RMK AO2 T02860218
KOCW 151555Z AUTO 16007KT 10SM SCT035 SCT050 BKN065 26/23 A3016 RMK AO2 T02560227
KI69 151555Z AUTO 00000KT 10SM SCT036 26/18 A3019 RMK AO2 T02640179
KEDJ 151555Z AUTO VRB04KT 10SM CLR 26/11 A3022 RMK A01
KCDI 151555Z AUTO 02004KT 10SM CLR 25/14 A3020 RMK AO2 T02490143
KI67 151555Z AUTO 36003KT 10SM CLR 27/18 A3017 RMK AO1
KI43 151555Z AUTO 00000KT 10SM CLR 27/17 A3019 RMK AO2
KMWO 151555Z AUTO 17003KT 10SM SCT042 27/16 A3019 RMK AO2 T02710161
K10G 151555Z AUTO 13007KT 10SM CLR 25/08 A3021 RMK AO2
K4I3 151555Z AUTO 00000KT 10SM CLR 25/10 A3022 RMK AO2
KOWX 151555Z AUTO 12006KT 10SM CLR 28/07 A3021 RMK AO1
KOXD 151555Z AUTO 00000KT 10SM SCT033 SCT040 28/21 A3020 RMK AO2 T02750206
KPCW 151555Z AUTO 14008KT 10SM CLR 25/13 A3018 RMK AO2
KPMH 151555Z AUTO 00000KT 10SM CLR 28/17 A3018 RMK AO2 T02810166
KPOV 151555Z AUTO 07004KT 10SM CLR 25/06 A3021 RMK AO2 T02530060 PWINO
KLCK 151555Z AUTO 08004KT 10SM CLR 25/14 A3019 RMK AO2 T02540139
KI74 151555Z AUTO 09005KT 10SM CLR 25/14 A3021 RMK AO2
KVNW 151555Z AUTO 17005KT 10SM CLR 26/13 A3020 RMK AO2
KI23 151555Z AUTO 10005KT 10SM CLR 25/15 A3020 RMK AO1
KUSE 151555Z AUTO 17008KT 10SM CLR 26/14 A3019 RMK AO2
KLNN 151555Z AUTO 01008KT 10SM CLR 25/06 A3019 RMK AO1 T02540063
KIUA 151555Z AUTO 00000KT 10SM CLR 26/11 A3019 RMK AO2 T02550106
KN03 151555Z AUTO 07003KT 10SM CLR 24/08 A3020 RMK AO2
KJPX 151555Z AUTO 02004KT 10SM CLR 25/12 A3016 RMK AO2 T02540122
KVGC 151555Z AUTO 35005KT 10SM CLR 23/11 A3020 RMK AO2
KOIC 151555Z AUTO 33005KT 7SM CLR 24/12 A3021 RMK AO2 T02370116 PWINO
KOGS 151555Z AUTO 00000KT 10SM CLR 25/13 A3014 RMK AO2
KOLE 151555Z AUTO 16005KT 10SM CLR 22/07 A3024 RMK AO2
KPTD 151555Z AUTO 23004KT 10SM CLR 24/13 A3016 RMK AO2
K6B9 151555Z AUTO 00000KT 10SM CLR 23/11 A3019 RMK AO2
KSDC 151555Z AUTO 00000KT 10SM CLR 25/15 A3019 RMK AO2
KBTN 151555Z AUTO 00000KT 10SM BKN018 26/23 A3004 RMK AO2
KHON 151555Z AUTO 04010KT 10SM OVC016 26/22 A3002 RMK AO2 SLP156 T02610222
KMDS 151555Z AUTO 04011KT 10SM 26/25 A3003 RMK AO2
KPHP 151555Z AUTO 09011KT 10SM CLR 31/21 A3005 RMK AO2 SLP153 T03060211
KSPF 151555Z AUTO 08006KT 10SM CLR 27/16 A3016 RMK AO2
KPZZ 151555Z AUTO 15004KT 9SM 30/24 A3012 RMK A01
K0A0 151555Z AUTO 34007KT 10SM CLR 31/11 A3023 RMK AO2
KTQV 151555Z AUTO 22005KT 10SM SCT023 SCT030 27/22 A3014 RMK A01
KLDJ 151555Z AUTO 15006KT 10SM SCT075 SCT110 28/10 A3015 RMK AO2 T02790096
KBXK 151555Z AUTO 00000KT 10SM 31/23 A2994 RMK A01
KAZC 151555Z AUTO 00000KT 10SM CLR 26/16 A3030 RMK AO2
KP08 151555Z AUTO 29006KT 10SM CLR 33/21 A2996 RMK AO2
KBIJ 151555Z AUTO 00000KT 10SM SCT015 26/22 A3013 RMK AO2
KBQK 151555Z AUTO 30004KT 10SM SCT085 SCT110 28/24 A3016 RMK AO2 LTG DSNT E T02800239
KMGR 151555Z AUTO 10003KT 10SM SCT011 26/22 A3016 RMK AO2
KONZ 151555Z AUTO 19009KT 10SM CLR 24/15 A3019 RMK AO2 T02420151
KIKW 151555Z AUTO 20010G14KT 10SM SCT055 SCT070 27/13 A3014 RMK AO2 T02670132
K9S5 151555Z AUTO 00000KT 10SM 21/12 A3010 RMK Three Forks
KBVN 151555Z AUTO 35007KT 10SM CLR 30/22 A3002 RMK AO2 T02970224
KBIE 151555Z AUTO 25007KT 10SM CLR 31/21 A2997 RMK AO2 T03100205
KBTA 151555Z AUTO 32008KT 10SM CLR 29/21 A2991 RMK AO2 T02900213
KM30 151555Z AUTO 00000KT 10SM CLR 31/21 A3014 RMK AO2 T03050213
KAJG 151555Z AUTO 19003KT 10SM BKN090 29/22 A3015 RMK AO2 T02870222
KGDJ 151555Z AUTO 20004KT 10SM CLR 32/19 A3010 RMK AO2 T03160191
KAIK 151555Z AUTO 00000KT 10SM BKN028 30/22 A3015 RMK AO2 LTG DSNT SE T02970218
KBNL 151555Z AUTO 22004KT 10SM BKN012 27/24 A3015 RMK AO2 LTG DSNT SE
KARW 151555Z AUTO 33003KT 10SM CLR 26/22 A3015 RMK AO2 LTG DSNT SE P0002
KJZI 151555Z AUTO 00000KT 9SM CLR 27/23 A3017 RMK AO2 LTG DSNT SE
KLRO 151555Z AUTO 00000KT 7SM FEW009 FEW013 25/25 A3016 RMK AO2
KEOE 151555Z AUTO 00000KT 10SM BKN038 30/19 A3017 RMK AO2
KLQK 151555Z AUTO 16003KT 10SM SCT050 31/18 A3015 RMK AO2 T03070184
KDYB 151555Z AUTO 00000KT 10SM SCT009 26/25 A3015 RMK AO2
KSMS 151555Z AUTO 00000KT 10SM SCT013 27/25 A3015 RMK AO2
KFDW 151555Z AUTO 32003KT 10SM SCT024 28/21 A3014 RMK AO1
KCNK 151555Z AUTO 04005KT 10SM CLR 34/20 A2999 RMK AO2 SLP132 T03440200
KMPR 151555Z AUTO 18015KT 10SM CLR 33/19 A3001 RMK AO2 T03310188
KLLJ 151555Z AUTO 20007KT 10SM CLR 22/08 A3018 RMK AO2 PK WND 09030/1515 WSHFT 1518 LTG DSNT E RAE25 TSE13 SLP148 P0001 T02170078
TXKF 151555Z 20009KT 9999 VCSH SCT015TCU SCT035 BKN095 BKN250 28/24 Q1025
KDTL 151555Z AUTO 36004KT 10SM CLR 26/18 A3006 RMK AO2
KHWY 151555Z AUTO 00000KT 5SM HZ CLR 29/13 A3015 RMK AO2 T02860134
KQBR 151555Z AUTO 20010G20KT 150V270 7SM -RA SCT095 OVC110 23/15 A3026 RMK AO2 LTG DSNT N RAB1544 SLP126 WND DATA ESTMD P0000 T02280154
EHKD 151555Z AUTO 27011KT 230V310 9999 FEW020 BKN095 OVC100 18/13 Q1021 BLU NOSIG
EHJR 151555Z AUTO 22015KT //// // ///////// 16/13 Q1021 RE// W17/H9
EHKV 151555Z AUTO 25013KT 9999 FEW040 SCT048 17/12 Q////
EHMG 151555Z AUTO 25015KT 9999 FEW015 17/12 Q1021
OPST 151555Z 00000KT 4000 FU SCT040 SCT100 27/23 Q1002 NOSIG RH77
KCBF 151555Z AUTO 28010KT 10SM CLR 30/21 A2988 RMK AO2
KOXV 151555Z AUTO 18011KT 10SM CLR 28/21 A2993 RMK AO2
KVTI 151555Z AUTO 08008KT 10SM SCT017 22/22 A3001 RMK AO2 T02210221
KU42 151555Z AUTO 18005KT 10SM SCT080 OVC100 19/19 A3028 RMK AO1 P0005 T01930192
KMHL 151555Z AUTO 20005KT 10SM SCT080 SCT100 OVC120 25/21 A3004 RMK AO2 P0001
PASD 151556Z 18012KT 7SM BCFG BKN003 OVC008 09/09 A2989 RMK AO2 SLP125 T00940089 PNO $
PASX 151556Z AUTO 08004KT 10SM CLR 12/10 A2981 RMK AO2 SLP099 T01220100
PATE 151556Z AUTO 02012KT 10SM FEW010 SCT060 BKN120 07/05 A2978 RMK AO2 SLP087 T00720050
PAOU 151556Z AUTO 12003KT CLR 09/09 A2984 RMK AO2 SLP103 T00890089 PWINO $
PAPN 151556Z AUTO 23008KT 10SM OVC003 09/09 A2987 RMK AO2 SLP115 T00940089
PARS 151556Z AUTO 21004KT 10SM -RA OVC050 11/10 A2962 RMK AO2 SLP033 P0019 T01060100 $
PAVC 151556Z AUTO 07006KT 8SM OVC002 09/09 A2988 RMK AO2 SLP119 T00890089 PNO $
PAPM 151556Z AUTO 22011KT 10SM BKN005 OVC009 09/09 A2978 RMK AO2 SLP087 T00940089
PAEI 151556Z AUTO 00000KT 10SM FEW110 10/06 A2972 RMK AO2 SLP068 T01020056 $
PANV 151556Z AUTO 22005KT 2 1/2SM -RA BR OVC004 11/10 A2959 RMK AO2 CIG 002V007 SLP074 P0002 T01060100 TSNO
PARC 151556Z AUTO VRB03KT 10SM CLR 08/00 A2977 RMK AO2 SLP109 T00780000
PAKF 151556Z AUTO 16015G22KT 10SM -RA FEW025 SCT060 OVC085 09/08 A2979 RMK AO2 SLP089 P0002 T00940083
PAOO 151556Z AUTO 23006KT OVC006 09/09 A2970 RMK AO2 SLP061 T00890089 PWINO TSNO $
KFLP 151556Z AUTO 16003KT 10SM CLR 31/19 A3015 RMK AO2 SLP198 T03110189
PAGL 151556Z AUTO 35010KT 10SM BKN060 OVC075 11/09 A2967 RMK AO2 SLP042 T01110089 PWINO $
KEKO 151556Z AUTO 16013G18KT 10SM CLR 28/09 A3020 RMK AO2 SLP155 T02780094
K79J 151556Z AUTO 00000KT 10SM OVC019 29/22 A3013 RMK AO2 SLP196 T02940222
KADW 151556Z AUTO 00000KT 10SM FEW210 29/16 A3011 RMK AO2 SLP201 T02890164 $
KBTP 151556Z AUTO VRB04KT 10SM CLR 24/11 A3021 RMK AO2 SLP228 T02440106 TSNO
KCAE 151556Z 00000KT 10SM SCT025 SCT130 BKN200 28/23 A3012 RMK AO2 SLP198 T02780233
KCOF 151556Z AUTO 06007KT 10SM CLR 31/27 A3013 RMK AO2 SLP207 T03060267 $
KDAA 151556Z AUTO 00000KT 10SM CLR 30/17 A3012 RMK AO2 SLP202 T02990166 $
KEAU 151556Z 10008KT 10SM BKN014 22/17 A3005 RMK AO2 SLP172 T02170172
KFAM 151556Z AUTO 27009G14KT 220V320 10SM CLR 32/14 A3016 RMK AO2 SLP212 T03170144
KGXY 151556Z 15005KT 10SM CLR 29/14 A3025 RMK AO2 SLP188 T02890139 $
KLWS 151556Z 00000KT 10SM CLR 24/12 A2997 RMK AO2 SLP136 T02440122
KPAM 151556Z AUTO 12007KT 10SM FEW012 BKN140 26/23 A3012 RMK AO2 DZB06E22 SLP203 P0000 T02610225 $
KSHV 151556Z 10005KT 10SM FEW030 32/22 A3009 RMK AO2 SLP184 T03170222
KSKX 151556Z AUTO 00000KT 10SM CLR 24/11 A3047 RMK AO2 SLP234 T02390111
KSPD 151556Z AUTO 31006KT 34/10 A3018 RMK AO1 SLP138 T03390100
PAPG 151556Z 09003KT 10SM SCT005 BKN021 OVC046 11/11 A2986 RMK AO2 SLP113 T01110106
PAWN 151556Z AUTO 01007KT 10SM CLR 12/07 A2970 RMK AO2 SLP067 T01170067
PHHI 151556Z AUTO 00000KT 10SM BKN029 OVC035 23/17 A3011 RMK AO2 CIG 028V035 SLP186 T02300168 $
PHNY 151556Z AUTO 05003KT 10SM BKN023 19/19 A3012 RMK AO2 SLP181 T01940189 $
PAHY 151556Z AUTO 00000KT 10SM -RA SCT004 BKN014 OVC050 12/11 A2984 RMK AO2 CIG 010V019 SLP101 P0002 T01170111 $
RJOI 151556Z 18004KT 9SM SCT020 BKN060 25/21 A2951 RMK AO2 RAE34 SLP992 P0000 T02500211
KNYG 151556Z 12003KT 8SM CLR 28/19 A3014 RMK AO2 SLP208 T02830189
ETAD 151556Z AUTO 03009KT 9999 CLR 23/05 A3014 RMK AO2 SLP188 T02300045 $
ETAR 151556Z AUTO 30003KT 9999 CLR 24/08 A3012 RMK AO2 SLP198 T02400076 $
ETEB 151556Z AUTO 32008KT 9999 CLR 23/08 A3012 RMK AO2 SLP203 T02260079 $
ETIC 151556Z AUTO 33003KT 9999 SCT065 BKN080 22/06 A3010 RMK AO2 SLP190 T02220064 $
ETIH 151556Z AUTO 31003KT 9999 CLR 23/05 A3011 RMK AO2 SLP190 T02310050 $
ETIK 151556Z AUTO 34007KT 9999 CLR 23/07 A3012 RMK AO2 SLP196 T02330074 $
ETOU 151556Z AUTO 36008KT 9999 CLR 24/04 A3014 RMK AO2 SLP205 T02390043 $
PAGA 151556Z AUTO 10SM -RA OVC060 13/12 A2964 RMK AO2 SLP037 P0003 T01330122 $
KRND 151556Z AUTO 00000KT 10SM CLR 31/21 A3005 RMK AO2 SLP166 T03050210
KLRD 151556Z 17010G14KT 10SM CLR 33/20 A3003 RMK AO2 SLP165 T03280200
RJTY 151556Z AUTO 35004KT 6SM BR OVC004 23/23 A2961 RMK AO2 SLP027 T02290227 $
RODN 151556Z AUTO 21008KT 10SM SCT016 BKN022 28/27 A2963 RMK AO2 SLP038 T02830265 $
ROTM 151556Z 27006KT 9999 VCSH SCT015 BKN080 OVC100 28/26 A2964 RMK SLP039 T02750262
KMRF 151556Z AUTO 06006KT 10SM CLR 29/12 A3028 RMK AO2 SLP173 T02890117
RKSG 151556Z AUTO 00000KT 4SM BR CLR 23/21 A2948 RMK AO2 SLP985 T02250213 $
KLGD 151556Z AUTO 29017KT 10SM CLR 24/03 A3006 RMK AO2 SLP155 T02390033
KDLF 151556Z AUTO 12006KT 10SM CLR 31/19 A3005 RMK AO2 SLP163 T03060193 $
KDYS 151556Z AUTO 16006KT 10SM CLR 31/14 A3011 RMK AO2 SLP148 T03080135
KPRX 151556Z AUTO VRB03KT 10SM -RA CLR 32/21 A3011 RMK AO2 SLP190 P0000 T03220206
KUCP 151556Z AUTO VRB04KT 10SM CLR 23/13 A3020 RMK AO2 SLP239 T02330133
KDOV 151556Z AUTO 06004KT 10SM FEW140 FEW170 27/19 A3012 RMK AO2 SLP203 T02730191 $
KCVN 151556Z AUTO 10SM CLR 31/12 A3024 RMK AO2 SLP185 T03060122 $
PAIW 151556Z AUTO 02019KT 10SM OVC011 06/04 A2985 RMK AO2 SLP108 T00610044
PASM 151556Z AUTO 30005KT 1/4SM FG FEW004 SCT011 OVC017 11/11 A2965 RMK AO2 RAB1457E34 SLP047 P0000 T01060106
PAPH 151556Z AUTO 20005KT 8SM OVC003 09/08 A2988 RMK AO2 SLP118 T00890083
KEHR 151556Z AUTO 00000KT 10SM SCT090 30/21 A3015 RMK AO2 SLP205 T03000206
KHOP 151556Z AUTO 25006KT 10SM CLR 32/18 A3014 RMK AO2 SLP202 T03210183
KIWD 151556Z AUTO 20007KT 10SM SCT019 21/17 A3009 RMK AO2 SLP184 T02110167
KMBL 151556Z AUTO 23005KT 10SM CLR 22/12 A3012 RMK AO2 SLP200 T02170117
KMTC 151556Z 14011KT 10SM FEW060 BKN250 25/17 A3015 RMK AO2A SLP212 T02510173
PANW 151556Z AUTO 21014G18KT 10SM OVC006 10/10 A2979 RMK AO2 RAE36 CIG 003V010 SLP091 P0000 T01000100
PAHP 151556Z AUTO 31010KT 4SM BR OVC004 12/12 A2965 RMK AO2 RAB39E56 CIG 003V011 SLP041 T01220117 PNO $
PALG 151556Z AUTO VRB05KT 2SM -RA BR OVC005 10/10 A2965 RMK AO2 VIS 1 1/2V3 SLP041 P0002 T01000100
KCIU 151556Z AUTO 15009KT 10SM CLR 22/11 A3016 RMK AO2 SLP212 T02170106
KOFF 151556Z 30009KT 10SM CLR 31/21 A2991 RMK AO2A SLP121 T03110207 PWINO PNO FZRANO TSNO VISNO RWY12 CHINO RWY12 $
KHNB 151556Z AUTO VRB03KT 10SM SCT085 29/21 A3016 RMK AO2 SLP209 T02890206
KHDN 151556Z 14005KT 10SM FEW120 22/12 A3040 RMK AO2 RAE02 SLP199 P0000 T02220122
KGUC 151556Z AUTO 03007KT 10SM CLR 20/09 A3051 RMK AO2 SLP239 T02000094
KCVO 151556Z AUTO 25003KT 10SM CLR 16/10 A3012 RMK AO2 SLP201 T01560100
PAWS 151556Z AUTO 00000KT 10SM CLR 13/11 A2981 RMK AO2 SLP097 T01280111
KFNL 151556Z VRB03KT 10SM CLR 29/12 A3026 RMK AO2 SLP171 T02940122
PFSH 151556Z AUTO 02018KT 10SM -RA FEW039 OVC065 12/11 A2963 RMK AO2 SLP033 P0001 T01220111
PADM 151556Z AUTO 16005KT 10SM OVC006 11/10 A2967 RMK AO2 RAE56 CIG 005V010 SLP051 P0001 T01060100
KBOK 151556Z AUTO VRB03KT 10SM BKN010 14/13 A3012 RMK AO2 CIG 008V012 SLP199 T01440128 $
KKLS 151556Z AUTO 25003KT 10SM FEW017 16/11 A3011 RMK AO2 SLP200 T01610111
KAWO 151556Z AUTO 15009KT 10SM CLR 17/12 A3007 RMK AO2 SLP187 T01720117
KPWT 151556Z AUTO 22010KT 10SM BKN015 17/12 A3008 RMK AO2 SLP186 T01670122
KARG 151556Z AUTO 28005KT 10SM CLR A3014 RMK AO2 SLPNO FZRANO $
KSSC 151556Z 00000KT 10SM FEW016 BKN170 BKN200 27/23 A3013 RMK AO2A SLP202 T02700230 $
KMYR 151556Z 14006KT 10SM -RA FEW033 BKN049 OVC070 24/23 A3016 RMK AO2 SLP211 P0001 T02440233
KNBC 151556Z 00000KT 10SM BKN010 OVC110 27/23 A3015 RMK AO2 DZE26 SLP210 P0000 T02670233
KWMC 151556Z AUTO 00000KT 10SM CLR 29/M06 A3015 RMK AO2 SLP156 T02891061 TSNO
K1M4 151556Z AUTO 03004KT 10SM CLR 31/18 A3020 RMK AO2 SLP209 T03110178
KMOB 151556Z 00000KT 10SM BKN020 BKN050 BKN250 30/23 A3012 RMK AO2 LTG DSNT SW SLP197 CB DSNT S T03000228
KNUC 151556Z 20004KT 10SM OVC009 17/14 A3000 RMK AO2 SLP155 T01670144
KLPC 151556Z AUTO 28006KT 10SM OVC006 15/13 A3000 RMK AO2 SLP160 T01500128
KNXP 151556Z AUTO 12005KT 10SM CLR 34/13 A3008 RMK AO2 SLP141 T03440128
KVIS 151556Z AUTO 19003KT 10SM CLR 25/12 A2995 RMK AO2 SLP145 T02500122
KOZR 151556Z AUTO 05003KT 10SM BKN019 BKN024 27/27 A3012 RMK AO2 SLP199 T02690267
KGAD 151556Z AUTO 01004KT 10SM CLR 30/22 A3016 RMK AO2 SLP210 T03000222 $
KEUL 151556Z AUTO 00000KT 10SM CLR 27/12 A3000 RMK AO2 SLP133 T02720122
KSMN 151556Z AUTO 16010KT 10SM FEW120 17/12 A3014 RMK AO2 TSB08E23RAE10 PRESRR SLP892 P0000 T01720122
KNKT 151556Z 00000KT 2SM RA BR FEW070 BKN090 OVC110 22/22 A3015 RMK AO2 SFC VIS 3 TSE37 SLP205 P0027 T02220217
KBZN 151556Z 28003KT 10SM CLR 23/12 A3012 RMK AO2 SLP154 T02330117
KDIJ 151556Z AUTO 18006KT 10SM CLR 23/13 A3031 RMK AO2 SLP200 T02330128
KGON 151556Z 36005KT 10SM CLR 27/13 A3015 RMK AO2 SLP208 T02670128
KBHB 151556Z AUTO 34009KT 10SM CLR 24/14 A3006 RMK AO2 SLP179 T02440139 PNO $
KGNR 151556Z AUTO 33006G15KT 22/12 A3009 RMK AO1 SLP188 T02220117
KLEW 151556Z AUTO 31007KT 270V360 10SM FEW055 26/11 A3011 RMK AO2 SLPNO T02560111
KNFL 151556Z COR 25003KT 10SM FEW100 28/M02 A3013 RMK AO2 SLP168 FU ALOFT E-S T02781017
KRKD 151556Z AUTO 29007KT 10SM CLR 25/13 A3008 RMK AO2 SLP185 T02500133
KSFM 151556Z AUTO 02006KT 10SM SCT070 26/09 A3012 RMK AO2 SLP202 T02610094
KVPS 151556Z AUTO 33005KT 10SM CLR 29/23 A3010 RMK AO2 SLP199 T02890231 $
KWVL 151556Z AUTO 35008KT 10SM CLR 24/11 A3007 RMK AO2 SLP206 T02440111
KINW 151556Z AUTO VRB03KT 10SM CLR 27/15 A3028 RMK AO2 SLP171 T02720150
KLHW 151556Z 00000KT 10SM FEW022 BKN031 BKN170 28/25 A3013 RMK AO2A SLP206 T02840252 $
KNID 151556Z 11003KT 10SM CLR 34/11 A3002 RMK AO2 SLP137 T03390111 $
KSLG 151556Z AUTO 22007KT 10SM CLR 32/21 A3015 RMK AO2 SLP192 T03220211
KSVN 151556Z 00000KT 10SM SCT013 SCT020 BKN130 BKN170 BKN200 28/23 A3013 RMK AO2A SLP206 T02790226 $
KVAD 151556Z AUTO 36003KT 10SM SCT170 BKN200 27/21 A3015 RMK AO2 SLP210 T02660213 $
KM19 151556Z AUTO 14005KT 10SM CLR 32/21 A3013 RMK AO2 SLP200 T03170211
KPWG 151556Z AUTO 00000KT 10SM CLR 29/22 A3009 RMK AO2 SLP185 T02940217
KGAI 151556Z AUTO 00000KT CLR 28/17 A3017 RMK AO2 SLP225 T02780172 PWINO $
KNFE 151556Z AUTO 17004KT 10SM FEW009 SCT020 BKN110 27/24 A3012 RMK AO2 SLP202 T02720239
KPSM 151556Z 00000KT 10SM FEW060 FEW250 26/08 A3012 RMK AO2A SLP202 T02580078
KHYA 151556Z 01008KT 10SM CLR 24/16 A3014 RMK AO2 SLP206 T02440161
KUDG 151556Z AUTO 00000KT 10SM BKN012 27/24 A3014 RMK AO2 SLP205 T02670244
KGRD 151556Z AUTO VRB04KT 10SM CLR 31/18 A3016 RMK AO2 SLP203 T03060183
KLTS 151556Z AUTO 20008KT 10SM CLR 33/16 A3008 RMK AO2 SLP167 T03300159 $
KFSI 151556Z AUTO 16003KT 10SM CLR 32/17 A3007 RMK AO2 SLP171 T03210172
KNJK 151556Z 05006KT 10SM FEW120 33/17 A2988 RMK AO2 SLP132 T03280172 $
KNTU 151556Z 16004KT 10SM SCT010 BKN110 OVC200 27/23 A3011 RMK AO2 SLP199 T2 SET T02670233
KMUI 151556Z 05006KT 10SM BKN060 27/10 A3015 RMK AO2A SLP209 T02740101
KRDM 151556Z 27003KT 10SM CLR 22/09 A3009 RMK AO2 SLP157 T02220094 PNO $
KFAF 151556Z 19005KT 10SM SCT050 BKN100 29/23 A3010 RMK AO2A SLP196 T02850231 $
KMCF 151556Z 15006KT 10SM FEW120 FEW140 FEW160 SCT190 30/22 A3009 RMK AO2A SLP192 T03000219 FZRANO $
KHEF 151556Z 05003KT 10SM CLR 29/17 A3015 RMK AO2 SLP212 T02890172 PNO $
KOAJ 151556Z 06003KT 10SM BKN004 24/23 A3014 RMK AO2 RAE35 SLP208 P0002 T02390233
KSGJ 151556Z 08007KT 10SM SCT035 A3018 RMK AO2 SLPNO $
KTTS 151556Z AUTO 09007KT 10SM SCT030 31/23 A3014 RMK AO2 SLP211 T03060230 $
KISM 151556Z VRB03KT 10SM SCT023 30/23 A3016 RMK AO2 SLP211 T03000228 PNO $
KEND 151556Z AUTO 18012KT 10SM CLR 33/18 A3006 RMK AO2 SLP163 T03340175
KTIK 151556Z AUTO 19009KT 10SM CLR 32/16 A3008 RMK AO2 SLP176 T03170156
KPQI 151556Z AUTO 33007KT 290V360 10SM CLR 23/12 A3004 RMK AO2 SLP194 T02330122
KMXF 151556Z AUTO 00000KT 10SM CLR 29/21 A3011 RMK AO2 SLP197 T02910208
KGTB 151556Z AUTO 34003KT 10SM CLR 24/12 A3015 RMK AO2 SLP207 T02380118 FZRANO $
KRUT 151556Z AUTO 32006KT 10SM CLR 23/11 A3018 RMK AO2 SLP210 T02330111 $
KLSF 151556Z AUTO 00000KT 10SM CLR 29/23 A3012 RMK AO2 SLP203 T02900225
KDYR 151556Z AUTO VRB03KT 10SM CLR 32/20 A3015 RMK AO2 SLP212 T03220200
KVBT 151556Z AUTO 25008KT 10SM CLR A3016 RMK AO2 SLPNO FZRANO $
KSRC 151556Z AUTO VRB03KT 10SM CLR 32/20 A3013 RMK AO2 SLP199 T03220200
KSGT 151556Z AUTO 36004KT 10SM CLR 32/23 A3012 RMK AO2 SLP198 T03170233
KBVX 151556Z AUTO 17006KT 10SM CLR 33/13 RMK AO2 SLPNO T03330133 $
KEGE 151556Z 00000KT 10SM CLR 19/11 A3045 RMK AO2 SLP196 T01890106
KLRF 151556Z AUTO 00000KT 10SM CLR 33/19 A3009 RMK AO2 SLP189 T03260191 $
KHND 151556Z 01007KT 350V050 10SM CLR 31/16 A3013 RMK AO2 SLP187 T03110156
KCTB 151556Z AUTO 29004KT 10SM CLR 26/10 A3002 RMK AO2 SLP129 T02610100
KLCI 151556Z AUTO VRB05KT 10SM FEW055 26/12 A3014 RMK AO2 SLP204 T02560117 PNO $
KEEN 151556Z AUTO 35009KT CLR 25/08 A3016 RMK AO2 SLP215 T02500078 $
KASH 151556Z 31008KT 10SM CLR 26/11 A3015 RMK AO2 SLP214 T02610106 $
KFKL 151556Z AUTO 00000KT 10SM SCT049 23/11 A3022 RMK AO2 SLP229 T02280111 $
KBID 151556Z AUTO 06005KT 10SM CLR 23/14 A3017 RMK AO2 SLP216 T02330139
KSFZ 151556Z AUTO VRB06KT CLR 26/10 A3016 RMK AO2 SLP210 T02560100 $
KAJO 151556Z AUTO 30004KT 10SM CLR 23/17 RMK AO2 SLPNO T02330167 $
KOCH 151556Z AUTO 16006KT 10SM SCT027 BKN034 29/23 A3010 RMK AO2 SLP192 T02940233
KILE 151556Z AUTO 00000KT 10SM CLR 31/20 A3009 RMK AO2 SLP178 T03060200
KGDV 151556Z AUTO 16008KT CLR 28/16 A3003 RMK AO2 SLP146 T02830161 PWINO $
KHYI 151556Z VRB03KT 10SM CLR 31/22 A3008 RMK AO2 SLP175 T03110217
KSDY 151556Z AUTO 14004KT 10SM CLR 27/18 A3001 RMK AO2 SLP151 T02720183
KSKF 151556Z AUTO 00000KT 10SM CLR 29/22 A3005 RMK AO2 SLP169 T02900215 $
KNGP 151556Z 15010KT 10SM FEW025 BKN070 BKN100 OVC200 31/24 A3006 RMK AO2 SLP178 CB DSNT N-NE AND E-SE AND NW T2 SET T03060239
KNQI 151556Z VRB06KT 10SM SCT028TCU BKN100 BKN250 31/24 A3005 RMK AO2 SLP171 TCU SW T03110239 $
KCBM 151556Z 08005KT 10SM CLR 31/22 A3010 RMK AO2A SLP193 T03130223 RVRNO $
KNMM 151556Z 15004KT 10SM SCT020 29/24 A3013 RMK AO2 SLP209 T02940239
KPTN 151556Z AUTO 17004KT 10SM VCTS BKN021 BKN033 OVC049 A3012 RMK AO2 LTG DSNT ALQDS TSB42 SLPNO FZRANO $
KBAD 151556Z AUTO 16003KT 10SM CLR 31/22 A3009 RMK AO2 SLP192 T03100223
KMGE 151556Z 00000KT 10SM FEW050 FEW250 30/16 A3015 RMK AO2A SLP200 T03010157 $
KPTV 151556Z AUTO 20006KT 10SM CLR 28/13 A2996 RMK AO2 SLP142 T02780133
PMDY 151556Z AUTO 08014KT 10SM FEW018 26/23 A3017 RMK AO2 SLP219 T02610233 TSNO
PARY 151556Z AUTO 07005KT 4SM RA BR BKN035 OVC046 11/08 A2965 RMK AO2 SLP045 P0006 T01060083
PAKI 151556Z AUTO 24013KT 10SM OVC007 09/09 A2970 RMK AO2 SLP061 T00940094 $
PAHL 151556Z AUTO 05003KT 10SM CLR 13/08 A2963 RMK AO2 SLP036 T01330078
PAVA 151556Z AUTO 29006KT 10SM FEW008 OVC018 11/10 A2966 RMK AO2 SLP047 T01060100 PNO $
KAFJ 151556Z AUTO VRB03KT 10SM CLR 26/12 A3022 RMK AO2 SLP226 T02560122
KMIB 151556Z 17005KT 10SM SCT005 BKN010 21/20 A3004 RMK AO2A SLP173 T02090202 $
PADU 151556Z 08010G14KT 10SM FEW018 SCT110 BKN180 16/13 A2971 RMK AO2 SLP064 T01610133 PNO $
PAGS 151556Z AUTO 33004KT 10SM BKN048 13/11 A2985 RMK AO2 SLP109 T01280106
PAIN 151556Z AUTO 00000KT 10SM CLR 10/06 A2977 RMK AO2 SLP093 T01000061
PAVD 151556Z 00000KT 10SM FEW020 BKN033 OVC043 12/09 A2991 RMK AO2 SLP126 T01170089 $
PAWG 151556Z 00000KT 10SM -RA SCT032 BKN041 OVC080 13/12 A2985 RMK AO2 SLP107 P0000 T01280122 $
PAZK 151556Z AUTO 25009KT 7SM SCT003 OVC095 09/08 A2981 RMK AO2 SLP110 T00890078
PPIZ 151556Z AUTO 03009KT 10SM OVC011 03/01 A2990 RMK AO2 SLP127 T00330011
KOKK 151556Z AUTO 19006KT 10SM OVC065 26/18 A3019 RMK AO2 SLP219 T02560178 PNO $
KOTG 151556Z AUTO 08009KT 10SM FEW012 26/22 A2997 RMK AO2 SLP140 T02560217
KTVF 151556Z AUTO 10005KT 10SM CLR 25/19 A3006 RMK AO2 SLP178 T02500189
KGPZ 151556Z AUTO 00000KT 10SM CLR 22/17 A3008 RMK AO2 SLP184 T02220167
KGUS 151556Z AUTO 22005KT 10SM BKN050 OVC065 25/17 A3017 RMK AO2 SLP215 T02500169 $
KMKT 151556Z AUTO 13014KT 10SM OVC018 25/21 A2999 RMK AO2 SLP150 T02500206
KAIZ 151556Z AUTO 20010KT CLR 32/21 A3010 RMK AO2 SLP180 T03170206 $
KOLU 151556Z AUTO 31007KT 10SM CLR 31/23 A2998 RMK AO2 SLP139 T03110233
KTBN 151556Z AUTO 20009KT 10SM CLR 33/19 A3013 RMK AO2 SLP191 T03280185
KEAR 151556Z AUTO 03014KT 10SM CLR 32/22 A3004 RMK AO2 SLP149 T03170217
KGNA 151556Z AUTO 09006KT 13/06 A3006 RMK AO1 SLP180 T01280061
KOFK 151556Z AUTO 34011KT 10SM CLR 31/21 A2996 RMK AO2 SLP127 T03110211
KOWB 151556Z 00000KT 10SM FEW090 30/21 A3015 RMK AO2 SLP207 T03000206
KSDF 151556Z 34003KT 10SM FEW045 SCT065 BKN100 BKN150 BKN250 30/17 A3016 RMK AO2 SLP208 T03000172
KBMI 151556Z 14004KT 10SM -RA FEW065 OVC090 21/20 A3014 RMK AO2 SLP199 P0004 T02060200
KCEF 151556Z 08004KT 10SM FEW050 FEW250 25/12 A3015 RMK AO2A SLP215 T02500122
KPVC 151556Z AUTO 34006KT 10SM CLR 21/17 A3016 RMK AO2 SLP212 T02110167
KNXF 151556Z AUTO 10SM 19/17 A2997 RMK AO2 SLP233 T01890172 $
KGTR 151556Z 08008KT 10SM FEW032 31/22 A3013 RMK AO2 SLP208 T03110217
KHEZ 151556Z AUTO 10003KT 10SM FEW029 31/23 A3012 RMK AO2 SLP199 T03060228
KPIB 151556Z AUTO VRB04KT 10SM FEW026 30/24 A3014 RMK AO2 SLP202 T03000239
KWRB 151556Z 03003KT 10SM SCT030 BKN120 29/24 A3014 RMK AO2A SLP206 T02890240
KLZU 151556Z 00000KT 10SM CLR 29/19 A3016 RMK AO2 SLP214 T02890189
KQVF 151556Z AUTO 16006G18KT 9999 CLR 24/22 A2999 RMK AO2 SLP158 WND DATA ESTMD T02370220
EGUL 151556Z 32009KT 9999 SCT060 24/09 A3015 RMK AO2A SLP213 T02370093 $
EGUN 151556Z 28013KT 9999 BKN070 BKN200 24/10 A3015 RMK AO2A SLP213 T02390095 $
KCXY 151556Z VRB05KT 10SM FEW060 28/13 A3016 RMK AO2 SLP210 T02830128
KMDT 151556Z VRB03KT 10SM FEW055 28/12 A3015 RMK AO2 SLP207 T02830117
PFNO 151556Z AUTO 06004KT 9SM BKN003 09/09 A2969 RMK AO2 SLP133 T00940089
PACM 151556Z AUTO 29004KT 10SM FEW010 OVC030 12/ A2968 RMK AO2 SLP046 T0122 PNO $
PAHC 151556Z AUTO 19004KT 2SM RA BR OVC005 11/10 A2963 RMK AO2 CIG 003V010 SLP037 P0006 T01060100 $
PAJZ 151556Z AUTO 20016G20KT 5SM BR OVC005 11/10 A2981 RMK AO2 RAB14E37 SLP100 P0000 T01060100 $
PAMB 151556Z AUTO 24008KT 3SM -RA BR OVC003 10/10 A2980 RMK AO2 RAB06 SLP095 P0000 T01000100 $
KBIH 151556Z AUTO 00000KT 10SM CLR 28/10 A3013 RMK AO2 SLP144 T02830100
KTPH 151556Z AUTO 17012G17KT 10SM CLR 26/12 A3028 RMK AO2 SLP158 T02560117
PAED 151556Z 00000KT 10SM FEW060 SCT140 BKN190 13/09 A2977 RMK AO2A SLP077 T01310092 $
PFYU 151556Z 00000KT 10SM FEW080 13/06 A2975 RMK AO2 SLP083 T01280061 $
PAKK 151556Z AUTO 35009G15KT 10SM -RA OVC070 10/08 A2962 RMK AO2 SLP037 P0001 T01000083
PATG 151556Z AUTO 21008KT 10SM BKN013 OVC019 11/10 A2980 RMK AO2 RAB01E40 SLP091 P0002 T01060100
KMQY 151556Z 00000KT 10SM FEW040 31/21 A3017 RMK AO2 SLP219 T03060206
KHST 151556Z AUTO 08011G17KT 10SM FEW190 30/23 A3008 RMK AO2 LTG DSNT NE SLP189 T02990226
KSBP 151556Z 00000KT 10SM CLR 18/13 A2998 RMK AO2 SLP150 T01780128 $
KPVU 151556Z VRB05KT 10SM OVC110 21/18 A3026 RMK AO2 RAE38 SLP196 P0001 T02110178
KDIK 151556Z AUTO 17005KT 10SM CLR 30/21 A3005 RMK AO2 SLP152 T03000206
KRDR 151556Z 10004KT 10SM SCT040 25/19 A3005 RMK AO2A SLP178 T02480185 FZRANO $
KJMS 151556Z AUTO 16004KT 10SM SCT014 OVC023 26/20 A3006 RMK AO2 SLP174 T02560200
KEKQ 151556Z AUTO VRB03KT 10SM SCT039 29/20 A3020 RMK AO2 SLP213 T02890200
KMTW 151556Z AUTO 09003KT 8SM -RA FEW039 OVC085 16/14 A3009 RMK AO2 SLP189 P0010 T01560144
KVOK 151556Z 00000KT 10SM SCT006 BKN045 BKN100 18/16 A3004 RMK AO2A SCT006 V BKN SLP174
KY50 151556Z AUTO 16005KT 1 1/4SM BR OVC010 17/16 A3009 RMK AO2 CIG 008V013 SLP185 T01720156 PWINO $
KCWI 151556Z AUTO 09008KT 10SM -RA BKN006 OVC070 20/ A3013 RMK AO2 LTG DSNT N AND S AND SW CIG 003V009 SLP204 P0001 T0200
KJAC 151556Z 00000KT 10SM CLR 18/10 A3036 RMK AO2 SLP221 T01830100
PASA 151556Z AUTO 03012KT 6SM BR OVC006 07/06 A2986 RMK AO2 SLP111 T00670061
PASH 151556Z AUTO 34020KT 6SM BR BKN010 OVC095 08/06 A2980 RMK AO2 SLP091 T00780061
PAMH 151556Z AUTO 00000KT 10SM -RA OVC070 12/09 A2969 RMK AO2 RAB46 SLP049 P0000 T01170089
PAUN 151556Z AUTO 08006KT 10SM -RA FEW013 BKN019 OVC038 12/12 A2960 RMK AO2 SLP025 P0000 T01220117
PAIK 151556Z AUTO 11003KT 10SM OVC110 09/07 A2971 RMK AO2 SLP062 T00940072
PAMM 151556Z AUTO 34005KT 7SM -RA OVC006 13/12 A2984 RMK AO2 CIG 003V010 SLP097 T01280122 PNO $
KMVN 151556Z AUTO 00000KT 10SM CLR 28/22 A3015 RMK AO2 SLP208 T02830217
KBLV 151556Z 22007KT 10SM FEW150 SCT190 BKN250 28/18 A3011 RMK AO2A SLP195 T02840179 VISNO RWY14R CHINO RWY14R $
KUKI 151556Z AUTO 35005KT 10SM CLR 20/11 A3000 RMK AO2 SLP152 T02000111
KLAS 151556Z 00000KT 10SM FEW120 SCT160 BKN220 31/16 A3009 RMK AO2 SLP164 T03060161
KMHS 151556Z AUTO 00000KT 10SM CLR 23/11 A3011 RMK AO2 SLP180 T02280111
KWJF 151556Z 00000KT 10SM CLR 32/11 A3003 RMK AO2 SLP143 T03170106
KCEC 151556Z AUTO 31003KT 6SM BR BKN015 14/13 A3012 RMK AO2 SLP199 T01390128
KEED 151556Z AUTO 36011KT 10SM CLR 34/18 A2997 RMK AO2 SLP112 T03390178
KSFO 151556Z 29009KT 10SM FEW006 SCT013 16/11 A3002 RMK AO2 SLP166 T01560111 $
KFOD 151556Z AUTO 13003KT 10SM CLR 29/21 A2992 RMK AO2 SLP133 T02940211
KAND 151556Z AUTO VRB03KT 10SM FEW049 FEW055 31/18 A3015 RMK AO2 SLP197 T03110183
KP53 151556Z AUTO 19006KT 21/12 A3011 RMK AO1 SLP197 T02060122
KFTK 151556Z AUTO 22004KT 10SM SCT050 BKN065 BKN200 29/17 A3016 RMK AO2 SLP209 T02900168 $
PADK 151556Z AUTO 25016KT OVC008 10/10 A2966 RMK AO2 CIG 005V012 SLP043 T01000100 PWINO
PADL 151556Z 20010G16KT 2SM -RA BR OVC004 11/10 A2980 RMK AO2 RAB43 SLP094 P0000 T01060100
PAFM 151556Z AUTO 05008KT 10SM SCT110 12/07 A2972 RMK AO2 SLP066 T01220072
PABV 151556Z AUTO 00000KT 10SM CLR 12/10 A2980 RMK AO2 SLP097 T01220100 PNO $
PAFE 151556Z AUTO 00000KT 1 1/2SM BR OVC001 12/11 A2987 RMK AO2 RAE40 SLP125 P0001 T01170111 $
KGRK 151556Z AUTO 06005KT 10SM CLR 31/19 A3006 RMK AO2 SLP167 T03070190
PABL 151556Z AUTO 29006KT 10SM 11/09 A2971 RMK AO2 SLP063 T01110089 $
PAMK 151556Z AUTO 01018G24KT 10SM -RA FEW007 BKN013 OVC028 13/12 A2958 RMK AO2 SLP018 T01330122 PNO $
PAAK 151556Z AUTO 20009KT 10SM OVC080 A2970 RMK AO2 RAE12 SLPNO FZRANO PNO $
PAIG 151556Z AUTO RMK AO2 SLPNO PWINO FZRANO $
PATQ 151556Z AUTO 33006KT 10SM OVC006 02/01 A2987 RMK AO2 SLP119 T00170006 FZRANO TSNO
KLNR 151556Z AUTO 22006G16KT 10SM BKN080 22/19 A3004 RMK AO2 LTG DSNT NW RAE04 SLP165 P0000 T02220194
KVPZ 151556Z AUTO 00000KT 1/2SM +RA FG SCT028 BKN039 OVC049 19/18 A3018 RMK AO2 RAE01B14 SLP216 P0036 T01940183
KESC 151556Z AUTO 18006KT 10SM CLR 20/13 A3012 RMK AO2 SLP204 T02000133
KHYS 151556Z AUTO 10SM CLR 37/16 A2998 RMK AO2 SLP126 T03720161 $
KSUE 151556Z AUTO 32005KT 10SM BKN036 BKN045 18/13 A3012 RMK AO2 RAB13E34 SLP198 T01830128
KMML 151556Z AUTO 08006KT 10SM BKN020 26/22 A3000 RMK AO2 SLP153 T02610222
KJXN 151556Z 17006KT 10SM FEW048 FEW060 25/13 A3019 RMK AO2 SLP219 T02500133
KMNM 151556Z AUTO 00000KT 10SM SCT065 17/13 A3012 RMK AO2 SLP199 T01720128 PNO $
KSQI 151556Z 04005KT 1 1/4SM +RA BR BKN004 OVC007 20/20 A3016 RMK AO2 SLP077 P0027 T02000200
KSZL 151556Z 18010KT 10SM BKN100 26/21 A3000 RMK AO2A RAE1456 SLP153 T02590209 $
PGUA 151556Z AUTO 11008KT 10SM BKN014 BKN019 27/24 A2988 RMK AO2 CIG 011 RWY24L SLP109 T02660240 $
PAWM 151556Z AUTO 34010KT 8SM -RA OVC055 08/08 A2968 RMK AO2 SLP054 P0000 T00830078
K2DP 151556Z AUTO 19006KT 10SM SCT100 BKN120 BKN150 24/19 A3015 RMK AO2 LTG DSNT S RAE32 SLPNO P0002 T02440188 $
PFEL 151556Z AUTO 01014KT 10SM OVC065 12/07 A2965 RMK AO2 RAE10 SLP040 P0000 T01220067
PFKT 151556Z AUTO 00000KT 10SM FEW070 OVC090 08/05 A2979 RMK AO2 SLP087 T00830050
KMKY 151556Z AUTO 04009KT 10SM FEW036 32/21 A3011 RMK AO2 SLP196 T03170211 TSNO PNO $
KDWU 151556Z AUTO 00000KT 10SM CLR 28/19 A3017 RMK AO2 SLP211 T02830189
PFWS 151556Z AUTO 20009KT 9SM OVC004 10/09 A2985 RMK AO2 SLP149 T01000094
PFCL 151556Z AUTO 23012KT 10SM OVC008 11/09 A2981 RMK AO2 SLP088 T01060094 TSNO
PAQH 151556Z AUTO 19016KT 10SM OVC007 11/10 A2975 RMK AO2 CIG 006V012 SLP075 T01060100
PFKW 151556Z AUTO 22013G19KT 2 1/2SM -RA BR OVC005 10/10 A2968 RMK AO2 VIS 1 3/4V4 SLP050 P0000 T01000100
PPIT 151556Z AUTO 23014KT 2 1/2SM -RA OVC005 11/ A2966 RMK AO2 RAB1459 SLP047 P0000 T0106 TSNO
K7N0 151556Z AUTO 14005KT 10SM -RA FEW025 SCT060 BKN100 29/24 A3012 RMK AO2 RAB47 SLP198 P0000 T02890239
KQN3 151556Z AUTO VRB06G10KT 9999 CLR 38/21 A2973 RMK AO2 LTG DSNT S SLP055 WND DATA ESTMD T03770209
OTBH 151556Z 08006KT 9999 CLR 36/25 A2938 RMK AO2A SLP946 T03620253 FZRANO $
KRYM 151556Z AUTO 10006KT 10SM FEW016 25/20 A3003 RMK AO2 SLP167 T02450200 FZRANO $
KXNO 151556Z AUTO 18004KT 10SM FEW160 FEW180 SCT200 26/26 A3015 RMK AO2 SLP210 T02600260 $
KEKY 151556Z AUTO VRB04KT CLR 29/22 A3016 RMK AO2 SLP058 T02940217 PWINO RVRNO $
KSEQ 151556Z AUTO 04004KT 10SM CLR 30/21 A3005 RMK AO2 LTG DSNT SE SLP171 T02970213 $
KNOG 151556Z AUTO 19006KT 10SM OVC085 31/22 A3005 RMK AO2 SLP156 T03060217 PNO $
KBIX 151556Z AUTO 00000KT 10SM FEW021 SCT027 SCT055 BKN070 BKN085 30/24 A3010 RMK AO2 SLP196 T02950241
RKJK 151556Z AUTO 30003KT 6SM BR CLR 23/22 A2948 RMK AO2 SLP987 T02340218 $
KLFI 151556Z 10006KT 10SM FEW140 FEW160 SCT190 29/25 A3011 RMK SLP202 T02920247 $
KNPA 151556Z 00000KT 10SM FEW027 SCT034 SCT140 BKN250 29/22 A3011 RMK SLP199 T02890222
KHPN 151556Z 12008KT 10SM SCT049 SCT080 27/15 A3016 RMK AO2 SLP205 T02720150
KNSE 151556Z VRB04KT 10SM SCT015 SCT035 BKN150 28/23 A3012 RMK SLP185 T02780228
OEPS 151556Z 36006KT 6000 HZ SCT150 40/M01 A2960 RMK AO2A SLP989 WND DATA ESTMD T04011012
KPVG 151556Z AUTO VRB04KT 8SM BKN016 BKN060 28/24 A3013 RMK AO2 TSB06E08 SLP203 T02830244 TSNO
KNLC 151556Z 32008KT 10SM CLR 28/07 A2994 RMK SLP137 RH/27 T02780072
TJSJ 151556Z 07017KT 10SM FEW027 SCT035 31/25 A3003 RMK AO2 SLP168 VCSH SE S SW W T03110250
KDVL 151556Z AUTO 15005KT 10SM OVC020 23/19 A3008 RMK AO2 SLP193 T02280189
KXMR 151556Z AUTO 10008KT 10SM CLR 31/23 A3013 RMK AO2 SLP206 T03110234 $
KEGI 151556Z AUTO 35003KT 10SM SCT021 28/23 A3011 RMK AO2 SLP195 T02810225 $
KJAX 151556Z 06003KT 10SM FEW030 SCT065 SCT180 BKN250 29/23 A3015 RMK AO2 SLP211 T02890228
KNDZ 151556Z VRB03KT 10SM FEW015 SCT021 SCT110 BKN250 28/24 A3012 RMK AO2 SLP185 T02830239 $
KTDR 151556Z AUTO 10008KT 10SM FEW011 FEW033 BKN140 26/23 A3010 RMK AO2 LTG DSNT S RAB15E29 SLP196 P0000 T02640232 $
KNUW 151556Z 19009KT 10SM FEW015 FEW120 BKN150 BKN230 16/11 A3010 RMK AO2 SLP191 T01560111 VISNO $
KCOD 151556Z AUTO 19009KT 10SM CLR 28/09 A3020 RMK AO2 SLP170 T02780089
KP60 151556Z AUTO 11003KT 15/09 A3044 RMK AO1 SLP235 T01500094
KMEH 151556Z AUTO VRB03KT 10SM CLR 20/05 A3011 RMK AO2 SLP172 T02000050
KOTH 151556Z VRB03KT 10SM OVC014 15/12 A3014 RMK AO2 SLP207 T01500117
KSLE 151556Z 17005KT 10SM CLR 17/11 A3010 RMK AO2 SLP191 T01720106
KFBG 151556Z AUTO 22005KT 10SM FEW014 SCT022 SCT190 27/23 A3011 RMK AO2 SLP197 T02670227 $
KISO 151556Z 19005KT 10SM CLR 26/22 A3015
KLBT 151556Z AUTO 17004KT 10SM BKN012 26/23 A3012 RMK AO2 SLP199 T02560233 TSNO
KHFF 151556Z AUTO 00000KT 10SM SCT017 SCT200 28/24 A3011 RMK AO2 SLP196 T02780238 $
KNCA 151556Z 03003KT 10SM -RA SCT030 BKN120 24/23 A3012 RMK AO2 TSE1457 SLP202 P0004 T02390233
KPOB 151556Z AUTO 00000KT 10SM FEW016 27/23 A3011 RMK AO2 SLP197 T02720226 $
KGSB 151556Z 12005KT 10SM BKN013 OVC075 25/20 A3012 RMK AO2A SLP202 T02520202 $
KSOP 151556Z AUTO 25003KT 10SM SCT017 29/24 A3014 RMK AO2 SLP207 T02890239 TSNO
KDAY 151556Z VRB04KT 10SM FEW055 BKN250 27/16 A3020 RMK AO2 SLP221 T02670161
KSGH 151556Z AUTO 00000KT 10SM CLR 26/16 A3020 RMK AO2 SLP223 T02560161 $
KBJJ 151556Z AUTO VRB03KT 10SM CLR 24/10 A3021 RMK AO2 SLP227 T02390100
KFFO 151556Z AUTO 08004KT 10SM CLR 27/15 A3016 RMK AO2 SLP211 T02670148
KGVQ 151556Z AUTO 11003KT 10SM FEW060 SCT080 25/10 A3019 RMK AO2 SLP217 T02500100
KHWV 151556Z AUTO 35005KT 10SM SCT100 27/15 A3016 RMK AO2 SLP211 T02670150
KISP 151556Z 01006KT 10SM SCT060 BKN090 BKN250 25/16 A3016 RMK AO2 SLP212 T02500156
KITH 151556Z 00000KT 10SM CLR 25/10 A3020 RMK AO2 SLP223 T02500100 $
KJHW 151556Z AUTO VRB03KT 10SM CLR 22/11 A3023 RMK AO2 SLP236 T02220106
KJRB 151556Z AUTO 05005KT 10SM BKN075 28/15 A3016 RMK AO2 SLP213 T02830150
KMSV 151556Z AUTO VRB04KT 10SM CLR 25/11 A3021 RMK AO2 SLP222 T02500106 PNO $
KART 151556Z AUTO 24006KT 10SM CLR 26/13 A3016 RMK AO2 SLP210 T02560128
KELZ 151556Z AUTO VRB03KT 10SM CLR 24/05 A3024 RMK AO2 SLP232 T02390050
KBKX 151556Z AUTO 05008KT 10SM BKN017 27/21 A3003 RMK AO2 SLP169 T02670211
K2WX 151556Z AUTO 11006KT 30/16 A3007 RMK AO1 SLP152 T03000156
KRCA 151556Z AUTO 00000KT 10SM CLR 29/15 A3011 RMK AO2 SLP167 T02880149 $
KD07 151556Z AUTO VRB06KT 31/19 A3007 RMK AO1 SLP162 T03110189
KFSD 151556Z 03010KT 10SM SCT015 BKN019 27/22 A3000 RMK AO2 SLP146 T02720222
K8D3 151556Z AUTO 10005KT 27/21 A3003 RMK AO1 SLP145 T02720211
KYKN 151556Z AUTO 35012KT 10SM CLR 31/22 A2998 RMK AO2 SLP151 T03060222
KQD3 151556Z AUTO 26007KT 9999 BKN100 BKN120 40/16 A2955 RMK AO2 SLPNO WND DATA ESTMD T04030157
KQAZ 151556Z AUTO VRB04KT 9999 CLR 40/12 A2972 RMK AO2 SLP055 WND DATA ESTMD T04010117
KQDG 151556Z AUTO 12013G19KT 8000 BR OVC005 19/18 A2984 RMK AO2 SLP106 T01890177
KQRH 151556Z AUTO VRB05KT 9999 BKN100 41/16 A2949 RMK AO2 SLP989 WND DATA ESTMD T04140156
KBLM 151556Z AUTO 09008KT 10SM SCT065 26/18 A3017 RMK AO2 SLP216 T02560178
KWRI 151556Z AUTO 12006KT 10SM CLR 29/14 A3014 RMK AO2 SLP205 T02870137
KWWD 151556Z AUTO 07009KT 10SM FEW019 BKN100 26/22 A3014 RMK AO2 SLP207 T02610222 $
KCGZ 151556Z AUTO VRB03KT 10SM CLR 35/18 A2996 RMK AO2 SLP126 T03500178 $
PAKP 151556Z AUTO 04004KT 10SM OVC050 05/04 A2976 RMK AO2 RAB12E46 SLP103 P0000 T00500039
PAGN 151556Z AUTO 00000KT 10SM OVC060 13/12 A2985 RMK AO2 SLP098 P0001 T01330117
PANI 151556Z AUTO 21007KT 2SM -RA BR OVC006 10/09 A2971 RMK AO2 VIS 1 1/2V4 CIG 005V009 SLP052 P0004 T01000094 $
PASK 151556Z AUTO 00000KT 10SM BKN003 12/12 A2969 RMK AO2 SLP052 T01220117
KGTU 151556Z VRB04KT 10SM CLR 31/21 A3010 RMK AO2 SLP183 T03060211
KCHS 151556Z 12003KT 10SM -RA FEW010 SCT030 BKN120 BKN200 25/23 A3016 RMK AO2 SLP212 P0000 T02500228
KMMT 151556Z 00000KT 10SM FEW030 SCT110 BKN210 28/25 A3012 RMK AO2A SLP200 T02760246 $
KFRI 151556Z 19012KT 10SM FEW140 32/20 A2997 RMK AO2A SLP134 T03240196 FZRANO $
KGBD 151556Z AUTO 22013KT 10SM CLR 34/19 A2999 RMK AO2 SLP131 T03390194
KLBL 151556Z AUTO 23010KT 10SM CLR 34/16 A3010 RMK AO2 SLP148 T03440156
KIAB 151556Z AUTO 18007KT 10SM BKN160 30/19 A3004 RMK AO2 SLP159 T03030193 $
KP28 151556Z AUTO 19009KT 31/19 A3002 RMK AO1 SLP145 T03060194 $
KEWK 151556Z AUTO 17012KT 10SM CLR 31/19 A3005 RMK AO2 SLP154 T03060194
KCOE 151556Z AUTO VRB03KT 10SM TS CLR 18/12 A3002 RMK AO2 LTG DSNT S-NW TSB56 SLP168 T01830122 PNO $
BGTL 151556Z AUTO M 9999 BKN130 13/13 A2982 RMK AO2 SLP080 T01270127 TSNO $
KSGU 151556Z AUTO VRB04KT 10SM CLR 30/16 A3013 RMK AO2 SLP163 T03000156
KENV 151556Z AUTO 09009KT 10SM CLR 27/12 A3017 RMK AO2 SLP168 T02720117
KAQV 151557Z AUTO VRB05KT 10SM FEW039 31/23 A3008 RMK AO2 SLP183 T03110228
KNJM 151557Z AUTO 00000KT 7SM -RA BKN110 24/22 A3015 RMK AO2 TSE38 SLP212 P0015 T02390222
PHNG 151557Z 06009KT 10SM FEW033 OVC047 24/21 A3006 RMK AO2 SLP175 T02440206 $
KNYL 151557Z 18003KT 7SM FEW120 36/09 A2986 RMK AO2 SLP109 T03610094
KNJW 151557Z AUTO 14005KT 10SM CLR 28/23 A3016 RMK AO2 SLP126 T02830233
KFLG 151557Z VRB03KT 10SM CLR 23/11 A3043 RMK AO2 SLP200 T02280111
K9L2 151558Z AUTO 07004KT 9SM CLR 31/10 A3003 RMK AO2 SLP138 T03070103 $
KABH 151558Z AUTO 18005KT 10SM CLR 29/08 A3035 RMK AO2 SLP188 T02910082 $
KBYS 151558Z AUTO 16006KT 7SM FEW140 33/12 A3004 RMK AO2 SLP136 T03250116 FZRANO $
KINS 151558Z AUTO 12006KT 10SM CLR 30/12 A3013 RMK AO2 SLP152 T03000115 $
KBAB 151558Z AUTO 00000KT 10SM CLR 23/11 A2994 RMK AO2 SLP141 T02280106 $
KSUU 151558Z AUTO 22016KT 10SM CLR 19/12 A2994 RMK AO2 PK WND 25027/36 SLP145 T01910116 $
RKSO 151558Z AUTO 00000KT 5SM BR FEW012 23/23 A2948 RMK AO2 SLP985 T02300229 TSNO $
KHLR 151558Z AUTO 00000KT 10SM CLR 30/20 A3009 RMK AO2 SLP178 T03040200
KHMN 151558Z 26003KT 10SM CLR 31/09 A3022 RMK AO2A SLP141 ALSTG/SLP ESTMD $
KCVS 151558Z AUTO 24008KT 10SM CLR 30/11 A3023 RMK AO2 SLP169 T02990114 $
KBKF 151558Z 27003KT 10SM FEW120 SCT220 26/12 A3032 RMK AO2A SLP185 T02630116
KGFA 151558Z AUTO 00000KT 10SM FEW190 29/09 A3001 RMK AO2 SLP126 T02850092 $
KTCM 151558Z AUTO 22008KT 10SM CLR 18/12 A3009 RMK AO2 SLP192 T01770115
KROG 151558Z 25007KT 10SM CLR 32/20 A3016 RMK AO2 SLP194 T03170200 $
KLSV 151558Z AUTO 00000KT 10SM FEW170 35/16 A3005 RMK AO2 SLP151 T03480156 $
KEDW 151558Z 00000KT 60SM CLR 29/12 A3002 RMK AO2A SLP138 T02860116
KRIV 151558Z AUTO 34004KT 10SM CLR 28/16 A2998 RMK AO2 SLP138 T02760162
KSLI 151558Z 21005KT 7SM BKN010 20/17 A2995 RMK AO2A SLP145 T01950167
KEUF 151558Z AUTO VRB05KT 10SM FEW027 31/22 A3013 RMK AO2 SLP199 T03060222 $
PHSF 151558Z AUTO 06006KT 10SM CLR 12/01 A3036 RMK AO2 SLP164 T01210005 $
KAFF 151558Z AUTO 33008KT 10SM FEW140 BKN170 26/09 A3036 RMK AO2 SLP180 T02590088 $
KFCS 151558Z AUTO 11003KT 10SM BKN130 29/07 A3029 RMK AO2 SLP187 T02900070 $
KBIF 151558Z AUTO 12005KT 10SM CLR 31/09 A3021 RMK AO2 SLP155 T03050094 $
KHIF 151558Z 21017KT 10SM -RA OVC090 20/16 A3025 RMK AO2A RAB37 SLP182 P0001 T02030163
KVBG 151558Z 27003KT 2SM BR OVC005 14/13 A3000 RMK AO2A SLP162 $
KCMY 151558Z AUTO 18003KT 10SM BKN085 OVC120 19/18 A3006 RMK AO2 LTG DSNT S RAE09 SLP180 P0001 T01850183 $
KGUR 151558Z AUTO 14004KT 9SM CLR 30/14 A3019 RMK AO2 SLP183 T02970138
KT70 151558Z AUTO 13006KT 10SM CLR 29/22 A3002 RMK AO2 SLP153 T02890217 $
K1CW 151558Z AUTO 14010KT 10SM CLR 31/09 A3019 RMK AO2 SLP151 T03140090 $
K1NW 151558Z AUTO 22006KT 10SM CLR 30/12 A3020 RMK AO2 SLP160 T03000124 $
K1KM 151558Z AUTO 00000KT 10SM CLR 26/09 A3010 RMK AO2 LTG DSNT W SLP144 T02620092 $
K1GM 151558Z AUTO 15013KT 10SM CLR 25/10 A3000 RMK AO2 SLP111 T02530095
KBCR 151558Z AUTO 02003KT 10SM CLR 27/22 A3013 RMK AO2 SLP160 T02720222 $
PAFB 151558Z 06004KT 10SM BKN110 BKN200 11/05 A2977 RMK AO2A SLP073 T01110050 $
KSKA 151558Z 14003KT 10SM FEW070 SCT100CB 17/11 A3000 RMK AO2A LTG DSNT E TSB39E54 SLP149 P0000 T01740114 $
KPRN 151558Z AUTO 00000KT 10SM BKN012 25/22 A3014 RMK AO2 SLP152 T02500222
KMUO 151558Z AUTO 31011KT 10SM FEW180 29/07 A2999 RMK AO2 SLP120 T02920065 $
KAPG 151558Z 09007KT 7SM FEW150 28/18 A3014 RMK AO2A SLP209 T02750182 $
KMEI 151558Z 00000KT 10SM CLR 30/23 A3012 RMK AO2 SLP194 T03000233
PASY 151558Z 02017KT 3SM RA BR OVC005 09/08 A2961 RMK AO2A SLP027 ALSTG/SLP ESTMD WND DATA ESTMD T00870081 RVRNO PNO $
KGOV 151558Z AUTO 23006KT 10SM FEW240 SCT290 SCT330 24/15 A3013 RMK AO2 SLP207 T02440151 $
K1HW 151558Z AUTO 14010G15KT 10SM CLR 30/13 A3017 RMK AO2 SLP167 T03010129 $
K1BW 151558Z AUTO 16008KT 10SM FEW120 28/11 A3025 RMK AO2 SLP168 T02810107 $
K1EW 151558Z AUTO 19009KT 10SM CLR 28/12 A3025 RMK AO2 SLP178 T02810120 $
KMRH 151558Z AUTO 09006KT 10SM -RA FEW085 BKN110 23/22 A3016 RMK AO2 SLP212 P0009 T02330222 TSNO
K1JW 151558Z AUTO 15005KT 10SM CLR 29/11 M RMK AO2 SLPNO T02920108 $
K1OW 151558Z AUTO 15010KT 10SM CLR 27/13 A3027 RMK AO2 SLP177 T02650132 $
K1IW 151558Z AUTO 10004KT 10SM CLR 30/12 A3018 RMK AO2 SLP166 T03010120 $
K1DW 151558Z AUTO 17009G16KT 10SM CLR 28/10 A3025 RMK AO2 SLP173 T02800102 $
K1IM 151558Z AUTO 20005KT 10SM OVC190 28/10 A2999 RMK AO2 SLP120 T02800097 $
K1AM 151558Z AUTO 07007KT M M BKN150 26/12 A3005 RMK AO2 LTG DSNT W SLP088 T02630116 PWINO $
K1AW 151558Z AUTO 18007KT 10SM OVC130 27/12 A3026 RMK AO2 SLP177 T02660122 $
K1MW 151558Z AUTO 17007KT 10SM CLR 30/10 A3018 RMK AO2 SLP163 T03000100 $
K1JM 151558Z AUTO 18005KT 10SM CLR 25/09 A3001 RMK AO2 SLP129 T02540088 $
K1HM 151558Z AUTO 22005KT 10SM CLR 27/11 A2999 RMK AO2 SLP108 T02710111 $
K1FM 151558Z AUTO 19007KT 10SM CLR 25/08 A3006 RMK AO2 SLP139 T02480083 $
K1EM 151558Z AUTO 08003KT 10SM CLR 29/08 A3004 RMK AO2 LTG DSNT W SLP138 T02880084 $
K1DM 151558Z AUTO 15004KT M M CLR 26/12 A3001 RMK AO2 LTG DSNT W SLP136 T02630119 PWINO $
K1CM 151558Z AUTO 33005KT 10SM BKN150 26/10 A3009 RMK AO2 SLP143 T02600101 $
KQVG 151558Z AUTO 32005KT 5SM BR CLR 14/13 A3000 RMK AO2 SLP183 T01350132 $
KQVB 151558Z AUTO 23003KT 4SM BR CLR 14/13 A2999 RMK AO2 SLP253 T01430130 $
KDMA 151558Z AUTO 19005KT 10SM CLR 32/17 A3002 RMK AO2 SLP117 T03230165 $
KFHU 151558Z AUTO 10004KT 10SM CLR 29/14 A3023 RMK AO2 SLP157 T02930135
KGXF 151558Z 35007KT 10SM SCT140 BKN170 BKN200 35/18 A2989 RMK AO2A SLP107 T03540178
KLGF 151558Z AUTO 31004KT 10SM CLR 37/12 A2987 RMK AO2 SLP110 T03700117 TSNO $
KLUF 151558Z 00000KT 10SM SCT100 BKN140 34/17 A2992 RMK AO2A DZB36E50 SLP116 P0000 T03400172 $
KP92 151559Z AUTO VRB04KT 26/21 A3010 RMK AO1 SLP193 T02560211
KNGU 151559Z 14005KT 8SM SCT015 BKN110 OVC250 27/23 A3012 RMK AO2 SLP200 T02720228
KNOZ 151559Z AUTO 18005KT 10SM CLR 37/07 A2988 RMK AO2 SLP067 T03720067
RODE 151559Z AUTO 23009KT 10SM CLR 28/28 A2965 RMK AO2 SLP081 T02830283 $
KFME 151559Z AUTO 28003KT 10SM 28/19 A3016 RMK AO1
