CWRU 140000Z AUTO 35013KT 14/ RMK AO1 SLP123 T0136 58007
CWZV 140000Z AUTO RMK AO1 58010
CWPS 140000Z AUTO RMK AO1 53014
FNLU 140000Z VRB02KT 9000 BKN020 23/20 Q1013 NOSIG
FQMA 140000Z 15002KT 9999 FEW020 SCT025 18/15 Q1028 NOSIG
FQNP 140000Z 21009KT CAVOK 20/18 Q1020
FQTT 140000Z 12010KT CAVOK 23/16 Q1021
SABE 140000Z 11010KT CAVOK 14/11 Q1022 NOSIG RMK PP000
OEDF 140000Z 00000KT 6000 NSC 28/26 Q1002 TEMPO 5000
OEJN 140000Z 00000KT CAVOK 32/24 Q1004 NOSIG
OERK 140000Z 00000KT CAVOK 29/07 Q1008 NOSIG
MHRO 140000Z 09008KT 9999 FEW024CB 30/25 Q1008 A2977 NOSIG
OJAI 140000Z 29006KT 5000 HZ NSC 19/16 Q1013 NOSIG
OPMT 140000Z 00000KT 4000 FU NSC 29/25 Q1003 NOSIG
OPPS 140000Z 18004KT 5000 HZ FEW120 23/16 Q1006
OPSK 140000Z 00000KT 4000 HZ NSC 29/23 Q1001 NOSIG
SAWH 140000Z 07007KT 010V100 9999 SCT040 06/03 Q0992 RMK PP999
ORSU 140000Z 33005KT CAVOK 20/00 Q1009
OEAB 140000Z 23005KT CAVOK 19/12 Q1023 NOSIG
YPXM 140000Z AUTO 11013KT 9999 // OVC005 OVC009 24/24 Q1016
SACO 140000Z 36006KT CAVOK 11/M04 Q1021 NOSIG RMK PP000
LDOS 140000Z 17006KT CAVOK 17/13 Q1012
NFFN 140000Z 32014KT 9999 FEW030 30/20 Q1015 NOSIG
LDSP 140000Z AUTO 30003KT 280V350 CAVOK 19/12 Q1015
MHTR 140000Z 09004KT 9999 FEW024TCU 30/25
SADF 140000Z 07007KT CAVOK 14/11 Q1022 RMK PP000
MWCB 140000Z 22005KT 9999 TS VCSH SCT014CB 28/24 Q1012
NCRK 140000Z AUTO 10003KT //// ////// 26/24 Q1014
NFNA 140000Z 09009KT 9999 BKN022 29/23 Q1017
OEDR 140000Z VRB03KT CAVOK 28/28 Q1001
OEMA 140000Z 33005KT CAVOK 34/M01 Q1011 NOSIG
OMAL 140000Z 16008KT CAVOK 35/15 Q1004 NOSIG
ORBI 140000Z 32007KT CAVOK 27/09 Q1002
SAWG 140000Z 25014KT CAVOK 07/M02 Q1002
NVVW 140000Z 13005KT 9999 SCT020 BKN040 28/24 Q1017
OMDB 140000Z 04006KT 350V090 4000 HZ NSC 33/28 Q1002 TEMPO 3000
SAAR 140000Z 09008KT 7000 NSC 17/03 Q1020 RMK PP000
SAEZ 140000Z 08008KT CAVOK 13/10 Q1022 NOSIG RMK PP000
SANT 140000Z 20003KT 6000 NSC 20/01 Q1019 RMK PP000
SARC 140000Z 14007KT 9000 NSC 16/07 Q1016
SARE 140000Z 14006KT CAVOK 15/06 Q1016 RMK PP///
SARI 140000Z VRB02KT CAVOK 18/17 Q1014 RMK PP000
SASA 140000Z 06004KT 020V120 CAVOK 16/M04 Q1020 RMK PP000
SASJ 140000Z VRB02KT CAVOK 18/M01 Q1018 RMK PP000
SAZN 140000Z 00000KT CAVOK 16/06 Q1019
MDCY 140000Z 00000KT 9999 SCT017 BKN300 26/25 Q1013
MDJB 140000Z 00000KT 9999 FEW018 26/24 Q1014
MDPC 140000Z 06005KT 9999 FEW020 BKN300 28/24 Q1014
MDPP 140000Z 13005KT 9999 FEW018 BKN300 28/24 Q1013
MDBH 140000Z 27006KT 9999 FEW016CB SCT016 BKN300 24/24 Q1014 CB/W/NW
MDLR 140000Z 00000KT 9999 FEW016 BKN300 27/26 Q1013
MHNO 140000Z 18004KT 9999 TS SCT038CB SCT040TCU 21/21
MHCA 140000Z 00000KT 9999 SCT030CB 29/23 RMK CB ALL
MHPL 140000Z 00000KT 9999 FEW022TCU 26/23 Q1011
MDST 140000Z 00000KT 9999 FEW018 BKN300 25/23 Q1013
MHLE 140000Z 00000KT 9999 TS SCT020TCU SCT022CB 18/17
MHSR 140000Z 35004KT 4000 -TSRA SCT028TCU SCT030CB OVC100 20/20
MHTE 140000Z VRB02KT 9999 SCT024TCU 30/25 Q1006
MHYR 140000Z 18004KT 9999 SCT025TCU 26/21
MHCH 140000Z 05008KT 4000 TSRA FEW028TCU SCT030CB OVC070 25/25
MHLC 140000Z VRB02KT 9999 FEW025 BKN070 29/25 Q1008 A2977 NOSIG
MHLM 140000Z 03006KT 9999 TS SCT030CB 29/24 Q1007 A2974 NOSIG
MHTG 140000Z 20002KT 9999 TSVCSH BKN036TCU FEW038CB SCT080 23/19 Q1015 A2997 RERA NOSIG
MYGF 140000Z 09005KT 9999 VCSH VCTS FEW016CB SCT100 BKN200 25/24 A2993
SVMI 140000Z 11005KT 9999 SCT016 SCT080 29/22 Q1011
MRLB 140000Z 08007KT 9999 -RA SCT045 BKN100 25/24 A2983
MROC 140000Z 19003KT 7000 2000SW -RA BCFG OVC010 20/19 A3007 NOSIG
MRPV 140000Z 22001KT 5000 -RA BR BKN005 19/19 A3003 NOSIG
SOCA 140000Z AUTO VRB02KT CAVOK 28/24 Q1011 NOSIG
SPCL 140000Z 05007KT 9999 SCT025 30/22 Q1007 RMK PP000
SPQT 140000Z VRB02KT 9999 FEW010 BKN080 28/24 Q1007 NOSIG RMK PP000
SPRU 140000Z 15008KT 6000 BCFG FEW023 BKN180 16/13 Q1014 RMK PP000
SPST 140000Z 25004KT 9999 SCT040 29/21 Q1006 RMK BIRD HAZARD RWY 17/35 PP000
SPME 140000Z 27006KT CAVOK 21/19 Q1011 RMK BIRD HAZARD RWY 32/14 PP000
SPQU 140000Z 27005KT CAVOK 12/M03 Q1026 RMK PP000
SPSO 140000Z 22011KT 7000 NSC 16/13 Q1014 RMK PP000
SPTN 140000Z 22004KT 9999 OVC025 12/10 Q1018 RMK PP000
SPZO 140000Z 10006KT 070V140 9999 NSC 15/05 Q1027 NOSIG RMK BIRD HAZARD RWY 28 PP000
NGTA 140000Z 13012KT 9999 FEW019 SCT040 BKN100 30/24 Q1012
NCPY 140000Z AUTO 07004KT //// ////// 26/23 Q1013
NCAI 140000Z AUTO 15008KT //// ////// 26/22 Q1019
SBBR 140000Z 05004KT CAVOK 27/05 Q1017
WIII 140000Z 25006KT 5000 HZ FEW020 25/23 Q1014 NOSIG
NIUE 140000Z 08013KT 050V120 9999 SCT018 28/20 Q1018
NVSS 140000Z 13010KT 9999 BKN020 29/23 Q1016
NVVV 140000Z 09010KT 9999 SCT020 BKN290 28/22 Q1017
MWCR 140000Z VRB02KT 9999 FEW018 28/23 Q1011
OKBK 140000Z 18007KT CAVOK 30/25 Q1002 NOSIG
UBBG 140000Z 30004KT 9999 BKN083 22/13 Q1007 NOSIG
UBBN 140000Z VRB02KT 9999 NSC 19/00 Q1006 NOSIG RMK MT OP QFE680
UBBY 140000Z 16008KT 9999 SCT040CB BKN050 23/19 Q1011 NOSIG RMK MT OP
UTSA 140000Z 06006KT 8000 NSC 13/07 Q1010 R07/CLRD70 NOSIG
K1S3 140000Z AUTO 06012G16KT 10SM 28/05 A2972
AGGH 140000Z 05010KT 9999 FEW021 32/24 Q1013
OBBI 140000Z 13003KT CAVOK 32/27 Q1002 NOSIG
OMDW 140000Z 04005KT 2700 HZ NSC 30/27 Q1003 TEMPO 2000 BR
MPPA 140000Z 20004KT(E) 9999 FEW010 27/25 Q1008
TLPC 140000Z VRB02KT 9999 SCT025 28/24 Q1013 NOSIG
OMFJ 140000Z 23002KT 6000 NSC 30/27 Q1003 A2963
OMRK 140000Z 18002KT 2500 HZ NSC 27/24 Q1002 A2961
OMSJ 140000Z 08002KT 2500 1200NE R30/P2000N HZ NSC 29/27 Q1003 TEMPO 2000 BR
NFTV 140000Z 09010KT 9999 SCT020 27/23 Q1018
ORMM 140000Z 12006KT CAVOK 30/26 Q1001 NOSIG
KS71 140000Z AUTO 09009KT 10SM 22/07 A2982
HECA 140000Z 33004KT CAVOK 25/18 Q1011 NOSIG
SCEL 140000Z 22008KT CAVOK 12/06 Q1023 NOSIG
LBBG 140000Z AUTO 27006KT 9999 NCD 13/11 Q1013 NOSIG
LBPD 140000Z AUTO 14003KT 100V160 9999 NCD 15/08 Q1014
LBWN 140000Z AUTO 34005KT 9999 NCD 13/12 Q1013 NOSIG
LBGO 140000Z AUTO VRB02KT 9999 NCD 10/10 Q1014
LBSF 140000Z AUTO 12005KT 9999 NCD 08/06 Q1016 NOSIG
LDDU 140000Z 06004KT 030V100 CAVOK 20/09 Q1015
LDPL 140000Z 08006KT CAVOK 19/17 Q1013
LDRI 140000Z 11005KT CAVOK 20/17 Q1014
LDZA 140000Z 21005KT CAVOK 17/13 Q1011 NOSIG
LDZD 140000Z 12004KT CAVOK 15/14 Q1014
LHBP 140000Z 11006KT CAVOK 15/10 Q1011 NOSIG
LZKZ 140000Z 21002KT CAVOK 12/10 Q1011 NOSIG
TFFR 140000Z AUTO 09002KT 9999 FEW023 27/25 Q1014 TEMPO FEW015CB SCT018TCU
TNCM 140000Z 06010KT 9999 FEW018 29/23 Q1016 NOSIG
SAVC 140000Z 31012KT CAVOK 16/02 Q1011 RMK PP000
MPBO 140000Z 34006KT 9999 SCT020 OVC100 27/26 Q1009
MPTO 140000Z 00000KT 9999 SCT016CB SCT080 26/24 Q1008 NOSIG
MPDA 140000Z 26004KT 9000 VCSH SCT016 OVC100 26/24 Q1010
SCVM 140000Z 18003KT 120V240 CAVOK ///// Q1024
SMJP 140000Z 35003KT 9999 FEW015CB SCT020 27/25 Q1010 NOSIG
SMZO 140000Z 04006KT 9999 FEW010 FEW015CB 29/24 Q1010 NOSIG
LZIB 140000Z 34004KT CAVOK 15/13 Q1010 NOSIG
LZTT 140000Z 24010KT 9999 FEW063 13/08 Q1011
BKPR 140000Z VRB01KT CAVOK 10/08 Q1016 NOSIG
LWSK 140000Z 18002KT CAVOK 10/09 Q1016 NOSIG
HRYR 140000Z VRB03KT 9999 SCT026 SCT100 19/16 Q1019 NOSIG
ZMUB 140000Z 28003MPS 9999 FEW030CB FEW033 BKN100 12/06 Q1021 NOSIG RMK QFE657.8 65 MOP
FIMP 140000Z 30003KT 9999 BKN016 SCT050 19/18 Q1021
LUKK 140000Z 27004KT 230V290 CAVOK 09/07 Q1012 NOSIG
SEGU 140000Z 21013KT 9999 SCT030 BKN100 26/19 Q1009 NOSIG RMK A2982
SECU 140000Z 24011KT 9999 FEW033 15/11 Q1023
SEMT 140000Z 22010KT 9999 OVC015 21/18 Q1012 RMK A2990
SULS 140000Z 16004KT 9999 BKN006 11/10 Q1021
OMAA 140000Z 03009KT 5000 HZ NSC 31/27 Q1001 TEMPO 3000
OMAD 140000Z 05004KT 020V080 5000 HZ NSC 32/28 Q1001 TEMPO 4000
NFTL 140000Z 08011KT 9999 FEW018 28/21 Q1019
NWWW 140000Z AUTO 21007KT 9999 SCT030 SCT044 BKN088 24/19 Q1020 TEMPO 4000 SHRA BKN012 FEW020TCU
PKWA 140000Z AUTO 01005KT 10SM CLR 29/25 A2991 RMK AO2 T02900248
NGFU 140000Z 08005KT 9999 FEW016CB FEW018TCU SCT110 29/26 Q1012 RERA
SEQM 140000Z 27006KT 210V320 9999 BKN030 15/09 Q1025 NOSIG RMK A3028
NFTF 140000Z 06007KT 9999 FEW018 28/23 Q1020
YMEK 140000Z AUTO 19015KT 9999 // BKN012 12/08 Q1023
NCMH 140000Z AUTO 13003KT //// ////// ///// Q1014
MPSM 140000Z 24006KT 9999 SCT020 28/24 Q1009
KFYM 140000Z AUTO 35003KT 10SM CLR 23/14 A2999 RMK A01
LBIA 140000Z 00000KT 9999 SKC 15/06 Q1014
OPIS 140000Z 00000KT 6000 NSC 20/18 Q1007 NOSIG
NCMG 140000Z AUTO 10006KT //// ////// ///// Q////
NCAT 140000Z AUTO 12004KT //// ////// ///// Q////
NCMR 140000Z AUTO 08006KT //// ////// ///// Q1019
MHGS 140000Z 18010KT 8000 TSVCSH FEW008 BKN038TCU FEW040CB 20/20 RERA
MYSM 140000Z AUTO 16004KT CAVOK 28/24 A2995
K3U3 140000Z AUTO 23005KT 3SM 15/09 A2996
K38S 140000Z AUTO 29006KT 3SM 15/10 A2997
NCNS 140000Z AUTO 08004KT //// ////// 29/25 Q1014
NCPL 140000Z AUTO 06006KT //// ////// 27/21 Q1018
NCSW 140000Z AUTO 09003KT //// ////// 28/23 Q1015
MYCB 140000Z AUTO 06003KT //// R09///// // FEW034 //////CB 25/25 A2993
HSSK 140000Z 16004KT CAVOK 27/20 Q1011 NOSIG
MYAF 140000Z AUTO 11003KT 060V130 CAVOK 25/24 A2992
ZMCK 140000Z 08003MPS 9999 FEW030CB SCT033 SCT100 13/07 Q1021 NOSIG RMK QFE649.9 65 MOP
UBBF 140000Z AUTO 03006KT 8000 // ///006/// 21/19 Q1007
TFFF 140000Z AUTO 00000KT 9999 FEW026 SCT032 BKN043 27/26 Q1013 TEMPO 4000 SHRA SCT018CB SCT020TCU BKN030
CWGT 140000Z AUTO 35004KT 21/11 RMK AO1 SLP113 T02070113 56014
CWRO 140000Z AUTO 29014G19KT 15/ RMK AO1 PK WND 29019/2339 SLP145 T0147 58013
CWQK 140000Z AUTO 27018KT 12/ RMK AO1 PK WND 28020/2319 SLP111 T0116 56011
CWVF 140000Z AUTO 31005KT 17/14 RMK AO1 T01700139
CWRA 140000Z AUTO 00035KT 16/13 RMK AO1 SLP088 T01570133 51019
CWXI 140000Z AUTO 05006KT 12/10 RMK AO1 SLP120 T01200095 51005
CWDA 140000Z AUTO 10001KT 11/ RMK AO1 T0107
CYCA 140000Z AUTO 02004KT 9SM FEW240 07/07 A2992 RMK SLP134
CWZZ 140000Z AUTO VRB02KT ////SM OVC075 ///// A2977
CXTP 140000Z AUTO 32004KT 11/11 RMK AO1 SLP112 T01080107 53014
CWBK 140000Z AUTO 19005KT 19/18 RMK AO1 SLP115 T01940181 53003
CWVU 140000Z AUTO 13010KT 18/18 RMK AO1 SLP099 T01790178 55003
CWZQ 140000Z AUTO 20005KT 19/17 RMK AO1 SLP120 T01860166 55000
CWSA 140000Z AUTO 16005KT 9SM OVC005 17/16 A2994 RMK SLP141 DENSITY ALT 200FT
CWRN 140000Z AUTO 17005KT 17/17 RMK AO1 SLP128 T01740168 53002
CXMI 140000Z AUTO 20003KT 20/19 RMK AO1 SLP117 T01950191 53006
CXIB 140000Z AUTO 21001KT 16/15 RMK AO1 SLP125 T01610153 53003
CWWE 140000Z AUTO 18008KT 20/19 RMK AO1 SLP117 T02010191 53003
CWLI 140000Z AUTO 06016KT ////SM BKN011 OVC130 02/M00 A2986
CWOB 140000Z AUTO 25012KT ////SM FEW200 BKN230 03/03 A2962
CYUB 140000Z 09013G20KT 15SM FEW017 BKN072 OVC150 04/01 A2984 RMK SC1AC4AS3 SLP108
CWFD 140000Z AUTO ///// ////SM OVC002 03/03 A2945
CWWB 140000Z AUTO 20008KT 20/13 RMK AO1 SLP106 T01960134 53016
CWNC 140000Z AUTO 26014G20KT 20/16 RMK AO1 2PAST HR 1007 PK WND 26021/2343 SLP088 P0001 T02010160 50030
CWAJ 140000Z AUTO 26004KT RMK AO1 51018
CWGH 140000Z AUTO 20004KT 17/16 RMK AO1 3003 SLP074 T01700163 50100
CWBE 140000Z AUTO 29003KT 18/17 RMK AO1 SLP094 T01820169 52006
CYAM 140000Z 33002KT 15SM FEW220 15/13 A2987 RMK CI1 CI TR SLP119 DENSITY ALT 900FT
CWWZ 140000Z AUTO 20005KT 19/15 RMK AO1 SLP108 T01900147 53010
CWPC 140000Z AUTO 27014KT 19/13 RMK AO1 PK WND 26021/2300 SLP121 T01890133 53013
CWQP 140000Z AUTO 27012G20KT 20/14 RMK AO1 PK WND 26024/2318 SLP085 T01950142 53007
CYTZ 140000Z AUTO 21009KT 9SM SCT071 OVC092 20/15 A2981 RMK SLP098 DENSITY ALT 1000FT
CWEP 140000Z AUTO 12005KT 18/17 RMK AO1 SLP112 T01810170 55001
CWAF 140000Z AUTO 08/ RMK AO1 T0082
CYPH 140000Z AUTO 30008KT 9SM FEW014 SCT032 BKN066 OVC083 08/06 A2981 RMK SLP098
FMNM 140000Z 17003KT 9999 FEW040 20/19 Q1016
OEAO 140000Z 00000KT CAVOK 28/M06 Q1011 NOSIG
FMEP 140000Z AUTO 03006KT CAVOK 19/11 Q1020
FMSD 140000Z 14014KT 9999 VCSH SCT016 BKN033 21/19 Q1021
CYUA 140000Z AUTO 08008KT ////SM OVC006 05/05 A2977
FYRU 140000Z AUTO 17003KT //// // ////// 21/M04 Q1020
FYWW 140000Z AUTO 10008KT //// // ////// 19/M08 Q1024
FYWB 140000Z AUTO 01007KT //// // ////// 12/12 Q1015
WBGB 140000Z 13004KT 080V200 9999 FEW005 24/24 Q1013
LCPH 140000Z 07004KT 9999 FEW026 24/18 Q1007
OEAH 140000Z 00000KT 7000 NSC 29/26 Q1003 NOSIG
WMKB 140000Z 18006KT 140V230 6000 -RA FEW017CB SCT024 25/24 Q1012 NOSIG
OEKJ 140000Z 17007KT CAVOK 31/02 Q1008
OEBA 140000Z 26004KT CAVOK 26/18 Q1018 NOSIG
OERR 140000Z 33011KT CAVOK 28/01 Q1007 NOSIG
OENG 140000Z 25004KT CAVOK 26/02 Q1014 NOSIG
OEPA 140000Z 26012KT CAVOK 33/12 Q1005 NOSIG
OERF 140000Z 29012KT CAVOK 30/M01 Q1006 NOSIG
OESH 140000Z 00000KT CAVOK 30/04 Q1008 NOSIG
OESK 140000Z 34006KT CAVOK 26/03 Q1012 NOSIG
OETF 140000Z 21005KT CAVOK 26/09 Q1018 NOSIG
OETR 140000Z 29005KT CAVOK 21/15 Q1011 NOSIG
OEWD 140000Z 25004KT CAVOK 29/07 Q1007 NOSIG
OEYN 140000Z 28004KT CAVOK 29/15 Q1002 NOSIG
OIAA 140000Z 17004KT 6000 NSC 29/27 Q1001
OIBL 140000Z 08006KT 2000 BR NSC 31/28 Q1001
OICC 140000Z 31004KT CAVOK 20/M08 Q1013 A2993
OIAW 140000Z 14006KT 7000 NSC 30/24 Q1001
OIBK 140000Z 00000KT 1400 BR NSC 27/27 Q1002
OICS 140000Z 00000KT CAVOK 15/M00 Q1013 A2993
OIFS 140000Z 14002KT CAVOK 10/M06 Q1022
OIGG 140000Z 00000KT 7000 SCT030 BKN070 23/23 Q1003
OIKK 140000Z 00000KT 9999 SCT045 16/05 Q1017 A3006
OIMB 140000Z 10006KT CAVOK 12/M12 Q1015 A2999
OIMS 140000Z 06010KT CAVOK 18/M02 Q1013
OIMT 140000Z AUTO 10004KT //// // ////// 23/M01 Q1008
OIIP 140000Z 00000KT CAVOK 21/01 Q1012 A2990
OIKB 140000Z 03006KT 3000 BR NSC 30/27 Q1003 A2963
OIKQ 140000Z 00000KT 2000 BR NSC 30/28 Q1001
OIMM 140000Z 18004KT CAVOK 15/03 Q1013 A2994
OIMN 140000Z VRB02KT CAVOK 14/M01 Q1013
OITR 140000Z 24004KT CAVOK 12/03 Q1009
OISS 140000Z 00000KT 7000 NSC 20/11 Q1016 A3001
OING 140000Z 25006KT CAVOK 18/16 Q1004
OINN 140000Z 22004KT CAVOK 22/21 Q1003
OINR 140000Z 26004KT 9999 BKN025 24/21 Q1003
OISF 140000Z 36004KT 8000 NSC 20/04 Q1014 A2996
OISL 140000Z 00000KT CAVOK 25/15 Q1008 A2978
OITK 140000Z 20004KT CAVOK 21/01 Q1008
OITT 140000Z 05006KT CAVOK 19/M01 Q1012 A2989
OIZH 140000Z 20004KT CAVOK 17/M03 Q1014 A2996
OIZI 140000Z 05006KT 6000 NSC 28/08 Q1007
OISY 140000Z 00000KT CAVOK 17/05 Q1020
OITM 140000Z 08008KT CAVOK 21/M00 Q1010
OJAM 140000Z 25004KT 7000 NSC 21/16 Q1013 NOSIG
OJAQ 140000Z 36008KT CAVOK 28/19 Q1008 NOSIG
SBIL 140000Z 25004KT CAVOK 23/20 Q1017
SBRF 140000Z 14008KT 9999 FEW020 25/21 Q1015
SBMQ 140000Z 07011KT CAVOK 30/24 Q1011
LEBL 140000Z 33008KT 9999 -RA FEW040CB 24/16 Q1009 NOSIG
CXVW 140000Z AUTO 36010KT 20/07 RMK AO1 SLP106 T02040067 55001
WMKE 140000Z 00000KT 9999 FEW010 23/22 Q1011
SAWE 140000Z 30012KT CAVOK 04/02 Q0997 RMK PP000
OIFM 140000Z 00000KT CAVOK 15/M02 Q1018 A3006
OIZB 140000Z 33008KT CAVOK 20/M04 Q1008
UARR 140000Z 12005MPS CAVOK 16/M00 Q1016 NOSIG RMK QFE759/1012
UTFF 140000Z 17002KT 9999 NSC 15/08 Q1012 R99/CLRD70
CZSP 140000Z AUTO 14007KT 18/17 RMK AO1 SLP115 T01750168 53001
ZGHA 140000Z 01004MPS CAVOK 24/18 Q1012 NOSIG
CWSD 140000Z AUTO 16006KT 20/17 RMK AO1 SLP108 T01960166 53002
CWFQ 140000Z AUTO 27003KT 17/16 RMK AO1 2PAST HR 3005 SLP053 P0012 T01660163 50095
CWGR 140000Z AUTO 12007KT 17/16 RMK AO1 SLP115 T01720160 55002
CWHQ 140000Z AUTO 10003KT 19/18 RMK AO1 T01940184
CWIG 140000Z AUTO 03010KT RMK AO1
CYGV 140000Z AUTO 09003KT 9SM CLR 16/14 A2983 RMK SLP104 DENSITY ALT 400FT
CYMT 140000Z AUTO 02006KT 6SM -RA BR FEW005 SCT048 OVC086 15/15 A2972 RMK PCPN 1.0MM PAST HR SLP070 DENSITY ALT 1900FT
CYND 140000Z 34009KT 8SM SHRA FEW012 OVC060 18/17 A2970 RMK CU1SC7 PRESFR SLP059 DENSITY ALT 900FT
CWPR 140000Z AUTO 20011G21KT 19/08 RMK AO1 PK WND 20021/2351 SLP085 T01910081 55003
CYGP 140000Z VRB02KT 15SM FEW140 OVC240 18/16 A2982 RMK AC2CI6 SLP102 DENSITY ALT 600FT
CYGR 140000Z 13008KT 15SM SCT250 17/16 A2987 RMK CI4 SLP118 DENSITY ALT 400FT
CWUX 140000Z AUTO 12001KT 19/18 RMK AO1 SLP057 T01890183 53001
CYVP 140000Z 32009KT 15SM FEW026 OVC041 09/08 A2978 RMK SC1SC7 SLP087
FBSK 140000Z 08006KT CAVOK 15/08 Q1026 NOSIG
CYAH 140000Z AUTO 19006KT 9SM BKN060 OVC082 17/10 A2969 RMK SLP067 DENSITY ALT 1800FT
CYGL 140000Z 34009G16KT 300V010 15SM BKN015 09/06 A2986 RMK SC7 SLP120
CYGW 140000Z AUTO 33009G16KT 9SM OVC016 08/06 A2989 RMK SLP124
CWTT 140000Z AUTO 17003KT 18/17 RMK AO1 T01770168
CWBS 140000Z AUTO 35009KT 19/18 RMK AO1 PK WND 02023/2335 T01880175
VTBS 140000Z VRB02KT 9999 FEW020 SCT100 26/24 Q1010 NOSIG
CWDQ 140000Z AUTO 21001KT 20/19 RMK AO1 5008 SLP051 T01980187 50005
CWST 140000Z AUTO 36003KT 15/13 RMK AO1 SLP060 T01520126 55006
CXSH 140000Z AUTO 03002KT 19/18 RMK AO1 0PAST HR 5004 SLP052 P0031 T01910184 50108
GBYD 140000Z 00000KT 9999 SCT012 FEW018CB 25/25 Q1012 CB SE-S
OIZC 140000Z 00000KT 5000 BR FEW035 27/25 Q1002
CMFM 140000Z AUTO 02001KT 17/16 RMK AO1 6PAST HR 8008 SLP074 P0002 T01670161 50015
CMGB 140000Z AUTO 18002KT 19/19 RMK AO1 0PAST HR 8002 SLP042 P0016 T01930188 50068
CWBT 140000Z AUTO 07002KT 14/12 RMK AO1 SLP104 T01370124 55002
CWMJ 140000Z AUTO 26004KT 18/16 RMK AO1 6PAST HR 0005 SLP062 P0002 T01750155 50022
CWQH 140000Z AUTO 07002KT 18/17 RMK AO1 0PAST HR 5004 SLP045 P0012 T01790174 50041
CYNM 140000Z AUTO 32008KT 9SM FEW048 BKN060 16/14 A2976 RMK PRESRR SLP086 DENSITY ALT 1500FT
RJFR 140000Z 10007KT 9999 FEW010 SCT060 BKN/// 29/25 Q1013
RJSR 140000Z VRB02KT 9999 FEW015 22/20 Q1019
USPP 140000Z 00000MPS CAVOK 07/05 Q1024 R21/090060 NOSIG RMK QFE757
USSS 140000Z VRB01MPS CAVOK 06/05 Q1026 R26L/010060 R26R/010060 NOSIG RMK QFE748/0998
UTSB 140000Z 34004KT CAVOK 14/08 Q1010 R01/CLRD70 NOSIG
UWUU 140000Z 04001MPS CAVOK 04/04 Q1023 R14R/0///60 NOSIG
VTCH 140000Z VRB02KT 3500 -RA BR FEW010 FEW020CB BKN025 23/23 Q1011 BECMG 6000 NSW
VTSB 140000Z 20001KT 7000 FEW020 24/24 Q1012 NOSIG
VTSC 140000Z 21003KT 9999 FEW010 24/23 Q1012 NOSIG
YPTN 140000Z AUTO 24004KT 210V270 9999 // NCD 30/18 Q1017 RF00.0/000.0
CWJI 140000Z AUTO 10018G25KT 16/01 RMK AO1 PK WND 11027/2301 SLP146 T01580011 56008
CXBK 140000Z AUTO 10013KT 14/02 RMK AO1 PK WND 09021/2309 SLP169 T01350022 58014
CWDZ 140000Z AUTO 13002KT 21/09 RMK AO1 SLP090 T02080090 55008
CWJT 140000Z AUTO 00000KT 18/ RMK AO1 0PAST HR 3001 SLP046 P0008 T0184 50300
CWKH 140000Z AUTO 19/12 RMK AO1 SLP105 T01860120 56010
CWRH 140000Z AUTO 22023G31KT ////SM ////// M100/// A2973
CYPE 140000Z 08007KT 15SM FEW100 BKN220 19/07 A2984 RMK AC1CI7 AC TR SLP116 DENSITY ALT 2900FT
CYVT 140000Z AUTO 18009G16KT 9SM SCT096 16/06 A2992 RMK SLP148 DENSITY ALT 1900FT
EPRZ 140000Z 24003KT 9999 SCT043CB 16/09 Q1008
LFRL 140000Z AUTO 12006KT CAVOK 19/18 Q1003
CWZO 140000Z AUTO 17009KT RMK AO1
RCFN 140000Z 32004KT 280V010 9999 FEW024 BKN350 28/23 Q1004 NOSIG RMK A2966
VLSK 140000Z 09002KT 4000 BR SCT020 SCT040 BKN100 26/24 Q1010 NOSIG
YMHB 140000Z 34009KT 9999 FEW030 11/03 Q1026
YPAD 140000Z 02022KT 7000 RA NSC 14/10 Q1014
YPKU 140000Z AUTO 03005KT 9999 // NCD 30/20 Q1015 RF00.0/000.0
YPLM 140000Z AUTO 17010KT 9999 // NCD 17/11 Q1022 RF00.0/000.0
YSCB 140000Z AUTO 19005KT 140V270 9999 // SCT027 10/04 Q1027
YSTW 140000Z AUTO 09005KT 050V120 9999 // NCD 16/06 Q1026 RF00.0/000.0
CWVT 140000Z AUTO 17007KT 16/05 RMK AO1 SLP163 T01580053 56010
YSNF 140000Z AUTO 16009KT 9999 // OVC018 18/14 Q1020 RF00.0/000.0
URKA 140000Z 30003MPS CAVOK 15/13 Q1009 R22/290160 TEMPO 3000 -TSRA BKN007 BKN016CB RMK QFE752/1002
CWEH 140000Z AUTO 14016G22KT 19/02 RMK AO1 PK WND 12025/2300 SLP107 T01900015 53001
CAHR 140000Z AUTO 14006KT 18/16 RMK AO1 SLP115 T01820161 53006
CWAR 140000Z AUTO 29011KT 15/13 RMK AO1 SLP112 T01530130 53017
CWBO 140000Z AUTO 07002KT 20/12 RMK AO1 SLP086 T01980120 56008
CWNQ 140000Z AUTO 05002KT 20/20 RMK AO1 4PAST HR 6006 SLP040 P0009 T01990195 50078
CWOD 140000Z AUTO 15001KT 18/17 RMK AO1 8PAST HR 6003 SLP055 P0011 T01830174 50028
CWRK 140000Z AUTO 00000KT 15/15 RMK AO1 3005 SLP083 T01530153 50010
CWVP 140000Z AUTO 15012G18KT 17/03 RMK AO1 PK WND 14022/2318 SLP105 T01730028 53002
CXHA 140000Z AUTO 24002KT 17/13 RMK AO1 SLP117 T01680130 51016
CWAQ 140000Z AUTO 07013G19KT 17/01 RMK AO1 PK WND 06021/2317 SLP146 T01720009 56006
CYOW 140000Z 34008KT 10SM -RA FEW045 BKN100 17/16 A2970 RMK SC2AC5 SLP061 DENSITY ALT 1000FT
FALW 140000Z AUTO 18004KT //// // ////// 14/07 Q1016
CWJX 140000Z AUTO 09017G22KT 17/M00 RMK AO1 PK WND 09022/2347 SLP110 T01661003 58003
CXOX 140000Z AUTO 17004KT 16/05 RMK AO1 SLP173 T01640047 55006
CYEN 140000Z AUTO 09012G19KT 9SM SCT210 15/04 A3001 RMK SLP177 DENSITY ALT 2300FT
CYKJ 140000Z AUTO 14004KT 9SM 15/M01 A2999 RMK CLD MISG SLP176 DENSITY ALT 2000FT
CYKY 140000Z 13012G21KT 15SM BKN120 OVC150 14/02 A2989 RMK AC7AS1 SLP130 DENSITY ALT 2800FT
CWLE 140000Z AUTO 12011KT 13/04 RMK AO1 PK WND 12020/2305 SLP162 T01320042 55005
CWMQ 140000Z AUTO 14012G18KT 23/03 RMK AO1 PK WND 14019/2348 SLP091 T02270032 55005
CYLJ 140000Z 11006KT 15SM BKN080 OVC150 14/10 A2993 RMK AC7AS1 LAST STFD OB/NXT 141200UTC SLP151 DENSITY ALT 1800FT
CYMJ 140000Z 10015G20KT 12SM SCT120 BKN160 OVC220 16/02 A2998 RMK AC3AC2CI3 HZ SLP161
CWDJ 140000Z AUTO 11012G17KT 13/03 RMK AO1 PK WND 11018/2313 SLP171 T01280028 56017
CYYN 140000Z AUTO 10019G28KT 9SM CLR 16/03 A2989 RMK SLP126 DENSITY ALT 3400FT
CWBU 140000Z AUTO 18009KT 18/M00 RMK AO1 SLP183 T01831004 55003
CWHT 140000Z AUTO 31008G15KT 12/05 RMK AO1 SOG 14 8024 PK WND 00017/2312 SLP074 T01200047
CWJH 140000Z AUTO 07002KT 15/04 RMK AO1 SLP182 T01480041 56004
CWKM 140000Z AUTO 08021G28KT ////SM OVC006 04/04 A2979
CWIW 140000Z AUTO 13012KT 13/02 RMK AO1 PK WND 13017/2301 SLP185 T01340023 55009
CWOY 140000Z AUTO 13008KT 14/02 RMK AO1 SLP190 T01360015 58009
CWKO 140000Z AUTO 10011G20KT 17/M01 RMK AO1 PK WND 10022/2329 SLP147 T01681008 56009
CWSR 140000Z AUTO 14008KT 15/04 RMK AO1 SLP164 T01450037 58004
CWVN 140000Z AUTO 11016KT 21/M00 RMK AO1 PK WND 12023/2307 SLP110 T02061002 56002
CWWF 140000Z AUTO 12014G19KT 15/02 RMK AO1 PK WND 10020/2328 SLP171 T01490024 56013
CXCK 140000Z AUTO 16009KT 16/03 RMK AO1 PK WND 16022/2344 SLP057 T01610031 56013
CYBU 140000Z AUTO 16011KT 9SM BKN110 BKN150 18/02 A3004 RMK SLP188 DENSITY ALT 1800FT
CYDA 140000Z 06008G15KT 20SM FEW100 FEW140 SCT160 OVC220 16/04 A2959 RMK AC1AC1AS2CS4 SLP036 DENSITY ALT 2100FT
CYDB 140000Z 12017G28KT 15SM FEW060 SCT120 BKN190 13/03 A2955 RMK CU2AC2CI3 SLP028 DENSITY ALT 3500FT
CYPA 140000Z 16006KT 15SM SCT130 OVC270 18/04 A3004 RMK AC3CI5 SLP188 DENSITY ALT 1900FT
CYQR 140000Z 10013G19KT 15SM BKN160 OVC240 13/04 A3001 RMK AC7CI1 SLP177 DENSITY ALT 2000FT
CYQW 140000Z AUTO 13016G24KT 9SM FEW096 BKN130 15/05 A2997 RMK SLP163 DENSITY ALT 2200FT
CYSF 140000Z AUTO 20005KT 9SM CLR 17/03 A2993 RMK SLP150 DENSITY ALT 1300FT
CYXE 140000Z 11007KT 15SM SCT060 OVC110 13/07 A2999 RMK SC4AC4 SLP172 DENSITY ALT 1800FT
CZFA 140000Z 16005KT 30SM BKN070 OVC090 16/02 A2971 RMK AC6AS2 SLP086 DENSITY ALT 3300FT
CZMJ 140000Z AUTO 11013KT 16/02 RMK AO1 PK WND 10018/2335 SLP169 T01550016 56014
KNEL 140000Z AUTO 27004KT 10SM CLR 22/15 A2978 RMK AO2 SLP083 T02170150 10294 20217 53016
CYMA 140000Z 03004KT 20SM FEW100 OVC200 16/04 A2964 RMK AC1CI7 CLIMAT 16.4/6.5/0.0 SLP053 DENSITY ALT 2500FT
CWVH 140000Z AUTO 08018KT ////SM OVC002 01/01 A2977
CYQH 140000Z 00000KT 40SM FEW090 FEW230 18/01 A2981 RMK AC1CI1 CLIMAT 17.5/8.1/0.0 SLP117 DENSITY ALT 3200FT
CYXY 140000Z 16016G22KT 40SM FEW045 SCT080 BKN120 BKN220 14/04 A2973 RMK CU1AC2AC3CI1 SLP089 DENSITY ALT 2900FT
CYZW 140000Z 17006KT 25SM BKN060 OVC080 15/06 A2982 RMK SC5AS3 SLP122 DENSITY ALT 3000FT
LEVT 140000Z 27003KT 230V310 CAVOK 17/16 Q1009
LFKB 140000Z AUTO 19005KT CAVOK 22/20 Q1013 NOSIG
LFKC 140000Z AUTO 16006KT CAVOK 21/17 Q1013
LFKF 140000Z AUTO 07010KT CAVOK 24/20 Q1013
LFKJ 140000Z AUTO 03004KT 360V070 CAVOK 21/17 Q1013 NOSIG
LFKS 140000Z AUTO 28005KT 240V320 9999 BKN026 23/20 Q1014
LFLB 140000Z AUTO 02004KT 300V040 CAVOK 23/19 Q1010
LFLC 140000Z AUTO 20007KT CAVOK 23/18 Q1009 NOSIG
LFLS 140000Z AUTO 19005KT CAVOK 21/17 Q1011
LFRM 140000Z AUTO VRB02KT CAVOK 20/17 Q1005
LFMD 140000Z AUTO VRB03KT CAVOK 22/19 Q1012
OEBH 140000Z 27007KT CAVOK 27/03 Q1013 NOSIG
OEGN 140000Z 00000KT CAVOK 32/27 Q1005 NOSIG
OEGS 140000Z 33003KT CAVOK 30/07 Q1008
OEGT 140000Z 30010KT CAVOK 21/16 Q1009 NOSIG
OEHL 140000Z 14004KT CAVOK 25/02 Q1013 NOSIG
OEKM 140000Z 15005KT CAVOK 20/06 Q1022 NOSIG
OETB 140000Z 24005KT CAVOK 25/03 Q1011 NOSIG
OIII 140000Z 00000KT CAVOK 23/03 Q1013 A2992 NOSIG
OTBD 140000Z 36003KT CAVOK 31/27 Q1002 NOSIG
RCKH 140000Z 33008KT 300V010 9000 FEW014 BKN220 30/24 Q1005 NOSIG RMK A2970
RCMQ 140000Z 17003KT 9999 FEW012 SCT080 BKN200 26/23 Q1006 NOSIG RMK A2973
RCNN 140000Z 00000KT 8000 FEW012 BKN120 29/24 Q1006 NOSIG RMK A2972
RCSS 140000Z 25007KT 9999 FEW020 SCT080 BKN210 26/24 Q1004 NOSIG RMK 22004KT/R10 A2966
RCTP 140000Z 24011KT 9999 FEW015 BKN080 28/27 Q1004 NOSIG RMK A2967
RJAA 140000Z 03014KT 9999 FEW010 SCT020 28/23 Q1016 NOSIG RMK 1CU010 3CU020 A3001
RJAF 140000Z 35005KT 270V040 9999 FEW015 SCT025 BKN040 24/20 Q1020
RJAH 140000Z 05011KT 020V080 9999 FEW030 BKN300 28/23 Q1016
RJBT 140000Z 36003KT 330V030 9999 -SHRA FEW000 SCT008 BKN020 25/24 Q1017
RJCB 140000Z 35006KT 320V040 9999 FEW040 18/09 Q1018
RJCC 140000Z 01014KT 9999 FEW030 BKN045 18/11 Q1020 RMK 1CU030 6CU045 A3012
RJCH 140000Z VRB05KT 9999 FEW030 20/11 Q1020
RJCK 140000Z 02016KT 9999 FEW020 BKN040 16/10 Q1018
RJCM 140000Z 34016KT 9999 FEW015 BKN020 BKN025 14/09 Q1020
RJCN 140000Z 33013KT 290V360 9999 -SHRA FEW010 SCT015 BKN025 13/10 Q1017
RJCO 140000Z 33016KT 9999 FEW020 BKN040 17/12 Q1022
RJCW 140000Z 02013KT 9999 FEW020 SCT030 15/09 Q1022
RJDT 140000Z 05010KT 360V090 9999 FEW006 BKN008 24/23 Q1014
RJEB 140000Z 33015KT 9999 FEW015 BKN020 BKN035 14/11 Q1021
RJEC 140000Z 01016KT 9999 FEW020 SCT030 16/09 Q1020
RJFE 140000Z 07010KT 030V100 9999 FEW020 BKN/// 28/24 Q1011
RJFF 140000Z 09009KT 050V120 9999 FEW020 BKN/// 29/23 Q1013 NOSIG RMK 1CU020 A2992
RJFM 140000Z 07014KT 9999 FEW008 SCT014 30/26 Q1012
RJFO 140000Z 02007KT 9999 FEW015 BKN040 BKN060 27/24 Q1013
RJAW 140000Z 10021G31KT 9999 FEW010 BKN015 BKN/// 27/24 Q1002 RMK 1CU010 5CU015 A2959
RJBB 140000Z 03010KT 9999 FEW020 BKN/// 28/24 Q1014 NOSIG
RJBE 140000Z 06011KT 9999 FEW030 BKN/// 30/23 Q1014
RJNK 140000Z 04018KT 9999 FEW015 BKN250 28/23 Q1015
RJNT 140000Z 03011KT 360V070 9999 FEW010 SCT020 BKN025 27/23 Q1016
RJNW 140000Z 06009KT 020V100 9999 FEW015 BKN/// 25/21 Q1018
RJOA 140000Z 10009KT 070V140 9999 FEW015 SCT020 BKN/// 27/21 Q1016
RJOB 140000Z 05004KT 350V100 9999 FEW020 BKN/// 27/22 Q1016
RJOC 140000Z 06014KT 9999 FEW008 SCT010 BKN015 27/24 Q1015
RJOH 140000Z 06015KT 9999 FEW010 BKN030 BKN300 27/24 Q1015
UGSB 140000Z VRB03KT 9999 -TSRA SCT011 BKN026CB 18/18 Q1010 NOSIG
UTAV 140000Z 32004KT 230V020 CAVOK 13/04 Q1009 R31/CLRD70 NOSIG
RJKA 140000Z 10016KT 9999 FEW015 31/27 Q1007
RJOK 140000Z 32003KT 250V010 9999 FEW030 BKN/// 31/24 Q1013
RJFU 140000Z 21004KT 9999 FEW030 BKN/// 31/22 Q1011
RJGG 140000Z 31005KT 9999 FEW020 BKN/// 28/25 Q1014 NOSIG
RJKI 140000Z AUTO 09012KT 9999 BKN022 31/26 Q1007
WAOO 140000Z 03006KT 9999 SCT015 25/24 Q1013 NOSIG
WARR 140000Z VRB02KT 9999 FEW020 27/23 Q1013 NOSIG
WSSS 140000Z 21004KT 180V260 9999 FEW016 SCT160 BKN300 27/23 Q1013 NOSIG
YWLM 140000Z 24002KT 9999 BKN027 16/09 Q1028
ZBYN 140000Z VRB01MPS 3000 BR NSC 18/14 Q1023 NOSIG
ZGGG 140000Z 02004MPS 340V040 CAVOK 30/17 Q1009 NOSIG
ZGKL 140000Z 34002MPS 310V020 CAVOK 24/21 Q1012 NOSIG
ZGOW 140000Z 00000MPS CAVOK 28/18 Q1007 NOSIG
ZHHH 140000Z 01003MPS 310V050 CAVOK 24/19 Q1013 NOSIG
ZJHK 140000Z VRB01MPS 8000 NSC 27/26 Q1010 NOSIG
ZJSY 140000Z VRB01MPS CAVOK 27/24 Q1010 NOSIG
ZUGY 140000Z VRB01MPS 9999 OVC033 19/17 Q1017 NOSIG
OEWJ 140000Z 07005KT 9000 NSC 26/24 Q1006 NOSIG
ROIG 140000Z 17007KT 9999 BKN025 BKN/// 27/24 Q1004
ROMD 140000Z AUTO 06007KT 020V120 9999 FEW013 BKN070 BKN080 30/27 Q1005
ROMY 140000Z 25004KT 210V300 9999 FEW020 SCT110 BKN/// 29/24 Q1004
RORY 140000Z AUTO 14011KT 9999 SCT011 BKN020 30/27 Q1006
RPLB 140000Z VRB02KT 6000 -RA SCT018 BKN070 27/24 Q1011 RMK A2985
RPLI 140000Z 16007KT 8000 VCSH SCT017CB BKN018 28/26 Q1009 NOSIG RMK A2980 CB SW-NW  VCSH S-N
CYYH 140000Z 32005KT 15SM FEW012 BKN031 BKN070 04/M00 A2974 RMK CU1SC5AC2 CU TR WIND ESTD SLP077
WBKK 140000Z 20005KT 150V240 9999 TS FEW015 FEW016CB 28/24 Q1012 NOSIG
LCLK 140000Z VRB01KT CAVOK 22/18 Q1006 NOSIG
WBGG 140000Z 12005KT 090V160 9999 FEW020 23/22 Q1013 NOSIG
LELC 140000Z AUTO VRB02KT 9000 SCT012 26/24 Q1009
WBGY 140000Z 11003KT 050V170 8000 -RA FEW002 SCT020 23/22 Q1015
WBGR 140000Z 19005KT 8000 -RA SCT014 24/24 Q1013
WBGS 140000Z 14004KT 090V190 9999 -RA FEW007 SCT017 23/22 Q1014
WBKL 140000Z 21003KT 110V270 9999 FEW014 FEW017CB 27/25 Q1013
WBKS 140000Z 24004KT 190V290 9999 FEW016 FEW017CB 27/25 Q1012
WBKT 140000Z 23008KT 190V260 9999 FEW014 FEW015CB 28/25 Q1012
WBKW 140000Z VRB02KT 9999 FEW015CB 28/25 Q1013
WBSB 140000Z 19005KT 9999 FEW005 FEW015CB BKN140 26/25 Q1013 NOSIG
WMAU 140000Z VRB05KT 9000 SCT025 25/23 Q1012
WMKA 140000Z 32004KT 260V010 9999 -RA FEW010 FEW017CB SCT028 23/21 Q1012
WMKC 140000Z 20004KT 130V250 9999 FEW018 24/23 Q1012
COR SAME 140000Z 25004KT 290V200 CAVOK 17/00 Q1022
SARF 140000Z 14005KT CAVOK 16/10 Q1015
SAOC 140000Z 14009KT 9999 16/M02 Q1021
RJDC 140000Z 09007KT 9999 FEW025 BKN/// 29/24 Q1013
SARL 140000Z 20010KT CAVOK 15/10 Q1019
WMKL 140000Z 05004KT 350V110 9999 FEW017CB 25/24 Q1012
SARP 140000Z 16006KT CAVOK 18/10 Q1017
SAZM 140000Z 27008KT 210V270 5000 BKN009 OVC030 09/08 Q1022 RMK PP///
SAZS 140000Z 31019KT 9999 SCT048 SCT200 09/02 Q1020 RMK PP///
LPBJ 140000Z 19008KT 9999 FEW028 18/17 Q1010
MGGT 140000Z 20008KT 8000 FEW004 SCT014 BKN080 19/18 Q1018 A3006 BR
SYCJ 140000Z 05004KT 9999 SCT019 27/25 Q1010 NOSIG
SKBQ 140000Z 01003KT 330V040 9999 FEW015 SCT200 28/25 Q1009 NOSIG RMK A2982
SPYL 140000Z 18014KT CAVOK 19/15 Q1012 RMK PP000
FMCZ 140000Z AUTO 25004KT 220V280 CAVOK 21/21 Q1015 NOSIG
YPCC 140000Z AUTO 13017KT 9999 // SCT018 BKN027 BKN037 26/23 Q1015
NTAA 140000Z 26008KT 9999 FEW026 BKN260 28/21 Q1016 NOSIG
CWGB 140000Z AUTO 28007KT 18/ RMK AO1 SLP104 T0184 56016
CWEK 140000Z AUTO 17005KT 14/ RMK AO1 2PAST HR 7017 SLP098 P0001 T0137 50002
CWEL 140000Z AUTO 27004KT 17/14 RMK AO1 SLP107 T01720138 56015
SLCB 140000Z 13006KT 9999 FEW036 BKN200 19/05 Q1018
CWHL 140000Z AUTO 30010KT 13/11 RMK AO1 SLP133 T01320112 58010
CWJU 140000Z AUTO 25007KT 14/11 RMK AO1 SLP159 T01360106 58013
CWLC 140000Z AUTO 28012KT 14/11 RMK AO1 T01390111
CWLP 140000Z AUTO 29010KT 12/11 RMK AO1 SLP132 T01160108 58006
CWPF 140000Z AUTO 18011KT 15/11 RMK AO1 SLP107 T01540107 56014
CWNE 140000Z AUTO 12010KT 20/19 RMK AO1 SLP102 T01990190 55000
CWQO 140000Z AUTO 04004KT 09/09 RMK AO1 T00880088
CWQR 140000Z AUTO 08010KT 11/10 RMK AO1 T01090095
CWTY 140000Z AUTO 34003KT 20/19 RMK AO1 SLP045 T01990191 56005
SBBU 140000Z 17009KT CAVOK 23/17 Q1013
SBBV 140000Z 18004KT 9999 FEW030 FEW035TCU 29/21 Q1010
SBAN 140000Z 00000KT CAVOK 22/07 Q1017
SBAR 140000Z 11005KT CAVOK 25/20 Q1016
SBAX 140000Z AUTO 03006KT CAVOK 27/07 Q1015
SBBE 140000Z 20002KT 9999 BKN020 BKN100 25/24 Q1012
SBCC 140000Z 02004KT 2600 FU NSC 21/19 Q1013
SBLB 140000Z AUTO 02026KT //// NCD 23/21 Q1013 W/////
SBBG 140000Z AUTO 16006KT 9999 SCT030 13/11 Q1019
SBBH 140000Z 10005KT CAVOK 24/13 Q1016
SBBI 140000Z 08003KT 5000 -RA BR SCT030 BKN080 17/16 Q1016
SBRJ 140000Z 07004KT 040V100 9999 SCT020 BKN100 24/21 Q1011
RJOM 140000Z 35007KT 9999 FEW025 SCT/// 30/25 Q1013
SBCA 140000Z 22006KT 4000 -RA BR FEW006 BKN020 15/14 Q1017
SBCF 140000Z 07005KT CAVOK 25/13 Q1016
SBCH 140000Z 19004KT CAVOK 15/13 Q1016
SBCG 140000Z 21004KT 9000 NSC 25/19 Q1012
SBCP 140000Z 02010KT CAVOK 23/19 Q1012
SBCT 140000Z 11004KT 9999 -RA SCT005 OVC100 17/17 Q1016
SBDN 140000Z 16006KT CAVOK 22/17 Q1012
SBEG 140000Z 06002KT CAVOK 27/25 Q1011
SBCO 140000Z 14005KT 9999 FEW009 SCT070 16/13 Q1017
SBCY 140000Z 13004KT 6000 NSC 31/18 Q1008
SBFI 140000Z 23003KT 9999 SCT040 BKN100 19/17 Q1014
SBFL 140000Z 17007KT 9999 BKN030 19/14 Q1015
SBFN 140000Z AUTO 11009KT 9999 SCT018 25/22 Q1015
SBFZ 140000Z 08010KT 9999 BKN015 27/23 Q1014
SBGL 140000Z 25006KT 9999 FEW018 BKN100 25/20 Q1011
SBGO 140000Z 36004KT CAVOK 28/08 Q1014
SBGR 140000Z 08002KT CAVOK 19/17 Q1016
SBIZ 140000Z 02002KT CAVOK 30/20 Q1011
SBIP 140000Z AUTO 20001KT CAVOK 18/13 Q1014
SBJP 140000Z 15004KT CAVOK 23/22 Q1016
SBJU 140000Z 00000KT CAVOK 27/17 Q1017
SBJV 140000Z 14005KT 9999 BKN012 BKN030 18/16 Q1015
SBKG 140000Z 09007KT CAVOK 21/19 Q1017
SBKP 140000Z 14006KT CAVOK 21/16 Q1014
SBHT 140000Z 00000KT CAVOK 26/22 Q1011
SBME 140000Z 04007KT CAVOK 25/19 Q1011
SBLO 140000Z 20005KT 8000 SCT025 BKN090 20/19 Q1014
SBLS 140000Z 14008KT CAVOK 25/15 Q1016
SBMA 140000Z 33003KT CAVOK 27/24 Q1011
SBMN 140000Z 08004KT CAVOK 27/23 Q1011
SBMO 140000Z 27002KT 9999 FEW017 22/21 Q1016
SBMT 140000Z 04002KT CAVOK 20/18 Q1016
SBNF 140000Z 16004KT 9999 FEW045 BKN100 18/15 Q1014
SBMG 140000Z 19005KT 0200 FG VV001 18/18 Q1013
SBMK 140000Z 36003KT CAVOK 23/03 Q1016
SBPK 140000Z 23004KT 9999 OVC010 15/14 Q1018
SBNT 140000Z 17006KT 9999 FEW021 SCT033 25/24 Q1015
SBPA 140000Z 18009KT 9999 FEW010 17/14 Q1016
SBPJ 140000Z 10005KT 7000 NSC 29/15 Q1010
SBPL 140000Z 18006KT CAVOK 27/16 Q1015
SBPS 140000Z 03004KT CAVOK 22/20 Q1016
SBRB 140000Z 01004KT CAVOK 31/22 Q1008
SBPV 140000Z 34003KT CAVOK 28/24 Q1008
SBRP 140000Z 12006KT CAVOK 27/15 Q1012
SBTE 140000Z 34003KT CAVOK 29/21 Q1010
TNCC 140000Z 08012KT 9999 FEW018 29/24 Q1011 NOSIG
ULLI 140000Z 12004MPS CAVOK 11/07 Q1007 R10L/090060 NOSIG
ULMM 140000Z 19003MPS 9000 -SHRA SCT009 BKN025CB 10/10 Q1002 R31/290160 NOSIG RMK OBST OBSC QFE744
UNKL 140000Z 28001MPS CAVOK M01/M01 Q1027 R29/CLRD65 NOSIG RMK QFE744
UACC 140000Z 07002MPS CAVOK 03/02 Q1027 NOSIG RMK QFE738/0984
UERR 140000Z 25006MPS CAVOK 05/02 Q1019 R25/150155 NOSIG RMK QFE733/0978
UIUU 140000Z 03004MPS 350V050 9999 SCT050CB 12/03 Q1026 R26/CLRD60 NOSIG RMK QFE725/0967
UATT 140000Z 06002MPS CAVOK 08/04 Q1022 NOSIG RMK QFE747/0996
UEEE 140000Z 28007MPS 9999 -SHRA BKN030CB 09/06 Q0999 R23L/290150 NOSIG RMK QFE741
ULAA 140000Z VRB01MPS 9999 SCT030 11/10 Q1013 R08/CLRD70 NOSIG RMK QFE758/1011
UAAA 140000Z 22004MPS 9999 FEW100 12/02 Q1016 NOSIG
UASK 140000Z 00000MPS 9999 BKN170 M01/M03 Q1022 NOSIG RMK QFE741/0988
UASP 140000Z 03003MPS CAVOK 01/M01 Q1027 NOSIG RMK QFE760/1013
UATE 140000Z 12008MPS CAVOK 20/01 Q1008 NOSIG RMK QFE754/1005
UATG 140000Z 12010MPS CAVOK 17/M00 Q1012 NOSIG RMK QFE761/1015
UAUU 140000Z 12001MPS CAVOK 04/01 Q1027 NOSIG RMK QFE753/1005
UERP 140000Z 24002MPS CAVOK 01/M04 Q1012 R35/090060 NOSIG RMK QFE715
UNNT 140000Z VRB01MPS 9000 NSC M03/M03 Q1028 R07/090070 R16/////// NOSIG RMK QFE761/1015
UNOO 140000Z 14001MPS 9999 SCT033CB 07/04 Q1028 R07/CLRD60 NOSIG RMK QFE762
UNWW 140000Z VRB01MPS 9999 SCT040 04/M01 Q1025 R01/09//60 NOSIG RMK QFE741
UOOO 140000Z 21007MPS 0200 R19/0250N FG VV002 00/00 Q1012 R19/19//60 NOSIG RMK QFE742/0990
URKK 140000Z 17003MPS 150V210 CAVOK 16/15 Q1009 R23L/290060 TEMPO 2000 TSRA BKN004 BKN020CB RMK QFE753
URML 140000Z 30003MPS 9999 SCT080 21/16 Q1006 R32/01//70 NOSIG RMK QFE754/1006
USRR 140000Z 21003MPS 160V230 CAVOK 08/06 Q1021 R25/CLRD60 NOSIG RMK QFE760
USNN 140000Z 23003MPS CAVOK 06/06 Q1022 R21/0///65 NOSIG RMK QFE762
USTR 140000Z 23003MPS CAVOK 09/08 Q1025 R21/CLRD65 R30/CLRD65 TEMPO 1000 BR SCT004
UWKD 140000Z 11005MPS CAVOK 10/05 Q1018 R11/CLRD70 NOSIG RMK QFE754/1005
UUBP 140000Z AUTO 00000MPS 4800 -DZ ///005 09/09 Q1002 RMK QFE734/0979
UUOO 140000Z 11002MPS 8000 OVC026 11/10 Q1005 R12/290150 NOSIG RMK QFE740
URMT 140000Z 31003MPS 9999 SCT040 15/13 Q1009 R25/010070 NOSIG RMK QFE718
URWA 140000Z 08002MPS CAVOK 17/13 Q1007 R09/010070 NOSIG RMK QFE757/1009
USHH 140000Z 25004MPS CAVOK 08/06 Q1021 R24/010060 NOSIG
UUWW 140000Z 10005MPS 9000 -RA BKN005 OVC020 10/08 Q1006 R06/290050 NOSIG
UUYY 140000Z 22003MPS 9999 FEW004 06/06 Q1021 R18/19//55 NOSIG RMK QBB120 QFE757/1009
URMM 140000Z VRB01MPS 9000 -SHRA OVC062CB 15/14 Q1009 R30/290250 TEMPO 0300 -SHRA FG BKN001 BKN020CB RMK QFE729/0972
URMN 140000Z 34002MPS 2000 -SHRA BR BKN005 BKN020CB 16/15 Q1008 R24/////// NOSIG RMK MT OBSC OBST OBSC QFE720
URWI 140000Z AUTO 28003MPS 7000 // NSC 15/13 Q1008
URWW 140000Z 13003MPS 2600 1400NE BR SCT001 12/12 Q1007 R06/290057 NOSIG RMK QBB050 OBST OBSC
USCC 140000Z 00000MPS 0200 R27/0650D FG NSC 00/00 Q1026 R27/000060 NOSIG RMK QFE749
USCM 140000Z 32003MPS 5000 BR NSC 02/01 Q1025 R18/090060 TEMPO 0300 FG RMK QFE731
UUDD 140000Z 10005MPS 070V130 9999 OVC005 10/08 Q1006 R14R/290042 NOSIG
UUMO 140000Z 11006MPS 9999 OVC005 10/10 Q1006 R07/290050 NOSIG RMK QBB170 QFE740/0987
UUOB 140000Z 26002MPS 9999 OVC010 10/09 Q1005 R29/010070 NOSIG
UUOK 140000Z AUTO 21004MPS 9999 // ///043/// 09/08 Q1004 RMK QFE735/0980
UWGG 140000Z 11003MPS 060V190 9999 BKN024 11/08 Q1013 R18L/090070 NOSIG
UWKE 140000Z 13003MPS CAVOK 09/04 Q1020 R03/090070 NOSIG RMK QFE748/0997
UWKS 140000Z 12002MPS CAVOK 09/06 Q1017 R06/010060 NOSIG RMK QFE748
ZGSZ 140000Z 04003MPS CAVOK 31/18 Q1009 NOSIG
ZHCC 140000Z 36004MPS 330V050 7000 NSC 23/17 Q1017 NOSIG
UWOO 140000Z 12004MPS CAVOK 11/03 Q1022 R08/CLRD52 NOSIG RMK QFE756/1008
ZGNN 140000Z 34002MPS 300V030 CAVOK 26/22 Q1011 NOSIG
UWLL 140000Z 11005MPS 9999 -SHRA BKN050CB 12/12 Q1016 R02/290250 NOSIG RMK QFE750/1000
UWLW 140000Z 10003MPS 9999 -RA NSC 10/09 Q1017 R02/290150 NOSIG RMK QFE756/1008
UWOR 140000Z 04002MPS CAVOK 04/02 Q1024 R07/CLRD65 NOSIG RMK QFE743/0991
UWWW 140000Z 05005MPS 9999 -RA SCT033 11/08 Q1017 R15/190055 NOSIG RMK QFE751/1002
ZBAA 140000Z 35002MPS 6000 NSC 24/22 Q1020 NOSIG
ZBHH 140000Z 06002MPS CAVOK 16/11 Q1023 NOSIG
ZBSJ 140000Z VRB01MPS 4000 BR NSC 23/19 Q1020 NOSIG
ZBTJ 140000Z 04003MPS 5000 BR NSC 23/19 Q1019 NOSIG
ZYTL 140000Z 09006MPS 9999 BKN020 24/20 Q1018 NOSIG
ZYTX 140000Z 04002MPS 020V080 CAVOK 19/15 Q1021 NOSIG
RJFS 140000Z 05010KT 9999 FEW030 BKN/// 29/24 Q1012
RJFT 140000Z 08010KT 9999 FEW025 BKN/// 30/22 Q1013
RJOT 140000Z 08009KT 9999 FEW010 SCT020 BKN030 26/24 Q1016
RJSK 140000Z VRB02KT 9999 FEW003 SCT020 22/17 Q1018
RJOO 140000Z VRB05KT 9999 FEW015 SCT025 BKN/// 30/23 Q1014 RMK 1CU015 3CU025 A2997
RJOR 140000Z 05012KT 9999 FEW005 SCT008 BKN020 26/24 Q1016
RJOW 140000Z 31003KT 280V010 9999 FEW010 BKN/// 27/25 Q1014
RJOY 140000Z 06007KT 030V100 9999 FEW020 BKN/// 30/24 Q1014
RJSA 140000Z 36008KT 330V060 9999 FEW020 21/14 Q1020
RJSC 140000Z 34005KT 300V020 9999 FEW020 BKN/// 24/19 Q1018
RJSF 140000Z 36006KT 320V040 9999 FEW020 26/19 Q1019
RJSI 140000Z 01010KT 9999 FEW030 24/18 Q1018
RJSM 140000Z 03016KT 360V060 9999 FEW020 BKN040 20/13 Q1020
RJSN 140000Z 03010KT 9999 FEW030 SCT/// 26/20 Q1018
RJSS 140000Z 06007KT 9999 FEW040 BKN/// 26/17 Q1017
RJTF 140000Z 36008KT 330V030 9999 FEW020 BKN045 BKN/// 29/24 Q1016
RJTO 140000Z 05011KT 9999 FEW009 BKN/// 28/26 Q1015
UTSK 140000Z 07006KT CAVOK 15/02 Q1010 R16/CLRD70
RJTT 140000Z 05007KT 9999 FEW015 SCT040 BKN/// 28/25 Q1015 NOSIG RMK 1CU015 4SC040 A3000
RKJB 140000Z 08007KT 9999 SCT030 BKN200 26/19 Q1013 NOSIG
RORS 140000Z VRB02KT 9999 FEW023 BKN/// 29/24 Q1004
RKPC 140000Z 09019KT 8000 -RA SCT010 BKN025 OVC100 25/23 Q1011 NOSIG
RKNY 140000Z 35005KT 9999 SCT013 BKN020 BKN130 22/20 Q1022 NOSIG
RKSS 140000Z 31004KT 9999 -RA FEW045 BKN100 24/17 Q1017 NOSIG
RKTN 140000Z 13009KT 9999 FEW040 BKN230 24/16 Q1018
RKTU 140000Z 06009KT CAVOK 23/15 Q1016
RPLL 140000Z 26008KT 9999 SCT023 28/26 Q1010 NOSIG RMK A2983
RPVD 140000Z 34008KT 9999 FEW015 30/25 Q1011 RMK A2985
RPLC 140000Z 14004KT 4000 HZ SCT020 BKN300 29/23 Q1010 RMK A2983
RPMD 140000Z VRB01KT 9999 FEW016 SCT290 29/25 Q1012 RMK A2988
RPMR 140000Z VRB02KT 9999 FEW018 SCT250 28/22 Q1013 RMK A2991
RPMZ 140000Z VRB01KT 9999 FEW017 SCT090 BKN300 29/25 Q1012 RMK A2988
VAAH 140000Z 00000KT 4000 BR FEW020 BKN080 27/26 Q1002 TEMPO 3000 -RA
VABB 140000Z 19003KT 2500 HZ FEW012 SCT018 FEW025TCU BKN090 26/25 Q1004 NOSIG
VABP 140000Z 20006KT 3000 BR SCT015 SCT020 FEW030CB BKN100 24/24 Q1003 NOSIG
VAID 140000Z 27008KT 2500 -RA SCT010 BKN015 OVC080 22/21 Q1005 TEMPO 1000 RA
VIDP 140000Z 07009KT 3200 BR FEW035 SCT100 28/24 Q1005 BECMG 3000 BR
VANP 140000Z 20005KT 2000 BR FEW010 SCT018 OVC080 25/25 Q1006 NOSIG
VARK 140000Z 32005KT 5000 -RA SCT012 SCT020 BKN080 24/24 Q1003 TEMPO 3000 RA
VEBS 140000Z 20005KT 4000 HZ SCT018 SCT100 26/26 Q1006 NOSIG
VECC 140000Z 18008KT 3000 HZ SCT018 FEW030CB BKN100 27/25 Q1005 NOSIG
VEGT 140000Z 00000KT 2500 BR SCT018 FEW025CB BKN100 26/25 Q1008 NOSIG
VEGY 140000Z 00000KT 2000 -RA SCT016 FEW030CB OVC080 26/25 Q1005
VEJS 140000Z 00000KT 2000 HZ SCT015 BKN100 26/25 Q1006
VEMN 140000Z 00000KT 2500 BR SCT018 FEW025CB BKN100 26/25 Q1008 NOSIG
VEPT 140000Z 11006KT 2500 BR FEW010 SCT018 BKN100 26/25 Q1004 NOSIG
VERC 140000Z 18005KT 2500 -RA SCT012 SCT015 FEW030CB OVC080 24/23 Q1008 NOSIG
VIJP 140000Z 05004KT 2500 BR SCT030 SCT100 27/24 Q1004 NOSIG
VILK 140000Z 10008KT 2000 -RA SCT010 SCT018 FEW030CB OVC090 25/25 Q1002 NOSIG
VOBG 140000Z 25010KT 6000 SCT008 SCT012 BKN080 20/19 Q1014 NOSIG
VOCI 140000Z 13002KT 2500 BR FEW008 SCT012 BKN080 24/24 Q1010 TEMPO 2000 BR
VOTV 140000Z 34002KT 3000 BR FEW015 26/25 Q1010 NOSIG
VTCT 140000Z 00000KT 8000 BKN006 OVC020 23/23 Q1012 NOSIG
VOMD 140000Z 00000KT 6000 FEW020 26/24 Q1010 NOSIG
VOML 140000Z 00000KT 4000 BR FEW003 SCT012 BKN080 25/23 Q1010 TEMPO 3000 BR
VTCP 140000Z VRB02KT 8000 SCT040 25/24 Q1011 NOSIG
VTPM 140000Z 15002KT 9999 FEW015 SCT025 BKN090 24/24 Q1011 NOSIG
VOBL 140000Z 24005KT 6000 SCT008 20/20 Q1014 NOSIG
VOBZ 140000Z 34002KT 5000 HZ SCT020 27/26 Q1006 NOSIG
VOCB 140000Z 23005KT 4000 BR FEW008 23/22 Q1012 NOSIG
VOCL 140000Z 00000KT 5000 BR SCT012 BKN080 23/22 Q1010 NOSIG
VOTR 140000Z VRB02KT 3000 BR FEW016 25/24 Q1010 NOSIG
VTBD 140000Z 00000KT 9999 FEW020 27/27 Q1010 NOSIG
VTCC 140000Z VRB01KT 9999 FEW015 BKN032 24/23 Q1012 NOSIG
VTCL 140000Z VRB02KT 9999 FEW015 BKN020 24/22 Q1011 NOSIG
VTCN 140000Z 03002KT 9999 SCT010 BKN015 24/23 Q1011 NOSIG
VTPB 140000Z 00000KT 9999 FEW008 BKN025 25/25 Q1011 NOSIG
VTPH 140000Z VRB02KT 9999 FEW030 25/22 Q1009 NOSIG
VTPO 140000Z VRB01KT 9999 FEW010 SCT080 25/24 Q1010 NOSIG
VTPP 140000Z 09003KT 9999 FEW030 SCT080 25/25 Q1010 NOSIG
VTSG 140000Z VRB01KT 9999 FEW020 SCT080 24/24 Q1012 NOSIG
WAJJ 140000Z 12008KT 9999 FEW014 30/22 Q1012 NOSIG
VTSE 140000Z 00000KT 9000 FEW020 SCT100 25/24 Q1010 NOSIG
VTSF 140000Z VRB01KT 8000 FEW018 SCT100 26/25 Q1011 NOSIG
VTSM 140000Z 26003KT 9999 FEW020 SCT060 27/24 Q1011 NOSIG
VTSP 140000Z 29008KT 9999 FEW020 SCT060 26/22 Q1011 WS ALL RWY NOSIG
VTSR 140000Z 00000KT 9000 -RA BKN020 24/24 Q1012 NOSIG
VTST 140000Z 00000KT 2000 1000W R08/0900 BR BKN002 23/23 Q1012 BECMG TL0130 6000 NSW
VTUD 140000Z 06003KT 030V090 9999 FEW030 BKN050 27/26 Q1010 NOSIG
VTUI 140000Z 23002KT 9999 SCT025 SCT100 26/25 Q1010 NOSIG
VTUK 140000Z VRB02KT 9999 FEW030 SCT100 26/25 Q1011 NOSIG
VTUL 140000Z VRB02KT 9999 SCT005 BKN015 BKN050 25/25 Q1011 NOSIG
WADD 140000Z 13010KT 9999 SCT016 26/25 Q1015 NOSIG
WAMM 140000Z 21005G15KT 130V290 9999 FEW020 31/23 Q1012 NOSIG
WAPP 140000Z 05005KT 020V090 9999 FEW016CB SCT017 27/25 Q1012 NOSIG RMK CB TO SW ? N
WIBB 140000Z 00000KT 8000 FEW017 23/22 Q1011 NOSIG
WIDD 140000Z 25004KT 9999 FEW014 25/24 Q1014 NOSIG
WIMM 140000Z 24003KT 4000 -RA BKN018 23/22 Q1012 NOSIG
WIOO 140000Z 08003KT 9999 FEW014 23/22 Q1012 NOSIG
WIPP 140000Z 00000KT 8000 FEW010 24/23 Q1013 RERA
WALL 140000Z 29005KT 9999 FEW020 25/25 Q1013 NOSIG
YBHM 140000Z AUTO 15017KT 9999 // SCT023 22/18 Q1023 RF00.0/000.0
YBMA 140000Z AUTO 09008KT 9999 // NCD 29/09 Q1020 RF00.0/000.0
YBRK 140000Z 11008KT 9999 SCT030 22/14 Q1024
YCFS 140000Z AUTO 19013KT 9999 // NCD 17/09 Q1027 RF00.0/000.0
YCIN 140000Z AUTO 17005KT 9999 // NCD 26/14 Q1016 RF00.0/000.0
YFRT 140000Z AUTO 27029KT 9999 // SCT046 17/03 Q1015 RF00.0/000.0
YGEL 140000Z AUTO 12003KT 9999 // OVC055 15/12 Q1024 RF00.0/002.0
YHID 140000Z AUTO 11020KT 9999 // NCD 30/24 Q1014 RF00.0/000.0
YMAV 140000Z AUTO 03009KT 9999 // NCD 13/06 Q1022 RF00.0/000.0
YPGV 140000Z 10014KT 9999 BKN022 29/22 Q1016
YPJT 140000Z AUTO 23011KT 9999 // SCT028 SCT035 BKN042 14/10 Q1021
YMLT 140000Z AUTO 01005KT 9999 // BKN048 10/02 Q1026 RF00.0/000.0
YMML 140000Z 02024G34KT 9999 FEW026 12/04 Q1022 RF00.0/000.0
YPEA 140000Z 30006KT 9999 SCT040 15/10 Q1021
YPDN 140000Z 18005KT 9999 FEW021 30/24 Q1016
YPKG 140000Z AUTO 26013KT 9999 // NCD 11/03 Q1019 RF00.0/000.2
YPPD 140000Z AUTO 15012KT 9999 // NCD 25/15 Q1018 RF00.0/000.0
YPWR 140000Z AUTO 36025KT 9999 // OVC115 22/03 Q1012 RF00.0/000.0
YPPH 140000Z 25012KT 9999 VCSH SCT019 BKN046 15/10 Q1021
YSDU 140000Z AUTO 06012KT 9999 // NCD 15/09 Q1026 RF00.0/000.0
YSRI 140000Z AUTO 17005KT 9999 // NCD 15/09 Q1028 RF00.0/000.0
YSSY 140000Z 16009KT 9999 BKN030 16/09 Q1028
NCRG 140000Z AUTO 10010KT 070V140 9999 SCT030/// 26/20 Q1020
NFNL 140000Z 09015KT 9999 FEW030 30/21 Q1016
NLWW 140000Z 11010KT 080V150 9999 FEW025 SCT030 30/23 Q1015 NOSIG
UMMS 140000Z 24002MPS 8000 BKN005 OVC046 10/10 Q1005 NOSIG RMK QBB170
WSAP 140000Z 22004KT 9999 FEW018 BKN300 27/22 Q1013
WSSL 140000Z VRB02KT 9999 FEW018 BKN300 26/23 Q1012
UBBB 140000Z 01008KT CAVOK 21/18 Q1006 NOSIG
UTDD 140000Z VRB01MPS 8000 NSC 14/06 Q1012 R09/CLRD// NOSIG RMK QFE691/0922
UTDL 140000Z 23001MPS 9999 NSC 12/09 Q1012 R26/CLRD70 NOSIG RMK QFE721/0962
UTFA 140000Z 17002KT 3700 BR NSC 11/09 Q1012
UTFN 140000Z 32006KT 9999 NSC 14/07 Q1011 R28/CLRD70 NOSIG
VDPP 140000Z VRB03KT 9999 SCT015 27/25 Q1009
VDSR 140000Z 11003KT 9999 SCT015 SCT040 26/25 Q1009
KSLH 140000Z AUTO 26005KT 10SM CLR 18/16 A2986 RMK AO2
CWHV 140000Z AUTO 15007KT 20/17 RMK AO1 SLP056 T01970171 58013
CYBC 140000Z AUTO 09010KT 8SM FEW004 OVC130 15/15 A2975 RMK RVR MISG SLP076 DENSITY ALT 300FT
CYBG 140000Z CCA 11002KT 25SM SCT050CB OVC090 19/18 A2968 RMK CB4AC4 CB OHD MOV N SLP052
CYBX 140000Z 08003KT 15SM FEW040 10/07 A2991 RMK SC1 SLP132
CWOC 140000Z AUTO 08003KT 19/18 RMK AO1 SLP100 T01860177 56001
CWPD 140000Z AUTO 19002KT 15/15 RMK AO1 SLP047 T01450149 56008
CWPK 140000Z AUTO 07001KT 16/16 RMK AO1 1PAST HR 8005 SLP057 P0000 T01570157 50058
CYQB 140000Z 07007KT 8SM SCT004 BKN068 OVC120 19/18 A2968 RMK SF3AC4AC1 SLP053 DENSITY ALT 1100FT
CYHU 140000Z AUTO 29012KT 9SM OVC022 18/17 A2965 RMK SLP042 DENSITY ALT 800FT
CXZV 140000Z AUTO 07005KT 15/15 RMK AO1 SLP093 T01490147 56005
CYKL 140000Z AUTO 17006KT 9SM BKN071 14/10 A2975 RMK SLP088 DENSITY ALT 2200FT
CYZV 140000Z 09008KT 5SM BR OVC002 15/15 A2981 RMK FG4ST4 SLP098 DENSITY ALT 400FT
CWBA 140000Z AUTO 02001KT 18/17 RMK AO1 3PAST HR M P0001 T01780166 50051
CWIT 140000Z AUTO 27006KT 17/16 RMK AO1 2007 SLP050 T01720163 50137
CWVQ 140000Z AUTO 25008KT 17/17 RMK AO1 1008 SLP054 T01650166 50054
VLLB 140000Z 00000KT 3000 BR OVC006 24/23 Q1010 NOSIG
UTST 140000Z 11002KT CAVOK 17/04 Q1010 R25/CLRD70 NOSIG
CWIZ 140000Z AUTO 28006KT 18/17 RMK AO1 T01760170 50122
CYVO 140000Z 33005KT 15SM BKN060 OVC120 18/18 A2974 RMK SC5AC3 SLP079 DENSITY ALT 1900FT
CWEW 140000Z AUTO 30003KT 19/19 RMK AO1 7PAST HR 0004 SLP046 P0003 T01920188 50575
TNCA 140000Z 08015KT 9999 FEW018 29/25 Q1011 NOSIG
LEDA 140000Z AUTO 31005KT 210V020 8000 RA FEW025 18/17 Q1012
UTTT 140000Z 10004KT CAVOK 16/04 Q1012 R08L/CLRD70 NOSIG
CYVC 140000Z 17005KT 15SM SCT120 BKN250 17/06 A3002 RMK AC3CI2 SLP180 DENSITY ALT 1700FT
UTNU 140000Z 04006KT CAVOK 11/02 Q1012 R31/CLRD70 NOSIG
LQMO 140000Z VRB01KT CAVOK 15/11 Q1014
UTNN 140000Z 03004KT CAVOK 12/M02 Q1014 R33/CLRD60 NOSIG
CYMH 140000Z AUTO 35005KT 320V020 9SM OVC004 09/09 A2993 RMK SLP138
CWXL 140000Z AUTO 01002KT 21/08 RMK AO1 SLP080 T02090082 56007
KNBT 140000Z AUTO 20005KT 10SM CLR 29/23 A2987 RMK AO2 SLP119 T02890233 10339 20289 53011
CYYT 140000Z 36015G22KT 2SM -DZ BR OVC004 13/13 A2980 RMK SF8 SLP097 DENSITY ALT 500FT
TAPA 140000Z 07007KT 040V110 9999 FEW018 28/23 Q1014 NOSIG
NZAA 140000Z AUTO 24009KT 9999 FEW047/// SCT060/// 15/08 Q1019 NOSIG
TLPL 140000Z 08014KT 9999 BKN022 28/24 Q1013 NOSIG
TTCP 140000Z 05003KT 9999 FEW016 27/23 Q1012 NOSIG
TUPJ 140000Z 06007KT 10SM FEW019 28/26 A2998 RMK Q1015 VIS16KM
TBPB 140000Z 08011KT 9999 FEW018 28/23 Q1012 NOSIG
CXBW 140000Z AUTO 06006KT 21/08 RMK AO1 T02070075
CWXA 140000Z AUTO 00005KT 18/06 RMK AO1 SLP125 T01760059 53002
CXBA 140000Z AUTO 15010KT 14/05 RMK AO1 PK WND 14018/2323 T01380053
CXBR 140000Z AUTO 05008KT RMK AO1
CYYC 140000Z 01005KT 5SM FU BKN130 18/07 A2984 RMK FU2AC5 SLP108 DENSITY ALT 4900FT
CXCP 140000Z AUTO 04006KT 18/07 RMK AO1 T01750066
CWCT 140000Z AUTO 14012KT 16/06 RMK AO1 PK WND 15018/2348 SLP122 T01560061 55004
CXFM 140000Z AUTO 08002KT 20/08 RMK AO1 T01990081
CYPY 140000Z AUTO 13004KT 9SM CLR 18/05 A2984 RMK SLP116 DENSITY ALT 1400FT
CWDK 140000Z AUTO 07005KT 19/09 RMK AO1 SLP092 T01880086 55002
CWFJ 140000Z AUTO 01004KT 19/10 RMK AO1 T01870100
CWGY 140000Z AUTO 11014G19KT 16/04 RMK AO1 3002 PK WND 12020/2317 SLP123 T01590043 50006
CWRT 140000Z AUTO 20/09 RMK AO1 SLP084 T02010094 56005
CXCD 140000Z AUTO 23004KT 21/01 RMK AO1 T02050009
CXCS 140000Z AUTO 10009KT 14/07 RMK AO1 PK WND 12020/2307 T01370069
CXEG 140000Z AUTO 00000KT 20/08 RMK AO1 SLP106 T01980083 56007
CXFR 140000Z AUTO 28004KT 21/03 RMK AO1 T02060033
CXMM 140000Z AUTO 13007KT 17/08 RMK AO1 SLP120 T01710077 56009
CYBW 140000Z AUTO VRB02KT 9SM BKN140 18/07 A2986 RMK SLP113 DENSITY ALT 5300FT
CYEG 140000Z 00000KT 10SM BKN110 20/09 A2982 RMK AC7 FU SLP108 DENSITY ALT 3600FT
CYET 140000Z AUTO 06007KT 9SM FEW150 21/09 A2982 RMK SLP106 DENSITY ALT 4600FT
CYOD 140000Z 11012KT 10SM SCT040TCU BKN095 BKN140 12/11 A2991 RMK TCU3AC3AC1 DENSITY ALT 2050FT SLP139
CYOJ 140000Z 20004KT 140V220 15SM FEW260 19/06 A2981 RMK CI2 SLP108 DENSITY ALT 2000FT
CYQU 140000Z 33007KT 20SM FEW070 22/03 A2983 RMK CU1 FU SLP112 DENSITY ALT 3700FT
CZZJ 140000Z AUTO 06007KT 20/08 RMK AO1 SLP108 T01950082 55002
CXHR 140000Z AUTO 13003KT 18/07 RMK AO1 T01790072
CXOY 140000Z AUTO 12016KT 16/04 RMK AO1 PK WND 12025/2332 T01640041
CWJW 140000Z AUTO 31005KT 21/06 RMK AO1 SOG 01 5004 SLP097 T02080060
CWLB 140000Z AUTO 11008KT 16/09 RMK AO1 SLP119 T01610093 55005
CWOE 140000Z AUTO 12013G18KT 20/07 RMK AO1 PK WND 13018/2354 SLP089 T01950072 56002
CWRY 140000Z AUTO 32001KT 20/10 RMK AO1 SLP085 T02030098 56006
CXHD 140000Z AUTO 16014KT 20/06 RMK AO1 PK WND 15022/2313 T01990062
CXHP 140000Z AUTO 35005KT 20/08 RMK AO1 T01990084
CXKM 140000Z AUTO 15013KT 19/07 RMK AO1 PK WND 16021/2339 T01910068
CXMG 140000Z AUTO 14004KT 19/06 RMK AO1 T01910058
CXMO 140000Z AUTO 16006KT 20/10 RMK AO1 T01970096
CXOL 140000Z AUTO 32006KT 17/07 RMK AO1 T01680070
CYLL 140000Z 15017G25KT 12SM OVC100 16/05 A2991 RMK AC8 SLP144 DENSITY ALT 2800FT
CYQL 140000Z 01004KT 6SM FU OVC110 19/10 A2980 RMK FU4AC4 SLP091 DENSITY ALT 4400FT
CYXH 140000Z 08006KT 10SM SCT120 OVC270 23/06 A2976 RMK AC4CI4 FU SLP073 DENSITY ALT 4100FT
CZOL 140000Z AUTO 29003KT 21/09 RMK AO1 T02110091
CXRL 140000Z AUTO 10007KT 14/10 RMK AO1 T01430098
CXWM 140000Z AUTO 35005KT 22/06 RMK AO1 T02170060
CPBT 140000Z AUTO 01004KT 18/12 RMK AO1 T01800119
CPEH 140000Z AUTO 00000KT 19/09 RMK AO1 T01940087
CPFI 140000Z AUTO 02004KT 20/10 RMK AO1 T02010096
CPIR 140000Z AUTO 35002KT 20/09 RMK AO1 T01980089
CWVI 140000Z AUTO 16013KT 20/07 RMK AO1 PK WND 15019/2332 SLP106 T02040068 55001
CWAV 140000Z AUTO 01004KT 16/08 RMK AO1 SLP119 T01640078 55000
CWGM 140000Z AUTO 08004KT 19/10 RMK AO1 SLP092 T01870102 55001
CWHI 140000Z AUTO 10007KT 20/06 RMK AO1 T01990063
CWYL 140000Z AUTO 22001KT 12/ RMK AO1 SLP122 T0115 55004
CXAK 140000Z AUTO 13007KT 19/09 RMK AO1 T01890089
CXPA 140000Z AUTO 02004KT 21/04 RMK AO1 T02080042
CXPL 140000Z AUTO 10013KT 21/06 RMK AO1 PK WND 09017/2304 T02060058
CXSC 140000Z AUTO 08012KT 19/03 RMK AO1 PK WND 08019/2301 T01890030
CXSL 140000Z AUTO 06004KT 19/11 RMK AO1 T01890107
CXSP 140000Z AUTO 12008KT 18/10 RMK AO1 T01780102
CXTH 140000Z AUTO 15014KT 20/07 RMK AO1 PK WND 15021/2321 T01960073
CXVM 140000Z AUTO 17008KT 18/05 RMK AO1 PK WND 17018/2300 T01840054
CYQF 140000Z AUTO 00000KT 9SM CLR 16/08 A2985 RMK SLP120 DENSITY ALT 3900FT
CYZH 140000Z AUTO 31004KT 9SM CLR 18/10 A2982 RMK SLP111 DENSITY ALT 2900FT
CZPC 140000Z AUTO 09009KT 9SM SCT240 19/09 A2984 RMK SLP096 DENSITY ALT 5400FT
CPRO 140000Z AUTO 34002KT 21/08 RMK AO1 T02110075
CPRY 140000Z AUTO 01005KT 20/10 RMK AO1 T01960103
CPST 140000Z AUTO 09005KT 18/06 RMK AO1 T01840064
CPSV 140000Z AUTO 36001KT 21/08 RMK AO1 T02140080
CYBD 140000Z 28011KT 12SM FEW065 FEW078 20/13 A2983 RMK CU1AC1 CU TR AC TR HZ CB ASOCTD E SLP105 DENSITY ALT 900FT
CYYE 140000Z VRB02KT 30SM FEW050 20/03 A2980 RMK CU1 SLP106 DENSITY ALT 2300FT
CBBC 140000Z AUTO 31004KT 190V350 9SM CLR 18/13 A2990 RMK SLP128 DENSITY ALT 600FT
CWKX 140000Z AUTO 23006KT 18/02 RMK AO1 SLP147 T01750016 58008
CWLY 140000Z AUTO 00000KT 9SM BKN160 BKN200 26/12 A2970 RMK SLP058 DENSITY ALT 2500FT
CWNP 140000Z AUTO 28004KT 17/13 RMK AO1 SLP099 T01700129 56010
CWPZ 140000Z AUTO 27004KT 21/01 RMK AO1 SLP129 T02100005 56008
CWZA 140000Z AUTO 22006KT 22/13 RMK AO1 SLP102 T02180134 55011
CYBL 140000Z 10004KT 030V120 15SM FEW045 21/10 A2985 RMK FU1CU1 SLP112 DENSITY ALT 1300FT
CYCD 140000Z 36005KT 340V120 8SM FEW040 BKN070 22/13 A2984 RMK SC2AC4 SLP107 DENSITY ALT 1100FT
CYCG 140000Z 34012G18KT 10SM SCT110TCU BKN240 21/13 A2975 RMK TCU3CI4 FU SLP076 DENSITY ALT 2900FT
CYCQ 140000Z VRB02KT 1/2SM FU VV018 19/10 A2983 RMK FU8 SLP116 DENSITY ALT 3000FT
CYDQ 140000Z AUTO 28005KT 9SM CLR 21/03 A2984 RMK SLP118 DENSITY ALT 3500FT
CYGE 140000Z 25006KT 160V300 10SM -RA BKN071 OVC100 14/12 A2985 RMK AC6AC2 WDSPRD FU LAST STFD OBS/NEXT 141200Z SLP114 DENSITY ALT 3200FT
CYHE 140000Z AUTO 28010G19KT 250V330 7SM CLR 22/14 A2980 RMK SLP092 DENSITY ALT 1100FT
CYKA 140000Z 08008KT 6SM FU FEW100CB BKN120 23/12 A2975 RMK CB2AC3 SLP077 DENSITY ALT 2500FT
CYLW 140000Z AUTO 32012G19KT 8SM CLR 22/14 A2977 RMK SLP081 DENSITY ALT 2700FT
CYQQ 140000Z 05003KT 10SM FEW050 FEW210 20/12 A2985 RMK SC1CI1 FU SLP109
CYXC 140000Z 12008KT 060V140 6SM FU FEW070TCU SCT140 25/07 A2977 RMK FU1TCU1AC2 SLP071 DENSITY ALT 5100FT
CYXJ 140000Z 20003KT 170V280 6SM FU SCT030 BKN200 19/04 A2986 RMK FU4CI1 SLP124 DENSITY ALT 3400FT
CYXX 140000Z 23009KT 15SM SCT070 BKN090 20/12 A2984 RMK AC3AC4 DIST FU ALL QUADS SLP106 DENSITY ALT 1000FT
CYZY 140000Z AUTO 00000KT 7SM CLR 19/05 A2986 RMK SLP129 DENSITY ALT 3400FT
CZMT 140000Z 33011KT 15SM SKC 15/11 A2997 RMK LAST STFD OBS./NEXT 141300 UTC SLP151
CYDC 140000Z CCA 21018G30KT 7SM FEW070TCU BKN090CB BKN130 OVC140 OVC220 19/08 A2981 RMK TCU1CB5AC1AC2CI1 TCU TR CI TR OCNL LTNG SLP090 DENSITY ALT 3500FT
CYXS 140000Z AUTO VRB02KT 9SM CLR 21/04 A2986 RMK SLP123 DENSITY ALT 3600FT
CWYY 140000Z AUTO 36004KT 23/16 RMK AO1 SLP064 T02260158 56015
CWEZ 140000Z AUTO 34001KT 19/13 RMK AO1 SLP106 T01910133 56013
CWGW 140000Z AUTO 17007KT 23/04 RMK AO1 SLP077 T02260039 56011
CWMM 140000Z AUTO 26006KT 22/13 RMK AO1 SLP107 T02170127 56012
CWNM 140000Z AUTO 05007KT 24/12 RMK AO1 SLP067 T02440122 56012
CWSK 140000Z AUTO 16005KT 21/12 RMK AO1 SLP092 T02120115 56013
CWSL 140000Z AUTO 02005KT 19/16 RMK AO1 7011 SLP101 T01940155 50002
CWSW 140000Z 17008KT 12SM FEW075 FEW220 23/06 A2978 RMK CU2CS1 CS TR FU SLP075 DENSITY ALT 5800FT
CWUS 140000Z AUTO 13002KT 21/15 RMK AO1 SLP083 T02130146 56011
CYPR 140000Z AUTO 26004KT 240V350 9SM CLR 16/11 A2993 RMK SLP138 DENSITY ALT 300FT
CYPW 140000Z 27005KT 10SM FEW060 20/13 A2986 RMK CU1 CU TR FU SLP113 DENSITY ALT 1200FT
CYQZ 140000Z AUTO 01007KT 310V040 9SM CLR 23/07 A2982 RMK SLP107 DENSITY ALT 3300FT
CYRV 140000Z AUTO 29003KT 280V060 1 1/2SM -RA BR FEW003 SCT021 BKN055 OVC075 14/14 A2986 RMK PCPN 1.2MM PAST HR SLP117 DENSITY ALT 1800FT
CYXT 140000Z 29004KT 230V310 20SM SKC 21/08 A2988 RMK SLP122 DENSITY ALT 1700FT
CYYD 140000Z 30007KT 260V330 25SM SKC 20/05 A2988 RMK SLP127 DENSITY ALT 2800FT
CYYF 140000Z 33005KT 6SM FU FEW065TCU BKN230 22/15 A2976 RMK TCU2CI4 SLP076 DENSITY ALT 2400FT
CYZP 140000Z AUTO 11004KT 9SM CLR 16/12 A2996 RMK SLP146 DENSITY ALT 100FT
CZST 140000Z 00000KT 15SM FEW220 17/10 A2990 RMK CS1 SLP126 DENSITY ALT 400FT
AYMH 140000Z VRB03KT 9999 HZ FEW030 -/- Q1025
AYNZ 140000Z 29003KT 9999 HZ SCT020 SCT040 29/21 Q1015
AYPY 140000Z VRB03KT 9999 HZ SCT035 31/24 Q1013
GUCY 140000Z 36012KT 6000 -TSRA BKN012 FEW023CB OVC100 26/24 Q1012 CB/E-SE NOSIG
UDSG 140000Z 00000KT 9999 SCT046TCU 16/06 Q1013 R02/////// NOSIG
UDYZ 140000Z VRB02KT 9999 NSC 21/02 Q1006 R09/010070 NOSIG
VLVT 140000Z 34002KT 5000 BR FEW020 FEW200 25/24 Q1010 NOSIG
KPNS 140000Z 35007KT 10SM CLR 26/16 A2992 RMK AO2 T02610156 $
FBMN 140000Z 11013KT CAVOK 23/10 Q1020
WMSA 140000Z VRB01KT 9999 FEW026 25/23 Q1013
SBTA 140000Z VRB02KT 7000 NSC 19/18 Q1014
WMKK 140000Z 02003KT 330V060 9999 FEW010 24/22 Q1013 NOSIG
WMKI 140000Z 22007KT 160V260 7000 -RA SCT024 22/21 Q1014
WMKJ 140000Z VRB02KT 9999 FEW017 25/23 Q1012
WMKM 140000Z 00000KT 9999 FEW028 25/23 Q1013
WMKN 140000Z VRB02KT 9999 FEW022 24/23 Q1011
WMKP 140000Z 18008KT 140V220 8000 -TSRA FEW010 FEW017CB SCT025 27/25 Q1013 RERA NOSIG
EICK 140000Z 35008KT 9999 FEW020 11/09 Q1011 NOSIG
EIDW 140000Z 33005KT 9999 FEW005 BKN015 11/11 Q1012 TEMPO BKN010
GMML 140000Z 36005KT 7000 NSC 21/21 Q1015 NOSIG
GANR 140000Z 28006KT 9999 -TSRA SCT040CB 22/22 Q1013
GMFF 140000Z 31008KT 9999 FEW030 SCT200 21/15 Q1015 NOSIG
GMFK 140000Z 28008KT CAVOK 30/M05 Q1015 NOSIG
GMFM 140000Z 30004KT 280V340 CAVOK 20/16 Q1015 NOSIG
GMFO 140000Z VRB01KT 9999 FEW026 BKN130 21/17 Q1014 NOSIG
GMME 140000Z 24005KT 5000 FEW006 BKN010 21/21 Q1012 NOSIG
GMMN 140000Z 26004KT 9999 FEW013 BKN076 21/18 Q1014 NOSIG
GMMW 140000Z 28004KT 8000 FEW020 SCT100 22/16 Q1012 NOSIG
GMMX 140000Z 29008KT 260V320 9999 SCT040 22/16 Q1015 NOSIG
GMTN 140000Z 01005KT 300V050 9999 FEW020 SCT150 24/17 Q1012 NOSIG
GMMZ 140000Z VRB02KT 8000 NSC 24/M02 Q1016 NOSIG
GMTA 140000Z 02005KT CAVOK 24/19 Q1011 NOSIG
GMTT 140000Z 21006KT 170V230 6000 3000W SCT013 BKN210 23/22 Q1012 NOSIG
GOTT 140000Z 16012KT 9999 TS BKN013 FEW030CB 24/22 Q1014
GQPP 140000Z 36010KT 8000 NSC 22/21 Q1014 NOSIG
DTKA 140000Z 09006KT CAVOK 29/18 Q1011 NOSIG
DTTD 140000Z AUTO 08004KT 030V120 NCD 27/09 Q1016
DTTZ 140000Z 09015KT CAVOK 31/20 Q1012
DTMB 140000Z 16006KT CAVOK 27/22 Q1014
DTTA 140000Z 12006KT 070V150 9999 FEW026 27/22 Q1013
DTTB 140000Z 11009KT 9999 FEW020 27/23 Q1013
DTTF 140000Z 33003KT CAVOK 28/18 Q1015 NOSIG
DTTG 140000Z 08007KT CAVOK 26/18 Q1014 NOSIG
DTTJ 140000Z 14004KT CAVOK 27/23 Q1014 NOSIG
DTTL 140000Z 13004KT 070V190 CAVOK 27/22 Q1014
DTTN 140000Z 05006KT 8000 FEW020 27/20 Q1011
DTTX 140000Z 14004KT 9999 FEW020 28/22 Q1014
FABL 140000Z AUTO 04008KT //// R02///// // ///////// 13/07 Q1027
FACT 140000Z VRB02KT CAVOK 11/09 Q1018 NOSIG
FAKM 140000Z AUTO 05004KT //// // ////// 10/03 Q1024
CWJV 140000Z AUTO 08002KT 22/14 RMK AO1 SLP088 T02150142 55010
FAUP 140000Z 34001KT CAVOK 11/M06 Q1020 NOSIG
CWLM 140000Z AUTO 24007KT 17/11 RMK AO1 SLP110 T01710111 56013
CWYJ 140000Z AUTO 20003KT 21/11 RMK AO1 SLP111 T02110107 56013
CYAZ 140000Z 23005KT 200V290 15SM BKN066 18/14 A2988 RMK AC7 SLP122 DENSITY ALT 500FT
CYVR 140000Z 28006KT 7SM FEW070 SCT160 19/15 A2984 RMK AC2AC1 HZ ALL QUADS SLP107 DENSITY ALT 600FT
CYWH 140000Z 22009KT 190V250 10SM FEW030 SCT090 BKN200 18/12 A2985 RMK CU1AC2CI2 FU SLP111 DENSITY ALT 400FT
CYYJ 140000Z 13007KT 20SM FEW035 FEW045 SCT250 20/12 A2984 RMK CU1SC1CI1 HZ SLP108 DENSITY ALT 800FT
FAPE 140000Z VRB02KT 8000 NSC 10/09 Q1025 NOSIG
FAPP 140000Z AUTO 08004KT //// // ////// 14/12 Q1030
FAWB 140000Z AUTO 06008KT //// // ////// 14/10 Q1028
FAWK 140000Z AUTO 05009KT //// // ////// 13/09 Q1030
CWWK 140000Z AUTO 21002KT 17/14 RMK AO1 SLP112 T01700142 56014
CXDW 140000Z AUTO 04005KT 15/05 RMK AO1 SLP193 T01490054 53001
CWPE 140000Z AUTO 09004KT 16/15 RMK AO1 SLP102 T01560153 55005
CXMD 140000Z AUTO 06006KT 15/04 RMK AO1 SLP190 T01450044 53003
CYWG 140000Z 02007KT 15SM FEW130 FEW200 BKN230 14/03 A3008 RMK AC1CC2CI5 AC TR SLP197
CERM 140000Z AUTO 11002KT 20/18 RMK AO1 SLP079 T01950180 55003
CWAE 140000Z 18005KT 15SM SCT065TCU BKN100 21/10 A2982 RMK TCU3AC3 FU WIND ESTD SLP097 DENSITY ALT 3600FT
CWCF 140000Z AUTO 30005KT 13/02 RMK AO1 SLP205 T01250023 53001
CWEQ 140000Z AUTO 08004KT 16/M00 RMK AO1 SLP198 T01581004 55002
CWII 140000Z AUTO 36007KT 16/05 RMK AO1 SLP197 T01550052 53001
CWJD 140000Z AUTO 11003KT 12/05 RMK AO1 SLP203 T01150053 56002
CWPO 140000Z AUTO 05006KT 14/06 RMK AO1 SLP201 T01360060 55001
CWWA 140000Z AUTO 24001KT 19/13 RMK AO1 SLP110 T01940127 56012
CXGH 140000Z AUTO 34006KT 15/04 RMK AO1 SLP197 T01480035 53002
CXWN 140000Z AUTO 02004KT 15/04 RMK AO1 SLP192 T01460043 53001
CYBR 140000Z 09008KT 15SM BKN120 OVC230 15/05 A3009 RMK AC6CS2 SLP203 DENSITY ALT 1500FT
CYCX 140000Z 17002KT 12SM FEW100 BKN150 19/17 A2982 RMK AC2AC4 DENSITY ALT 1053FT SLP098
CYDN 140000Z AUTO 00000KT 4SM HZ CLR 15/04 A3011 RMK SLP207 DENSITY ALT 1000FT
CYFC 140000Z AUTO 17003KT 9SM OVC120 19/17 A2981 RMK SLP097 DENSITY ALT 700FT
CYIV 140000Z AUTO VRB02KT 9SM FEW060 12/01 A3010 RMK SLP203
CYNE 140000Z AUTO 00000KT 9SM CLR 14/01 A3010 RMK SLP203
CYPG 140000Z 03005KT 15SM BKN160 BKN240 15/06 A3010 RMK AC6CI1 SLP197
CYQM 140000Z 15005KT 15SM BKN170 20/17 A2983 RMK AC7 SLP103 DENSITY ALT 1000FT
CYSJ 140000Z 15004KT 10SM OVC004 16/15 A2985 RMK ST8 SLP112 DENSITY ALT 600FT
CYTH 140000Z 22003KT 180V250 15SM BKN074 12/02 A3008 RMK AC5 SLP200
CYWL 140000Z CCA 32010KT 10SM BKN120 21/05 A2985 RMK FU3AC3 SLP108 DENSITY ALT 4600FT
CYYL 140000Z AUTO 32004KT 280V340 9SM CLR 12/02 A3005 RMK SLP194
CYYQ 140000Z 11004KT 15SM SCT060 SCT250 06/00 A3005 RMK SC3CC1 SLP180
CZBF 140000Z AUTO 12002KT 9SM OVC015 20/19 A2983 RMK SLP104 DENSITY ALT 1000FT
CZCR 140000Z AUTO 10006KT 18/18 RMK AO1 9PAST HR 5002 SLP095 P0004 T01800180 50009
CZKD 140000Z AUTO 27002KT 12/03 RMK AO1 SLP196 T01220026 56001
CWHO 140000Z AUTO 13/10 RMK AO1 SLP108 T01250102 58001
CZDB 140000Z AUTO 18005KT 21/17 RMK AO1 SLP119 T02120171 53008
CXKT 140000Z AUTO 26001KT 20/19 RMK AO1 3003 SLP108 T01970187 50009
CXMY 140000Z AUTO 18/17 RMK AO1 T01800172
CXNP 140000Z AUTO 00000KT 18/16 RMK AO1 SLP107 T01840155 51001
CWKG 140000Z AUTO 19004KT 21/18 RMK AO1 SLP115 T02090175 53006
CWSS 140000Z AUTO 10002KT 17/17 RMK AO1 SLP097 T01720166 55001
CWZN 140000Z AUTO 05009KT 18/10 RMK AO1 SLP110 T01760100 51011
CXLB 140000Z AUTO 18007KT 21/18 RMK AO1 SLP112 T02060183 53006
CXNM 140000Z AUTO 13003KT 15/15 RMK AO1 T01480145
CXRH 140000Z AUTO 13002KT 13/10 RMK AO1 SLP122 T01280095 53002
CXTD 140000Z AUTO 16009KT 18/16 RMK AO1 SLP134 T01770160 53004
CYAW 140000Z 19005KT 9SM OVC005 20/19 A2989 RMK SF8 DENSITY ALT 1095FT SLP122
CYAY 140000Z AUTO 01004KT 9SM CLR 08/07 A2992 RMK SLP134
CYDF 140000Z 00000KT 15SM SKC 13/07 A2990 RMK SLP128
CYHZ 140000Z 16007KT 3SM BR OVC004 19/18 A2988 RMK SF8 VIS N 8 VIS VRB 2 1/4-4 CIG VRB 3-5 SLP121 DENSITY ALT 1100FT
CYJT 140000Z 03004KT 15SM FEW220 16/13 A2989 RMK CI1 CI TR SLP124 DENSITY ALT 200FT
CYPD 140000Z AUTO 12003KT 9SM CLR 17/16 A2990 RMK SLP128 DENSITY ALT 700FT
CYQI 140000Z 15006KT 9SM OVC010 20/19 A2985 RMK SF8 SLP109 DENSITY ALT 800FT
CYQX 140000Z 32011KT 1/2SM R13/5000VP6000FT/U R03/P6000FT/U -DZ FG OVC002 10/10 A2989 RMK FG6ST2 SLP128
CYQY 140000Z 18002KT 15SM FEW250 16/16 A2991 RMK CI1 SLP130 DENSITY ALT 400FT
CYWK 140000Z 16002KT 15SM FEW043 SCT160 BKN210 16/14 A2974 RMK CU1AC2CI3 SLP083 DENSITY ALT 2600FT
CYYR 140000Z 20005KT 15SM FEW240 14/12 A2985 RMK CI1 SLP111
CYZX 140000Z 27002KT 15SM OVC070 19/17 A2985 RMK AC8 SLP109
CZUM 140000Z AUTO 09006KT 9SM SCT040 BKN076 17/11 A2979 RMK SLP097 DENSITY ALT 2200FT
CZCP 140000Z AUTO VRB03KT ////SM //// BKN020 OVC024 01/M01 A2987
CWID 140000Z AUTO 19002KT 20/02 RMK AO1 SLP080 T01990020 56009
CWMT 140000Z AUTO 09004KT 17/05 RMK AO1 SLP087 T01660052 56008
CXAT 140000Z AUTO 29006KT 03/01 RMK AO1 SLP059 T00310012 50002
CXDE 140000Z AUTO 15004KT 10/06 RMK AO1 SLP075 T01040056 55000
CXLC 140000Z AUTO 07003KT 13/04 RMK AO1 SLP102 T01300037 56005
CYEK 140000Z AUTO 31010G15KT 250V310 9SM OVC048 07/01 A2997 RMK SLP151
CYEV 140000Z 07008KT 15SM -RA FEW007 BKN044 OVC072 06/05 A2977 RMK ST1SC5AS3 ST TR SLP088
CYFS 140000Z 20004KT 150V240 15SM FEW150 FEW250 21/M00 A2971 RMK AC1CI1 AC TR CI TR SLP069 DENSITY ALT 1600FT
CYHY 140000Z 08008KT 15SM FEW090 BKN240 15/06 A2977 RMK AC1CI5 SLP091 DENSITY ALT 800FT
CYLK 140000Z 06004KT 050V120 25SM FEW060 BKN200 13/08 A2982 RMK SC2CI5 LAST STFD OBS/NXT1400Z SLP107 DENSITY ALT 700FT
CYSM 140000Z 18009KT 15SM FEW095 SCT230 19/03 A2982 RMK AC1CI3 SLP107 DENSITY ALT 1500FT
CYVM 140000Z AUTO 02003KT 8SM OVC003 03/03 A2950 RMK SLP993
CYVQ 140000Z 23006KT 30SM FEW050 FEW110 SCT150 BKN220 16/07 A2969 RMK SC1AC2AC2CS2 SC TR SLP059 DENSITY ALT 700FT
CYZF 140000Z 15006KT 15SM FEW050 BKN240 15/08 A2979 RMK CU1CI6 CU TR SLP099 DENSITY ALT 1000FT
CZHY 140000Z AUTO 08007KT 15/07 RMK AO1 SLP086 T01540068 56009
CZSM 140000Z AUTO 16005KT 19/03 RMK AO1 SLP107 T01940032 56013
CWUW 140000Z AUTO 09009KT ////SM OVC003 02/02 A2943
CYRB 140000Z 04012KT 20SM SCT031 BKN052 OVC100 03/01 A2981 RMK SC4SC1AC3 SLP104
CXRB 140000Z AUTO 05011KT 03/01 RMK AO1 SLP100 T00310008 51006
CYCB 140000Z 35012KT 15SM VCSH FEW009 BKN018 02/01 A2977 RMK SF2SC5 VIS N-SE 4 SLP086
CYFB 140000Z 19008KT 15SM BKN032 07/03 A2961 RMK SC7 SLP030
CYIO 140000Z AUTO 05008KT 9SM OVC060 06/01 A2968 RMK SLP059
CWEU 140000Z 28006KT 260V350 15SM FEW090 FEW160 BKN240 M01/M05 A2994 RMK AC1AC1CI6 AC TR SLP150
CWIL 140000Z AUTO ///// ////SM SCT007 BKN012 BKN017 ///// A////
CWJC 140000Z AUTO 23010KT 09/ RMK AO1 T0089
CWLX 140000Z AUTO ///// ////SM OVC045 06/04 A2948
CWPX 140000Z AUTO 31006KT 290V050 ////SM //// SCT010 OVC016 02/01 A2976
CWXR 140000Z AUTO ///// ////SM ////// ///// A////
CXBI 140000Z AUTO 29005KT 15/12 RMK AO1 SLP107 T01490120 53009
CYCO 140000Z 04005KT 12SM VCSH SCT025TCU BKN039 BKN180 04/01 A2985 RMK TCU3SC4AC1 AC TR SLP111
CYHK 140000Z 14003KT 15SM FEW041 SCT050 BKN085 03/01 A2978 RMK SC2SC1AC2 LAST STFD OBS/ NXT 141200UTC SLP089
CYRT 140000Z 29009KT 15SM BKN043 07/02 A2988 RMK SC7 SLP121
CYTE 140000Z AUTO 25016G21KT 9SM BKN005 BKN014 OVC019 03/03 A2949 RMK SLP990
CYUS 140000Z AUTO 32008KT ////SM //// FEW038 OVC060 03/M00 A2975
CYUX 140000Z 03008KT 10SM -RA SCT018 OVC028 04/04 A2955 RMK SC3SC5 LAST STFD OBS/NXT 1200Z SLP010
CYZS 140000Z 32019KT 15SM FEW020 BKN090 04/01 A2965 RMK SC2AC4 SLP048
CXET 140000Z AUTO 18002KT 15/14 RMK AO1 SLP108 T01520141 53010
CWGD 140000Z AUTO 26007KT 18/12 RMK AO1 SLP111 T01830120 50008
CYYU 140000Z 01013G19KT 15SM BKN017 OVC027 13/09 A2991 RMK SC7SC1 SLP137
CXKE 140000Z AUTO 21005KT 17/16 RMK AO1 2PAST HR 3001 SLP067 P0001 T01690155 50055
CWGL 140000Z AUTO 30010KT 19/14 RMK AO1 SLP078 T01890143 51007
CWKK 140000Z AUTO 36015KT 13/ RMK AO1 PK WND 35020/2305 SLP181 T0134 52018
CWLS 140000Z AUTO 27001KT 15/11 RMK AO1 SLP117 T01540113 53011
CWNZ 140000Z AUTO 01009KT 11/07 RMK AO1 SLP158 T01100071 53021
CXCA 140000Z AUTO 36010KT 14/07 RMK AO1 SLP163 T01370072 53017
CXDI 140000Z AUTO 25002KT 17/13 RMK AO1 SLP115 T01660134 51017
CXEA 140000Z AUTO 02003KT 14/02 RMK AO1 SLP181 T01360020 53005
CXHM 140000Z AUTO 31002KT 16/13 RMK AO1 SLP107 T01630134 53016
CXKA 140000Z AUTO 36010G15KT 13/10 RMK AO1 PK WND 35021/2306 SLP132 T01270095 51030
CXZC 140000Z AUTO 34007KT 10/06 RMK AO1 SLP139 T01000064 51021
CYER 140000Z AUTO 34008KT 9SM BKN024 OVC038 07/03 A3007 RMK SLP186
CYGK 140000Z 00000KT 15SM FEW030 SCT055 SCT160 16/15 A2976 RMK CU1SC2AC1 SLP080 DENSITY ALT 700FT
CYHD 140000Z AUTO 36005KT 9SM CLR 12/04 A3006 RMK SLP193
CYHM 140000Z 20004KT 15SM SCT045 SCT082 15/14 A2985 RMK SC3AC1 SLP113 DENSITY ALT 1100FT
CYLD 140000Z 36008G15KT 15SM BKN052 BKN063 17/12 A2986 RMK SC5SC2 SLP120 DENSITY ALT 2200FT
CYLH 140000Z AUTO 33003KT 280V360 9SM FEW033 SCT050 10/05 A3006 RMK SLP191
CYMO 140000Z AUTO 34008KT 9SM OVC019 10/06 A2993 RMK SLP139
CYQA 140000Z AUTO 30008KT 260V320 9SM OVC110 18/14 A2979 RMK SLP091 DENSITY ALT 1700FT
CYQK 140000Z 06005KT 20SM FEW040 BKN250 14/04 A3006 RMK SC1CI5 SC TR SLP191 DENSITY ALT 1400FT
CYTL 140000Z AUTO 35003KT 9SM BKN049 BKN060 09/04 A3008 RMK SLP198
CYXR 140000Z AUTO 29004KT 9SM BKN230 17/15 A2976 RMK SLP083 DENSITY ALT 1500FT
CYXU 140000Z 27003KT 15SM FEW040TCU FEW060 17/12 A2987 RMK TCU1SC1 TCU TR SC TR SLP118 DENSITY ALT 1500FT
CYYB 140000Z 28005KT 270V330 10SM -SHRA BKN021 BKN070 BKN090 16/15 A2978 RMK CU5AC2AC1 TCU EMBD SLP087 DENSITY ALT 1800FT
CYZE 140000Z AUTO 23006KT 9SM CLR 18/18 A2981 RMK SLP099 DENSITY ALT 1300FT
CZEL 140000Z AUTO 30003KT 16/12 RMK AO1 SLP116 T01590117 53013
CZMD 140000Z AUTO 35004KT 9SM BKN060 10/04 A3009 RMK SLP205
CXTO 140000Z AUTO 19/14 RMK AO1 SLP099 T01890139 51010
CXVN 140000Z AUTO 22006KT 17/14 RMK AO1 SLP103 T01720140 53013
CTNK 140000Z AUTO 25002KT 16/15 RMK AO1 1007 SLP086 T01580152 50001
SBTT 140000Z VRB01KT CAVOK 27/24 Q1008
SBTU 140000Z AUTO VRB01KT CAVOK 25/23 Q1013
CTCK 140000Z AUTO 30005KT 17/17 RMK AO1 3PAST HR 0003 SLP057 P0036 T01700166 50129
CWCJ 140000Z AUTO 03004KT 14/09 RMK AO1 SLP149 T01400088 51023
CWDV 140000Z AUTO 03003KT 11/07 RMK AO1 SLP177 T01090068 53015
CXPC 140000Z AUTO 19/14 RMK AO1 SLP097 T01850142 53008
CYKF 140000Z AUTO 30004KT 9SM CLR 16/12 A2985 RMK SLP113 DENSITY ALT 1600FT
CYOO 140000Z AUTO 25004KT 9SM CLR 18/11 A2980 RMK SLP095 DENSITY ALT 1100FT
CYPL 140000Z AUTO 36006KT 320V050 9SM BKN046 OVC055 12/04 A3007 RMK SLP197
CYPQ 140000Z AUTO 26003KT 9SM SCT190 16/12 A2980 RMK SLP094 DENSITY ALT 1100FT
CYQG 140000Z AUTO 25005KT 9SM BKN066 19/12 A2989 RMK SLP123 DENSITY ALT 1400FT
CYRL 140000Z 36003KT 15SM FEW040 FEW160 FEW240 14/03 A3007 RMK SC1AC1CI1 AC TR SLP195 DENSITY ALT 1300FT
CYSN 140000Z 23007KT 15SM SCT082 18/15 A2983 RMK AC3 SLP103 DENSITY ALT 900FT
CYTR 140000Z 26007KT 15SM FEW040TCU SCT210 18/14 A2978 RMK TCU1CI2 DENSITY ALT 1064FT SLP084
CYTS 140000Z 33013G19KT 300V010 15SM BKN076 BKN240 18/12 A2981 RMK AC5CI2 SLP102 DENSITY ALT 1700FT
CYVV 140000Z 25004KT 15SM FEW090 BKN250 17/13 A2983 RMK AC1CI5 SLP106 DENSITY ALT 1300FT
CYWA 140000Z 21002KT 6SM -SHRA BR FEW006 SCT015 BKN060 OVC075 18/17 A2973 RMK ST1SC3SC3AC1 DENSITY ALT 1299FT SLP070
CYXL 140000Z VRB02KT 15SM FEW055 FEW250 13/05 A3007 RMK SC1CI1 SLP195
CYXZ 140000Z 02007G15KT 15SM BKN036 16/11 A2989 RMK SC7 LAST OBS / NEXT 141100 UTC SLP130 DENSITY ALT 1400FT
CYYG 140000Z 13006KT 15SM SCT069 BKN200 BKN250 18/16 A2987 RMK AC3CI2CI2 SLP117 DENSITY ALT 700FT
CYYZ 140000Z 29006KT 15SM FEW050 BKN062 BKN092 BKN250 20/11 A2982 RMK CU1SC4AC1CI1 CI TR SLP101 DENSITY ALT 1400FT
CYZR 140000Z AUTO 00000KT 9SM CLR 18/12 A2987 RMK SLP119 DENSITY ALT 1200FT
CZSJ 140000Z AUTO 01004KT 320V040 7SM SCT060 11/03 A3010 RMK SLP208
CZTB 140000Z AUTO 02001KT 15/09 RMK AO1 SLP169 T01500092 51013
SUMU 140000Z 14006KT 9999 FEW010 12/10 Q1022 NOSIG
EPBY 140000Z 23008KT 0250 R26/0900N FG VV001 14/14 Q1005
EPGD 140000Z 23008KT CAVOK 12/10 Q1002
EPKK 140000Z VRB01KT 9999 BKN060 13/12 Q1008
EPKT 140000Z 23007KT CAVOK 15/12 Q1008
EPLL 140000Z 23003KT 2000 BR SCT011 13/13 Q1006
EPPO 140000Z 28003KT 0250 R28/1900D FG SCT008 12/12 Q1006
EPSC 140000Z 26004KT CAVOK 12/10 Q1005
EPSY 140000Z 26003KT 3800 BR NSC 12/12 Q1004
EPWA 140000Z 28010KT 5000 -RA BR BKN004 15/15 Q1005 BECMG BKN010
EPWR 140000Z 23003KT 9999 FEW040 14/13 Q1007
LBPG 140000Z 24004KT 9999 SKC 11/07 Q1015
LEAS 140000Z AUTO VRB02KT CAVOK 19/18 Q1005
LEGR 140000Z AUTO 18002KT CAVOK 20/15 Q1014
LEPA 140000Z 08002KT 9999 FEW018 27/24 Q1009 NOSIG
LEPP 140000Z AUTO 15007KT 110V170 CAVOK 21/14 Q1010
LEAL 140000Z 00000KT 9999 FEW008 SCT025 27/25 Q1008 NOSIG
LEAM 140000Z AUTO 08004KT 040V130 9999 FEW097 24/20 Q1009
LEBB 140000Z AUTO 17004KT 110V230 CAVOK 25/15 Q1006
LECO 140000Z AUTO 15008KT 9999 SCT037 BKN048 19/17 Q1003
LEGE 140000Z 16003KT 9999 FEW065 22/16 Q1010
LEIB 140000Z 23007KT 210V280 9999 FEW012 28/26 Q1008 NOSIG
LEJR 140000Z AUTO 17004KT 140V210 6000 BKN010 21/20 Q1012
LELL 140000Z AUTO 30003KT CAVOK 23/16 Q1010
LEMD 140000Z 22005KT 160V240 CAVOK 19/14 Q1012 NOSIG
LEMG 140000Z VRB02KT CAVOK 22/17 Q1011 NOSIG
LEMH 140000Z AUTO 12011KT CAVOK 27/25 Q1009
LEMO 140000Z 21006KT 170V240 9999 FEW010 SCT020 20/19 Q1012 NOSIG
LERS 140000Z AUTO 01005KT 330V030 CAVOK 23/18 Q1009
LERT 140000Z 21006KT 9000 NSC 21/21 Q1012 NOSIG
LESO 140000Z AUTO 21007KT CAVOK 25/17 Q1006
LEST 140000Z 13008KT 100V170 5000 1000SE -RA BKN002 BKN007 OVC012 17/17 Q1004 TEMPO 3000 RA
LETO 140000Z 21003KT CAVOK 18/13 Q1012 NOSIG
LEVC 140000Z 29003KT 260V020 9999 BKN030 FEW035CB 23/21 Q1009 NOSIG
LEVD 140000Z AUTO 18008KT 150V210 9999 SCT021 SCT037 15/13 Q1011
LEVS 140000Z AUTO 25005KT 9000 FEW034 16/14 Q1012
LEVX 140000Z 20009KT 160V230 0600 R19/P2000 R01/0700D BCFG VV001 18/18 Q1004 NOSIG
LEXJ 140000Z AUTO 19006KT 150V240 CAVOK 24/15 Q1005
LFBG 140000Z AUTO 09003KT CAVOK 20/17 Q1006
LFBH 140000Z AUTO 11004KT CAVOK 19/18 Q1005 NOSIG
LFCR 140000Z AUTO 12007KT CAVOK 22/17 Q1010 BECMG FEW060CB SCT120
LEZG 140000Z 10006KT 080V140 9999 VCSH FEW050CB SCT085 22/18 Q1010
LEZL 140000Z AUTO 23006KT 200V260 9999 BKN010 21/20 Q1011
LFBC 140000Z AUTO VRB02KT CAVOK 19/16 Q1006
LFBD 140000Z AUTO 12003KT CAVOK 20/16 Q1006 NOSIG
LFBE 140000Z AUTO VRB02KT CAVOK 20/17 Q1006 NOSIG
LFBM 140000Z AUTO VRB02KT 9999 //////TCU 21/17 Q1006 TEMPO SHRA SCT070CB
LFBO 140000Z AUTO 14010KT 9999 //////TCU 22/18 Q1009 TEMPO FEW080CB
LFBP 140000Z AUTO 29003KT 210V330 CAVOK 21/16 Q1007 NOSIG
LFBT 140000Z AUTO 19013KT 9999 FEW026 BKN130 19/15 Q1008 NOSIG
LFBY 140000Z AUTO VRB03KT 9999 // ////// 21/17 Q1006
LFBZ 140000Z AUTO 27004KT 230V290 CAVOK 24/16 Q1006 NOSIG
LFGJ 140000Z AUTO 20012KT 9999 //////CB 23/19 Q1008
LFJL 140000Z AUTO 10010KT 9999 FEW042 BKN120 OVC140 19/17 Q1007 TEMPO VRB18G30KT 2000 TSRA BKN008 SCT040CB
LFLL 140000Z 17008KT CAVOK 22/16 Q1010 NOSIG
LFLN 140000Z AUTO VRB01KT CAVOK 18/17 Q1008
LFLP 140000Z AUTO 04006KT 9999 -RA FEW060 OVC100 20/18 Q1012
LFVP 140000Z AUTO 28009KT CAVOK 15/13 Q1011
LFPO 140000Z AUTO 21006KT 180V240 9999 //////TCU 21/19 Q1006 BECMG NSC
LFLX 140000Z AUTO 00000KT CAVOK 18/17 Q1007 TEMPO 20015G35KT 2500 TSRA BKN080CB
LFMO 140000Z AUTO 05004KT 9999 FEW064/// BKN120/// BKN140/// //////TCU 22/19 Q1011 TEMPO 2000 TSRA BKN030CB
LFLY 140000Z AUTO 17011KT CAVOK 23/16 Q1009 TEMPO 18020G30KT
LFMC 140000Z AUTO VRB03KT 9999 ////// 22/19 Q1012
LFMH 140000Z AUTO 17011KT CAVOK 23/17 Q1010
LFMI 140000Z AUTO 12008KT CAVOK 25/18 Q1010 NOSIG
LFMK 140000Z AUTO 09011KT 060V130 9999 SCT009/// SCT140/// OVC220/// //////TCU 23/22 Q1009
LFML 140000Z AUTO 05005KT 010V110 CAVOK 25/17 Q1010 NOSIG
LFMP 140000Z AUTO VRB03KT CAVOK 24/20 Q1008
LFMT 140000Z AUTO 12013KT 9999 BKN010/// BKN018/// OVC024/// //////TCU 25/23 Q1010 TEMPO VRB18G30KT SHRA FEW040CB BKN060 BKN120
LFMU 140000Z AUTO 07006KT CAVOK 23/21 Q1009
LFMV 140000Z AUTO 16006KT CAVOK 23/18 Q1010
LFMY 140000Z AUTO 04004KT CAVOK 23/17 Q1011
LFOB 140000Z AUTO 08003KT 9999 //////TCU 18/17 Q1006 TEMPO 2000 BR OVC003
LFOE 140000Z AUTO 13006KT 9999 //////CB 20/18 Q1006 BECMG NSC
LFOK 140000Z AUTO 25007KT 9999 ///TCU 20/19 Q1006 TEMPO 2000 BR OVC003
LFOP 140000Z AUTO 32005KT 9999 //////CB 19/17 Q1006
LFOT 140000Z AUTO VRB02KT CAVOK 19/18 Q1006 TEMPO 2500 TSRA SCT090CB
LFPG 140000Z 27003KT 9999 SCT068 FEW073TCU BKN180 21/19 Q1006 TEMPO SCT060CB
LFPM 140000Z AUTO 23007KT 9999 //////TCU 20/19 Q1007
LFPN 140000Z AUTO 19005KT 150V210 9999 -RA FEW024/// SCT076/// BKN088/// //////TCU 21/18 Q1006
LFPV 140000Z AUTO 20006KT 9999 FEW041/// BKN078/// BKN110/// //////TCU 21/18 Q1006 TEMPO 2500 TSRA BKN060CB
LFQB 140000Z AUTO 19005KT CAVOK 20/19 Q1007
LFRB 140000Z AUTO VRB02KT CAVOK 19/18 Q1003 TEMPO VRB15G25KT 0400 FG VV///
LFRC 140000Z AUTO 08010KT 060V120 3400 TSRA BR OVC002/// //////CB 18/18 Q1006
LFRD 140000Z AUTO 14005KT 110V170 CAVOK 20/19 Q1004 TEMPO SHRA BKN080CB
LFRG 140000Z AUTO 10007KT CAVOK 18/18 Q1005
LFRH 140000Z AUTO VRB03KT CAVOK 18/17 Q1004 TEMPO 3000 BR BKN006
LFRI 140000Z AUTO 09005KT CAVOK 19/16 Q1005
LFRJ 140000Z AUTO 02005KT 7000 NSC 18/17 Q1003
LFRK 140000Z AUTO 31001KT 7000 2300 NSC 17/17 Q1005
LFRN 140000Z AUTO 18008KT CAVOK 19/17 Q1004 TEMPO 0400 SHRA BKN080CB
LFRQ 140000Z AUTO 13005KT CAVOK 19/18 Q1003
LFRT 140000Z AUTO VRB01KT 1500 BR NSC 17/17 Q1003
LFRZ 140000Z AUTO 10004KT CAVOK 19/17 Q1004 TEMPO 4500 -SHRA BKN040TCU SCT050CB BECMG 21012KT
LFSB 140000Z AUTO 21004KT 180V250 9999 //////TCU 21/17 Q1008 NOSIG
LFSI 140000Z AUTO VRB02KT 9999 //////TCU 21/19 Q1006
LFSL 140000Z AUTO 15002KT CAVOK 22/17 Q1008
LFSN 140000Z AUTO VRB02KT 9999 -RA //////CB 20/19 Q1007
UGKO 140000Z 09004KT 050V130 9999 SCT026 BKN045 18/17 Q1009 NOSIG
UGTB 140000Z 31020KT 9999 OVC047 20/13 Q1009 NOSIG
SBSV 140000Z 07004KT 9999 FEW025 24/19 Q1016
NZWN 140000Z AUTO 19024KT 9000 SCT025/// SCT033/// OVC065/// 09/04 Q1021 NOSIG
NZCH 140000Z AUTO 21008KT 170V250 9999 FEW034/// SCT055/// 08/00 Q1022 NOSIG
CXDB 140000Z AUTO 01008KT 19/09 RMK AO1 T01850089
CYSB 140000Z 31004KT 20SM SCT050 BKN240 17/16 A2979 RMK SC3CI3 SLP093 DENSITY ALT 1900FT
WMKD 140000Z 00000KT 9999 FEW025 24/22 Q1012 NOSIG
MNMG 140000Z 12006KT 8000 FEW021CB SCT070 26/24 Q1008 A2979 RA S/SW CB 4CB
COR SPJC 140000Z 17011KT 9999 FEW008 OVC010 15/12 Q1015 NOSIG RMK PP000
SLTJ 140000Z 14004KT 9999 NSC 14/01 Q1020
SLVR 140000Z 20007KT 9999 SCT023 BKN070 17/12 Q1012
SLLP 140000Z 10010KT 9999 FEW013 SCT070 BKN200 09/02 Q1033
SBSC 140000Z 09003KT 9999 FEW020 BKN100 23/21 Q1012
SBSJ 140000Z 21003KT CAVOK 17/15 Q1015
SBSL 140000Z 05008KT 9999 FEW020 28/23 Q1012
SBSM 140000Z VRB02KT 9999 SCT045 13/13 Q1017
SBSN 140000Z 19003KT CAVOK 26/24 Q1010
SBSP 140000Z 13003KT CAVOK 21/17 Q1017
SBSR 140000Z 17008KT CAVOK 28/13 Q1011
BIEG 140000Z 01005KT 9999 FEW010 BKN018 OVC021 07/06 Q1009
BIRK 140000Z 36010KT CAVOK 08/03 Q1012
BIKF 140000Z 01005KT CAVOK 06/05 Q1013
BIAR 140000Z 33011KT 9999 SCT009 BKN013 OVC045 07/05 Q1012
GCFV 140000Z AUTO 36005KT 9999 SCT035 24/19 Q1015
GCLA 140000Z AUTO 28003KT CAVOK 23/18 Q1016
GCTS 140000Z VRB01KT 9999 FEW016 23/20 Q1016 NOSIG
GCXO 140000Z AUTO 29012KT 9999 SCT005 18/17 Q1018
GEML 140000Z AUTO 29004KT 260V330 CAVOK 24/18 Q1012
GCHI 140000Z AUTO 33013KT 290V010 9999 FEW025 24/19 Q1016
GCLP 140000Z 36005KT 9999 FEW030 23/18 Q1015 NOSIG
GCRR 140000Z 33007KT 9999 FEW020 23/19 Q1015
LFBI 140000Z AUTO 16003KT CAVOK 19/18 Q1006 TEMPO 4500 SHRA BKN045TCU
LFBL 140000Z AUTO 06003KT 9999 FEW048 BKN230 20/16 Q1008 NOSIG
LFSX 140000Z AUTO 30007KT 9999 FEW018/// BKN038/// OVC066/// //////CB 21/19 Q1009
LFAT 140000Z AUTO 07009KT 030V090 9000 BKN010 OVC048 18/16 Q1007
LFSO 140000Z AUTO 22015KT 7000 RA FEW038/// SCT080/// OVC120/// //////CB 21/20 Q1008
LFST 140000Z AUTO VRB02KT 9999 -RA OVC047/// //////CB 20/16 Q1007 TEMPO 22015G25KT 2000 TSRA
LFTH 140000Z AUTO 02004KT 9999 FEW018 BKN140 BKN160 22/19 Q1012 BECMG 14010KT
LFTW 140000Z AUTO 14008KT 9999 OVC019 23/20 Q1011
LFYR 140000Z AUTO 09003KT 7000 BKN008 BKN220 BKN250 19/19 Q1007
LJCE 140000Z AUTO 29006KT 9999 NSC 17/14 Q1011
LJLJ 140000Z VRB02KT 9999 FEW038 SCT250 14/13 Q1013 NOSIG
LJMB 140000Z AUTO 00000KT 9999 NSC 16/15 Q1011
LJPZ 140000Z AUTO 11007KT 9999 FEW049/// 18/16 Q1013
LKCV 140000Z 12003KT CAVOK 14/12 Q1009 NOSIG
LKKB 140000Z 19007KT CAVOK 16/13 Q1009
LKKV 140000Z VRB02KT 9999 -RA NSC 14/12 Q1010
LKLN 140000Z AUTO 23004KT 210V270 9999 OVC098 16/14 Q1010
LKMT 140000Z 26004KT CAVOK 16/12 Q1009 NOSIG
LKNA 140000Z 31003KT 280V340 CAVOK 14/12 Q1010
LKPD 140000Z 11002KT CAVOK 13/12 Q1009
LKPR 140000Z 24009KT 9999 -RA FEW035 16/14 Q1009 NOSIG
LKTB 140000Z VRB02KT CAVOK 14/11 Q1009 NOSIG
LZPP 140000Z AUTO 34006KT 9999 NCD 12/11 Q1010
LZZI 140000Z VRB01KT CAVOK 12/11 Q1010
LQSA 140000Z 00000KT CAVOK 10/10 Q1016
LQTZ 140000Z VRB01KT CAVOK 10/10 Q1013
LYBE 140000Z 15004KT CAVOK 15/11 Q1013 NOSIG
LYBT 140000Z 08001KT CAVOK 13/13 Q1013 NOSIG
LYKV 140000Z 00000KT 9999 2000SE BR NSC 11/11 Q1015 NOSIG
LYNI 140000Z 11003KT CAVOK 12/09 Q1015 NOSIG
LYPG 140000Z 34005KT CAVOK 19/10 Q1015 NOSIG
LYTV 140000Z AUTO VRB02KT CAVOK 13/12 Q1014
LYVR 140000Z AUTO VRB01KT CAVOK 10/09 Q1014
LRAR 140000Z 13008KT CAVOK 14/10 Q1013
LRCK 140000Z 02005KT CAVOK 13/09 Q1013 NOSIG
LROP 140000Z 32003KT CAVOK 12/08 Q1014 NOSIG
LRSB 140000Z 10002KT CAVOK 08/08 Q1014
LRBC 140000Z 17004KT 130V230 CAVOK 11/09 Q1012
LRBM 140000Z AUTO 04002KT 9999 FEW090/// SCT130/// 11/09 Q1013
LRBS 140000Z 33003KT 310V010 CAVOK 14/08 Q1014 NOSIG
LRCL 140000Z 00000KT CAVOK 10/09 Q1014
LRCV 140000Z 32004KT CAVOK 10/07 Q1013
LRIA 140000Z 00000KT CAVOK 12/10 Q1012
LROD 140000Z AUTO 12004KT 100V160 9999 FEW110/// BKN130/// 14/09 Q1013
LRSM 140000Z AUTO 10003KT 9999 FEW130/// 11/09 Q1012
LRSV 140000Z 26008KT CAVOK 13/09 Q1011
LRTM 140000Z AUTO 07003KT 9999 SCT140/// 08/08 Q1014
LRTR 140000Z 10006KT CAVOK 11/11 Q1013
LRTC 140000Z AUTO VRB01KT 9000 NCD 10/06 Q1013
GABS 140000Z VRB01KT 9999 FEW016 22/22 Q1013 NOSIG
GMAD 140000Z 27007KT 8000 BKN006 21/19 Q1013 NOSIG
FQCH 140000Z /////KT 9999 SCT010 BKN015 18/17 Q1025
FQBR 140000Z /////KT 9999 FEW020 22/20 Q1022
FYKM 140000Z AUTO 11003KT //// // ////// 19/05 Q1018
FYGF 140000Z AUTO 30003KT //// // ////// 11/M04 Q1022
FYLZ 140000Z AUTO 06003KT //// // ////// 26/M07 Q1011
FYOA 140000Z AUTO 15002KT //// // ////// 16/M00 Q1014
OIAH 140000Z 00000KT CAVOK 24/15 Q1006
OIAM 140000Z 18004KT CAVOK 30/27 Q1001
OIHM 140000Z 09006KT CAVOK 16/M03 Q1017
OIIE 140000Z 27008KT CAVOK 22/M04 Q1011 NOSIG
OIBJ 140000Z AUTO VRB02KT //// // ////// 26/09 Q1009
OIBS 140000Z 00000KT 1500 BR NSC 31/29 Q1002
OICI 140000Z 12004KT CAVOK 24/M01 Q1014
UAII 140000Z 15002MPS CAVOK 13/M01 Q1012 NOSIG RMK QFE722/0963
UAKK 140000Z 08002MPS CAVOK M01/M03 Q1025 NOSIG RMK QFE721/0961
UAOO 140000Z 07007MPS CAVOK 12/M04 Q1018 NOSIG RMK QFE751/1002
UADD 140000Z 22003MPS 9999 NSC 07/01 Q1016 NOSIG RMK QFE705/0940
UHSS 140000Z 35009MPS 9999 NSC 13/03 Q1023 R01/CLRD70 NOSIG RMK QFE766/1021
UHBB 140000Z 17002MPS CAVOK 16/09 Q1020 R18/090060 NOSIG RMK QFE749/0999
UHHH 140000Z 20003MPS 160V230 CAVOK 13/06 Q1026 R23R/090060 NOSIG RMK QFE763/1018
UHMM 140000Z 26004MPS 9999 NSC 10/M00 Q1012 R10/CLRD70 NOSIG RMK QFE744 R28/25002MPS
UHPP 140000Z 32006MPS 9999 FEW030CB BKN050 BKN100 14/09 Q1006 R34L/190160 NOSIG RMK MT OBSC QFE751/1001
UIAA 140000Z 25002MPS 9999 SCT050CB 10/03 Q1026 R29/CLRD70 NOSIG RMK QFE711/0948
UIBB 140000Z 11002MPS 9999 NSC 02/01 Q1029 R12/CLRD60 NOSIG RMK QFE728/0971
UIII 140000Z 00000MPS 9000 -SHRA SCT050CB 08/06 Q1027 R30/290150 NOSIG RMK QFE725/0967
UHMD 140000Z 21002MPS 9999 VCFG FEW010 BKN034 OVC070 10/09 Q1002 RMK QBB300 MT OBSC QFE751/1001
UHWW 140000Z 32003MPS 9999 NSC 16/11 Q1025 R25L/0///70 NOSIG RMK QFE768
ULPB 140000Z AUTO 19002MPS 130V230 9999 // NCD 09/06 Q1010 RMK QFE754/1005
UMKK 140000Z 22004MPS 9999 SCT026 12/12 Q1001 R24/290095 NOSIG RMK QFE750/1000
UNEE 140000Z 33003MPS 9999 NSC 01/M01 Q1026 R05/CLRD60 NOSIG RMK QFE746
UNBB 140000Z 03003MPS CAVOK 02/M02 Q1026 R24/CLRD66 NOSIG RMK QFE747
ULOO 140000Z 12002MPS 080V140 CAVOK 11/09 Q1005 NOSIG RMK QFE749
UNAA 140000Z 34003MPS CAVOK 07/02 Q1024 R02/CLRD65 NOSIG RMK QFE745
ZLLL 140000Z 15003MPS 9999 OVC036 15/11 Q1019 NOSIG
ZLXY 140000Z 05008MPS CAVOK 22/15 Q1017 NOSIG
ZSAM 140000Z 26002MPS 230V320 CAVOK 29/20 Q1006 NOSIG
ZPPP 140000Z 20003MPS 9999 SCT016 BKN033 16/15 Q1023 NOSIG
ZSFZ 140000Z 28006MPS 250V310 9999 BKN050 29/19 Q1005 NOSIG
ZSHC 140000Z 34006MPS 4000 -SHRA BR BKN010 BKN020 FEW026TCU 23/22 Q1007 BECMG TL0030 BKN009 BKN020 FEW030TCU
ZSNB 140000Z 33006MPS 7000 -SHRA BKN009 OVC040 24/23 Q1005 BECMG TL0030 +SHRA BKN004 OVC030
ZSOF 140000Z 36004MPS CAVOK 23/20 Q1013 NOSIG
ZSQD 140000Z 03004MPS 4500 BR FEW026 22/21 Q1015 NOSIG
ZSSS 140000Z 35005MPS 5000 -SHRA BR BKN005 24/24 Q1006 BECMG TL0120 BKN011 OVC033
ZUCK 140000Z 03005MPS CAVOK 26/17 Q1011 NOSIG
ZSNJ 140000Z 36002MPS 300V040 9999 BKN015 OVC030 24/21 Q1010 BECMG TL0130 BKN014 OVC030
ZSPD 140000Z 34005MPS 9999 -SHRA BKN011 OVC033 25/24 Q1005 BECMG TL0150 BKN015
ZUUU 140000Z 02006MPS 6000 -SHRA FEW012 FEW033TCU BKN033 20/19 Q1011 NOSIG
ZWWW 140000Z VRB01MPS CAVOK 10/08 Q1018 NOSIG
ZYCC 140000Z 00000MPS CAVOK 15/13 Q1023 NOSIG
ZYHB 140000Z VRB01MPS CAVOK 17/14 Q1024 NOSIG
ZWSH 140000Z VRB01MPS 4500 DU NSC 21/04 Q1016 NOSIG
RKPK 140000Z 05017KT 9999 FEW030 SCT080 BKN250 25/17 Q1016
RPVM 140000Z 22007KT 9999 FEW020 SCT300 30/24 Q1011 RMK A2985
RPVP 140000Z 27004KT 9999 FEW019 BKN240 28/23 Q1011 RMK A2985
VOMM 140000Z 22008KT 6000 SCT020 FEW025TCU SCT100 28/26 Q1008 NOSIG
VTUO 140000Z 00000KT 7000 FEW020 26/25 Q1011 NOSIG
VTUQ 140000Z 32002KT 7000 NSC 26/25 Q1010 NOSIG
VTUU 140000Z VRB02KT 9999 FEW030 SCT080 26/26 Q1010 NOSIG
VTUV 140000Z 22003KT 160V260 9999 FEW030 SCT100 26/25 Q1010 NOSIG
VTUW 140000Z VRB02KT 9999 FEW030 SCT080 26/25 Q1011 NOSIG
VVNB 140000Z VRB02KT 6000 NSC 27/24 Q1010 NOSIG
VYYY 140000Z 24003KT 6000 SCT016 FEW020CB BKN100 26/25 Q1009
VVDN 140000Z 00000KT 9999 FEW015 30/24 Q1010 NOSIG
VVPB 140000Z 21003KT 9999 FEW015 28/24 Q1010 NOSIG
WAAA 140000Z VRB02KT 9999 FEW019 28/24 Q1013 NOSIG
YAMB 140000Z 15006KT 060V200 9999 FEW040 SCT240 20/11 Q1025
YBAS 140000Z AUTO 35014KT 9999 // NCD 27/04 Q1017 RF00.0/000.0
YBBN 140000Z 12008KT 9999 FEW040 21/11 Q1026
YBCG 140000Z AUTO 18008KT 9999 // SCT033 20/11 Q1026 RF00.0/000.0
YBCS 140000Z AUTO 14017KT 9999 // NCD 27/18 Q1020
NFNM 140000Z 13016KT 9999 FEW020TCU 29/23 Q1017
NFNS 140000Z 13009KT 9999 FEW026TCU SCT048 28/24 Q1017
GVAC 140000Z 10009KT 7000 -DZ BKN012 BKN015 27/26 Q1012 NOSIG
GVNP 140000Z 15006KT 9999 FEW016 BKN023 26/24 Q1013 NOSIG
VGHS 140000Z 14004KT 3500 DZ BKN010 FEW025CB BKN100 26/22 Q1008 TEMPO TSRA
GVSV 140000Z 06012KT 9999 FEW013 SCT022 BKN090 26/24 Q1012 NOSIG
VHHH 140000Z 07008KT CAVOK 32/13 Q1009 NOSIG
CYQT 140000Z 00000KT 20SM FEW035 FEW280 14/10 A3000 RMK SC1CI1 SLP167
CYZU 140000Z 30008KT 15SM FEW110 SCT210 22/05 A2982 RMK AC1CI2 SLP106 DENSITY ALT 4100FT
CXEC 140000Z AUTO 25003KT 21/08 RMK AO1 SLP100 T02060083 56008
UHMA 140000Z 16002MPS 7000 -SHRA SCT007 SCT023CB BKN040 06/05 Q1004 R01/29//58 NOSIG RMK TDZ R01/16002G03MPS END R01/02002G03MPS MT OBSC QFE749/0999
UUEE 140000Z 10006MPS 9999 -DZ OVC009 10/08 Q1007 R06R/150057 NOSIG
CYMM 140000Z AUTO 12007KT 9SM FEW130 17/08 A2984 RMK SLP118 DENSITY ALT 1900FT
CYGX 140000Z 24003KT 15SM BKN028 11/04 A3007 RMK SC7 SLP194
UMII 140000Z VRB01MPS 7000 SCT020 BKN066 08/08 Q1006 TEMPO 2000 BR BKN005
UMGG 140000Z 30004MPS 3100 -SHRA BR OVC005CB 09/08 Q1006 TEMPO 2000 SHRA RMK QBB160
LFMN 140000Z 01003KT CAVOK 24/18 Q1013 NOSIG
MKJS 140000Z 10003KT 9999 VCTS FEW022CB 28/23 Q1011
UTAA 140000Z 00000KT 9999 NSC 15/01 Q1008 R88/CLRD70 NOSIG
UTAK 140000Z 10004KT CAVOK 17/M07 Q1005 R16R/CLRD70 NOSIG
UTAM 140000Z 00000KT 6000 NSC 15/05 Q1011 R88/CLRD70 NOSIG
UTAT 140000Z 08010KT CAVOK 16/01 Q1012 R08/CLRD70 NOSIG
MKJP 140000Z 11012KT 9999 VCTS FEW020 FEW022CB 28/24 Q1012
UTSS 140000Z 13010KT 9999 NSC 16/06 Q1012 R09/CLRD70 NOSIG
VMMC 140000Z 04004KT 350V070 6000 NSC 31/26 Q1008 TEMPO 4500 HZ
FGSL 140000Z 24009KT 9999 FEW010 25/22 Q1012 NOSIG
GFLL 140000Z 27008KT 9999 BKN010 FEW027CB 26/23 Q1011 RMK CE- NE
CYBQ 140000Z AUTO 27003KT 9SM FEW055 11/01 A2999 RMK SLP173
MZBZ 140000Z 08005KT 9999 FEW020 29/26 A2979 Q1009 NOSIG
CYDL 140000Z AUTO 24007KT 210V270 9SM CLR 18/02 A2989 RMK SLP132 DENSITY ALT 3600FT
PLCH 140000Z 11006KT 9999 FEW020 30/22 Q1010
CWZG 140000Z AUTO 22006KT 14/09 RMK AO1 SLP110 T01390088 55002
CXAG 140000Z AUTO 17009KT 21/08 RMK AO1 T02060080
CXAJ 140000Z AUTO 09006KT 19/10 RMK AO1 T01890099
CXAF 140000Z AUTO 21005KT 20/08 RMK AO1 T02020081
CWTN 140000Z AUTO 11001KT 18/17 RMK AO1 8011 SLP053 T01780174 50006
CWSF 140000Z AUTO 16002KT 14/13 RMK AO1 SLP080 T01350132 56006
CWSG 140000Z AUTO 23002KT 12/12 RMK AO1 SLP085 T01220118 55003
CXBO 140000Z AUTO 06007KT 20/18 RMK AO1 T01960182 50011
CWTA 140000Z AUTO 31002KT 17/17 RMK AO1 1PAST HR 3005 SLP046 P0004 T01650167 50522
CYMX 140000Z 23005KT 200V330 8SM -SHRA SCT001 BKN050 OVC100 18/18 A2967 RMK CF4SC3AC1 CVCTV CLD EMBD SLP051 DENSITY ALT 1000FT
CYUL 140000Z 27007KT 6SM -SHRA FEW006 BKN014TCU OVC040 18/17 A2967 RMK SF2TCU3SC3 SLP050 DENSITY ALT 800FT
CYYY 140000Z 00000KT 10SM BKN050 BKN170 14/13 A2973 RMK SC5AC2 SLP070 DENSITY ALT 400FT
CYNA 140000Z AUTO 11005KT 9SM CLR 16/15 A2985 RMK SLP111 DENSITY ALT 300FT
CWIP 140000Z AUTO 06005KT 15/14 RMK AO1 T01460144
CWBY 140000Z AUTO 13013KT 17/16 RMK AO1 PK WND 13021/2340 SLP100 T01700155 56006
CWQV 140000Z AUTO 07011KT 19/ RMK AO1 PK WND 08019/2312 T0189
CYPX 140000Z AUTO 25008KT 9SM BKN043 OVC066 07/06 A2976 RMK SLP082
CWNH 140000Z AUTO 33001KT 14/10 RMK AO1 SLP069 T01350104 56006
CYRJ 140000Z 28003KT 8SM -SHRA BKN042 OVC071 18/18 A2968 RMK SC5AC3 CVCTV CLD EMBD SLP054 DENSITY ALT 1400FT
CYUY 140000Z 00000KT 15SM FEW020 FEW045 SCT160 BKN200 16/16 A2976 RMK CU1SC1AC4CI2 CU TR SC TR SLP082 DENSITY ALT 1600FT
CYSC 140000Z AUTO 12003KT 5SM -RA BR SCT023 BKN037 BKN045 18/17 A2969 RMK PCPN 3.5MM PAST HR SLP056 DENSITY ALT 1600FT
CWBZ 140000Z AUTO 22005KT 17/16 RMK AO1 3010 SLP060 T01740163 50099
CWJB 140000Z AUTO 09003KT 19/19 RMK AO1 T01920187 50032
CWIK 140000Z AUTO 08004KT 11/08 RMK AO1 3PAST HR 8009 SLP195 P0001 T01110083 50005
LPAZ 140000Z 25005KT 9999 BKN003 23/22 Q1016
LPLA 140000Z /////KT 9999 FEW014 BKN025 23/22 Q1015
LPMR 140000Z 18007KT 9999 SCT024 SCT045 19/18 Q1006
LPFR 140000Z 22003KT 9999 FEW020 20/18 Q1010
LPPR 140000Z 18015KT 9999 SCT005 OVC007 19/18 Q1005
LPPS 140000Z 30010KT 9999 FEW015 23/19 Q1014
LPPT 140000Z 21015KT 9999 4500E -SHRA FEW006 FEW018CB SCT022 19/18 Q1008 RESHRA
LPMA 140000Z 27003KT 220V300 9999 FEW015 22/17 Q1014
LPMT 140000Z 21012KT 9999 -RA FEW012 SCT018 FEW020CB 21/18 Q1008
LPPD 140000Z 28007KT 9999 FEW008 BKN012 22/21 Q1016
SELT 140000Z 16009KT 9999 SCT030 14/05 Q1026
SBUL 140000Z 01003KT CAVOK 28/04 Q1015
SBUR 140000Z 03002KT 5000 FU NSC 29/06 Q1014
SBVT 140000Z 02011KT CAVOK 24/19 Q1014
SBYS 140000Z 16004KT CAVOK 20/17 Q1014
SGES 140000Z 24004KT 9000 NSC 19/17 Q1014
SUDU 140000Z 14006KT CAVOK 11/09 Q1021
EIME 140000Z 09001KT 9999 SCT015 11/10 Q1011
LFQQ 140000Z AUTO 04010KT CAVOK 17/16 Q1007 TEMPO 1000 TSRA OVC003 BKN070CB
TGPY 140000Z 06007KT 9999 FEW018 28/25 Q1012 NOSIG
VLLN 140000Z 09002KT 3000 BR SCT010 OVC00 22/21 Q1012 NOSIG
VLPS 140000Z 14002KT 9999 FEW020 BKN050 26/25 Q1010 NOSIG
RJNS 140000Z 05004KT 360V110 9999 FEW025 BKN/// 28/23 Q1015
CWER 140000Z AUTO 04017KT RMK AO1 PK WND 04021/2345
FSIA 140000Z 13016KT 9999 SCT018 27/23 Q1011 NOSIG
OLBA 140000Z 16005KT 8000 FEW026 27/19 Q1009 NOSIG
FALE 140000Z 04002KT 9999 FEW040 14/12 Q1028 NOSIG
FMEE 140000Z AUTO 19008KT 9999 NCD 19/12 Q1020 NOSIG
OIZJ 140000Z 11010KT 6000 NSC 29/27 Q1002
URSS 140000Z 03004MPS 9999 VCTS -SHRA BKN040CB OVC080 15/14 Q1010 WS ALL RWY R02/220255 R06/220255 NOSIG RMK R06/06005MPS MT OBSC QFE756
RJBD 140000Z 33004KT 300V010 9999 FEW030 BKN/// 30/23 Q1014
RJFG 140000Z 09011KT 060V120 9999 FEW008 SCT010 BKN015 27/26 Q1011
RJTI 140000Z 02005KT 320V080 9999 FEW020 SCT040 29/24 Q1016
RJOS 140000Z 02009KT 9999 SCT030 BKN/// 29/23 Q1014
RJSY 140000Z 33004KT 280V060 9999 FEW020 BKN/// 24/19 Q1018
RORK 140000Z AUTO 07012KT 9999 FEW015 31/27 Q1005
ROYN 140000Z AUTO 23009KT 190V250 9999 FEW015 //////TCU 29/27 Q1004
ROAH 140000Z 16008KT 9999 FEW015 30/25 Q1005 RMK 2CU015 A2969
RKSI 140000Z 04007KT 010V070 CAVOK 23/17 Q1017 NOSIG
VTBU 140000Z 02003KT 9999 -RA FEW018 SCT035 25/24 Q1010 NOSIG
OEMN 140000Z 00000KT CAVOK 33/23 Q1007
UGMS 140000Z AUTO 06003KT 050V140 //// ////// 09/09 Q1015
VAUD 140000Z 36002KT 3000 HZ SCT025 BKN100 26/24 Q1004 NOSIG
WADL 140000Z 12008KT 090V150 7000 BKN016 27/24 Q1016 NOSIG
VQPR 140000Z 18004KT 4000 BR FEW009 SCT015 OVC030 15/14 Q1022
DTNH 140000Z 14006KT CAVOK 27/22 Q1014
LQBK 140000Z VRB02KT CAVOK 17/15 Q1012 NOSIG
UBBQ 140000Z 09004KT 9999 SCT040 18/16 Q1008 NOSIG RMK MT PT OBSC
URMO 140000Z AUTO 34002MPS 300V020 9000 // ///016/// 16/16 Q1009 RMK QFE713/0951
UUDL 140000Z 10003MPS CAVOK 09/06 Q1012 R23/////// NOSIG RMK QFE750
OINE 140000Z 07004KT CAVOK 21/09 Q1002
EPMO 140000Z 27006KT CAVOK 14/13 Q1005
CYWE 140000Z AUTO 18004KT 9SM SCT220 13/02 A2978 RMK SLP104 DENSITY ALT 1400FT
EPLB 140000Z 23010KT 9999 BKN048 16/12 Q1006
FAOR 140000Z 01013KT CAVOK 10/09 Q1030 NOSIG
LFRV 140000Z AUTO VRB02KT CAVOK 18/17 Q1004
LFOV 140000Z AUTO 18004KT 120V220 CAVOK 18/17 Q1005
UCFM 140000Z 12002MPS 080V140 CAVOK 09/05 Q1015 R26/0///95 NOSIG
UCFO 140000Z 14003MPS CAVOK 13/07 Q1012 R12/0///95 NOSIG
LFCK 140000Z AUTO 26003KT 180V310 9999 -RA ///CB 25/18 Q1010
LFQA 140000Z AUTO 11004KT CAVOK 19/18 Q1005
YGLA 140000Z AUTO 10014KT 9999 // NCD 23/12 Q1024 RF00.0/000.0
CYIN 140000Z AUTO 28007KT 260V330 9SM SCT071 21/05 A2984 RMK LTNG DIST NE E SE SLP098 DENSITY ALT 5400FT
VVCR 140000Z 29003KT 9999 FEW015 28/23 Q1011 NOSIG
VVCT 140000Z VRB03KT 9999 FEW015TCU 27/25 Q1011 NOSIG TCU/W
VVPQ 140000Z 22006KT 9999 SCT015 29/24 Q1010 NOSIG
CZVL 140000Z AUTO 14003KT 9SM CLR 19/09 A2982 RMK SLP107 DENSITY ALT 3500FT
UUBW 140000Z 08005MPS 9999 OVC010 10/09 Q1007 R30/290150 NOSIG
UNTT 140000Z 00000MPS CAVOK 02/02 Q1027 R21/090060 NOSIG RMK QFE755
CYRQ 140000Z AUTO 02003KT 5SM -RA BR FEW019 OVC024 20/19 A2965 RMK PCPN 5.0MM PAST HR SLP044 DENSITY ALT 1100FT
CYCK 140000Z AUTO 24004KT 9SM CLR 16/12 A2989 RMK SLP123 DENSITY ALT 1000FT
GMMB 140000Z AUTO VRB02KT 9999NDV ////// 20/20 Q1013 NOSIG
LFSG 140000Z AUTO 24012KT 9999 -RA ///CB 20/19 Q1008
OTHH 140000Z 03005KT 360V060 CAVOK 32/26 Q1002 NOSIG
SBSG 140000Z 22004KT 170V270 9999 FEW016 BKN023 BKN060 24/23 Q1015
UASS 140000Z 30002MPS CAVOK 02/01 Q1024 NOSIG RMK QFE749/0999
WAKK 140000Z 12011KT 9999 SCT016 30/24 Q1013 NOSIG
CYVL 140000Z AUTO 01008KT 9SM OVC011 06/04 A2975 RMK SLP093
CYPO 140000Z AUTO 01005KT 9SM SCT019 BKN034 06/04 A3005 RMK SLP180
CYKP 140000Z AUTO 02006KT 9SM CLR 10/04 A3003 RMK SLP173
CYAT 140000Z AUTO 36004KT 9SM BKN030 OVC035 10/05 A2999 RMK SLP157
UTDK 140000Z 02005MPS 9999 NSC 19/06 Q1012 R01/09//70 RMK QFE702/0935
UTDT 140000Z 11001MPS 8000 FEW130 15/12 Q1009 R35/////// RMK QFE718/0957
WIEE 140000Z VRB01KT 9999 FEW020 BKN130 24/23 Q1012 NOSIG
WAHS 140000Z 09000KT 5000 HZ FEW014 25/22 Q1013
YLHI 140000Z AUTO 25004KT 9999 // BKN037 OVC120 17/09 Q1025
CYYW 140000Z AUTO VRB02KT 9SM OVC055 11/05 A3005 RMK SLP180
OITP 140000Z 11006KT 9999 SCT020 22/21 Q1005
WAQQ 140000Z 02002KT 9000 -RA SCT015 BKN100 25/24 Q1013
VEBN 140000Z 09008KT 3000 BR SCT020 OVC080 27/27 Q1003 NOSIG
URMG 140000Z 01006MPS 330V030 9999 SCT035CB 19/15 Q1008 R26/090070 NOSIG RMK QFE741/0988
UUBC 140000Z AUTO 10004MPS 6000 // ///004/// 10/09 Q1004 RMK QBB140 QFE736/0982
TTPP 140000Z 00000KT 9999 FEW018 27/24 Q1012 NOSIG
VOTP 140000Z 22007KT 6000 FEW020 27/23 Q1009 NOSIG
GQNO 140000Z 31010KT CAVOK 28/26 Q1012 NOSIG
UCFL 140000Z 34005MPS 9999 NSC 10/01 Q1018 R07/CLRD95
VVCI 140000Z VRB01KT 7000 NSC 29/27 Q1009 NOSIG
GOBD 140000Z 27004KT 9999 FEW015 26/26 Q1014 NOSIG
OIMJ 140000Z AUTO 33010KT //// // ////// 15/M02 Q1013
URRP 140000Z 24004MPS 9999 SCT054CB 15/12 Q1007 R23/150060 TEMPO VRB07G14MPS 1000 TSRA SCT003 BKN020CB RMK QFE748/0997
UUOL 140000Z 18002MPS 9999 OVC005 11/11 Q1006 R15/290250 NOSIG
VOKN 140000Z 11002KT 4000 BR FEW004 SCT012 FEW025TCU 25/24 Q1010 NOSIG
UWSG 140000Z 09007MPS CAVOK 14/10 Q1010 R08/290357 NOSIG RMK QFE755/1007
ZBAD 140000Z 05004MPS 4000 BR FEW040 24/19 Q1019 NOSIG
YBLN 140000Z AUTO 24010KT 9999 // BKN060 14/07 Q1019 RF00.0/001.2
YBWW 140000Z AUTO 07010KT 020V090 //// // SCT032 18/10 Q1025
WAYY 140000Z 00000KT 9999 FEW015 27/24 Q1015 NOSIG
UGAM 140000Z AUTO VRB02KT //// ////// 16/16 Q1012
CBAR 140000Z AUTO 07009KT ////SM OVC010 01/M01 A2988
CPIN 140000Z AUTO 32010KT ////SM FEW029 OVC039 ///// A////
UAIT 140000Z 09008MPS CAVOK 17/02 Q1014 NOSIG RMK QFE735/0981
ZUTF 140000Z 03007MPS 8000 FEW040 22/20 Q1010 NOSIG
LFBX 140000Z AUTO 00000KT CAVOK 19/18 Q1007
UWPS 140000Z 12006MPS 9999 -RA BKN020 10/10 Q1012 R20/290255 NOSIG RMK QFE741
USDA 140000Z 24006MPS 9999 -SHRA BKN026CB 04/04 Q1008 R22/290150 NOSIG RMK QFE755/1006
RJDB 140000Z AUTO 04017KT 9999 NCD 27/25 Q1013
GMAZ 140000Z AUTO 24012KT CAVOK 29/01 Q1013
FQXA 140000Z 15003KT 9999 FEW020 BKN070 18/15 Q1028
CWEF 140000Z AUTO 04002KT 18/16 RMK AO1 SLP118 T01760160 53002
CXSE 140000Z AUTO 03009KT M00/M01 RMK AO1 SLP120 T10011009 53005
FKKD 140000Z 11002KT 9999 BKN013 FEW016CB 24/24 Q1011 NOSIG
FQLC 140000Z 13011KT 9999 BKN013 BKN016 17/11 Q1023
FTTJ 140000Z 21005KT 8000 FEW020 26/23 Q1010 NOSIG
SKSP 140000Z 08010KT 040V130 9999 FEW018 BKN200 29/25 Q1009 RMK A2980
CWRJ 140000Z AUTO 10009KT 12/07 RMK AO1 6006 SLP152 T01160066 50003
LFOH 140000Z AUTO 07005KT 9999 BKN036/// BKN048/// BKN066/// //////CB 19/18 Q1005
RJFK 140000Z 09011KT 060V130 9999 VCSH FEW015 28/23 Q1012 RMK 2CU015 A2991
NVSC 140000Z 10004KT 9999 BKN020 30/25 Q1015
COR WMBA 140000Z 05003KT 330V110 8000 -TSRA FEW017CB SCT029 21/20 Q1013 RETSRA
COR MDSD 140000Z 00000KT 9999 FEW016 BKN300 25/23 Q1014
SKBO 140000Z 23007KT 9000 -RA FEW015 SCT030TCU BKN060 13/10 Q1025 RETS RMK A3028
SKBG 140000Z 18003KT 7000 DZ FEW004 SCT010 BKN070 21/21 Q1016 RMK VCFG/S A3000
SKCC 140000Z 24003KT 9999 SCT018 28/22 Q1012 RMK A2989
SKCG 140000Z 34006KT 9999 FEW017 29/24 Q1009 RMK A2980
SKCL 140000Z 35006KT 9999 FEW030 BKN120 24/18 Q1013 NOSIG RMK A2994
SKAR 140000Z 00000KT 9999 VCSH SCT017 SCT080 22/17 Q1017 RMK VCSH/N A3005
SKLC 140000Z 13003KT 9999 TS SCT015CB BKN070 25/23 Q1009 RMK CB/N A2981
SKRG 140000Z 35005KT 9999 VCSH FEW010TCU SCT018 15/14 Q1024 TEMPO FM0020 5000 RA BKN010TCU RMK TCU VCSH/SE
SKIB 140000Z 00000KT 9999 FEW030 BKN100 24/18 Q1016 RMK A3001
SKMR 140000Z 32004KT 9999 FEW015 SCT200 27/24 Q1009 RMK A2980
SKNV 140000Z 11003KT 9999 FEW040 SCT100 28/19 Q1009 RMK A2981
SKPE 140000Z 10010KT 8000 -TSRA SCT017CB BKN080 20/18 Q1017 RMK CB/E/SE/S A3003
NVVA 140000Z 14006KT 9999 FEW025 BKN150 27/21 Q1017
COR TKPK 140000Z 07009KT 9999 FEW018 27/24 Q1014
CWWL 140000Z AUTO 34016KT 12/11 RMK AO1 8012 PK WND 34018/2348 SLP132 T01240108 50002
CWEB 140000Z AUTO 00031KT 15/13 RMK AO1 SLP126 T01520127 55004
SKLT 140000Z VRB02KT 9999 FEW020 SCT200 27/24 Q1007 RMK 2975
SKRH 140000Z 06008KT 9999 FEW015 BKN200 29/26 Q1010 RMK A2983
SKSM 140000Z 02005KT 9999 SCT020 BKN100 29/24 Q1010 RMK A2984
SKUC 140000Z VRB02KT 9999 BKN018 25/24 Q1010 RMK A2983
CWME 140000Z AUTO 24008KT 18/13 RMK AO1 SLP112 T01800131 56009
CWQS 140000Z AUTO 35012KT 13/10 RMK AO1 PK WND 34017/2304 SLP143 T01330095 58013
CWZL 140000Z AUTO 36010KT 14/12 RMK AO1 SLP149 T01380121 58010
SKUI 140000Z 24004KT 9999 SCT025 SCT200 27/24 Q1008 RMK A2979
RKSM 140000Z 07005KT 9999 BKN130 25/14 A3004
COR VIAR 140000Z 00000KT 3500 BR FEW035 SCT090 27/24 Q1005 NOSIG
VOHS 140000Z 22010KT 5000 BR SCT015 BKN100 22/20 Q1011 NOSIG
VTSS 140000Z 23005KT 100V260 9999 FEW020 SCT100 26/24 Q1012 NOSIG
NVSG 140000Z AUTO 16004KT //// // NCD 31/25 Q1017
DXNG 140000Z 00000KT 9999 FEW006 22/22 Q1013
DXSK 140000Z 00000KT CAVOK 23/23 Q////
DXXX 140000Z 22007KT 9999 FEW009 24/23 Q1012 NOSIG
CWTG 140000Z AUTO 04011G16KT 14/ RMK AO1 PK WND 04017/2314 SLP082 T0144 55004
CWXC 140000Z AUTO 00000KT 20/17 RMK AO1 SLP024 T01970173 56005
NSFA 140000Z 04012KT 9999 SCT026 33/24 Q1016
CWJR 140000Z AUTO 30004KT 22/13 RMK AO1 SLP070 T02220133 56016
CWSP 140000Z AUTO 30012KT 12/12 RMK AO1 SLP117 T01220119 57008
CYZT 140000Z 34007KT 10SM FEW005 SCT050 15/12 A2991 RMK ST1SC3 SLP131 DENSITY ALT 100FT
ORER 140000Z VRB01KT 8000 NSC 26/06 Q1006
FCBB 140000Z 26004KT 9000 NSC 23/19 Q1014 NOSIG
FCPP 140000Z 17007KT 8000 SCT010 BKN021 24/21 Q1013 NOSIG
DRRN 140000Z 00000KT CAVOK 28/24 Q1012 NOSIG
GOSP 140000Z 28002KT CAVOK 30/25 Q1012
GOGG 140000Z VRB02KT 9999 FEW016 25/25 Q1014
GOGK 140000Z 00000KT 8000 TSRA SCT010 FEW026CB 27/26 Q1012
GOGS 140000Z 26004KT 9999 FEW013 28/25 Q1013
GOOD 140000Z 34004KT 9999 FEW013 28/26 Q1013
GOOG 140000Z 22004KT CAVOK 29/26 Q1010
GOOK 140000Z 28006KT CAVOK 28/27 Q1013
GOOY 140000Z 00000KT 9999 FEW013 28/25 Q1012
GOSS 140000Z 32006KT 260V010 9999 FEW010 29/26 Q1013
GOTK 140000Z 06004KT 6000 -TSRA SCT005 FEW030CB 22/21 Q1012
DFFD 140000Z VRB02KT 9999 FEW010 24/24 Q1013 NOSIG
DNKN 140000Z 26004KT 9999 CAVOK 24/22 Q1015 NOSIG
HKJK 140000Z 21005KT 9999 SCT018 16/11 Q1022 NOSIG
FAGG 140000Z AUTO 35003KT 9999 // ////// 09/08 Q1022
FALA 140000Z AUTO 05007KT //// // ////// 13/08 Q1030
CWWS 140000Z AUTO 33005KT 13/05 RMK AO1 SLP203 T01330047 56003
CWNK 140000Z AUTO 07007KT 15/06 RMK AO1 SLP191 T01480056
CWND 140000Z AUTO 08019KT 02/01 RMK AO1 PK WND 07023/2303 SLP083 T00240006 53001
CXDK 140000Z AUTO 22/M01 RMK AO1 SLP065 T02201010 56017
CXLL 140000Z AUTO 21002KT 21/02 RMK AO1 SLP068 T02140022 56010
CXTN 140000Z AUTO 12004KT M00/M04 RMK AO1 SLP128 T10021039 56002
CXYH 140000Z AUTO 19004KT 21/01 RMK AO1 SLP051 T02120006 56011
CYBK 140000Z 24010KT 20SM SCT036 BKN060 BKN180 08/03 A2981 RMK SC4SC2AC1 SLP096
CYRA 140000Z 14005KT 15SM BKN100 14/05 A2975 RMK AC7 LAST STFD OBS/NEXT 141400 Z SLP087 DENSITY ALT 1000FT
CZFS 140000Z AUTO 18004KT 21/M01 RMK AO1 SLP067 T02081009 56012
CZRP 140000Z AUTO 01019KT M01/M02 RMK AO1 1003 PK WND 00024/2327 SLP129 T10141021 50002
LFBA 140000Z AUTO VRB02KT 9999 //////CB 23/20 Q1007
LFLW 140000Z AUTO 09008KT CAVOK 21/17 Q1011
LFPB 140000Z AUTO 21004KT 160V250 9999 //////TCU 21/19 Q1006 BECMG NSC
LFSD 140000Z AUTO 05003KT 9999 //////CB 20/19 Q1008
SVVA 140000Z /////KT 8000 +TSDZ OVC016 CB/S 24/20 Q1015
DNMM 140000Z VRB02KT 9999 FEW009 25/24 Q1013 NOSIG
DIAP 140000Z 18004KT 9999 FEW011 BKN028 25/24 Q1012 NOSIG
DIBK 140000Z 14004KT 8000 SCT010 22/22 Q1013 NOSIG
HKNW 140000Z 18008KT 9999 BKN020 16/11 Q1023
FOOL 140000Z 23007KT 190V250 9999 SCT011 25/22 Q1012 NOSIG
VVTS 140000Z 22005KT 200V270 9999 FEW017 28/26 Q1011 NOSIG
FZAA 140000Z 00000KT 9999 CAVOK 23/19 Q1014 NOSIG
FEFF 140000Z 00000KT 6000 NSC 22/21 Q1010 NOSIG
VRMM 140000Z 16005KT 9999 SCT018 27/25 Q1011 NOSIG
NVSL 140000Z AUTO 08008KT //// // NCD 29/23 Q1017
ORNI 140000Z 34021KT 7000 NSC 33/09 Q1000
VOPB 140000Z VRB02KT 5000 BR SCT014 SCT080 27/24 Q1010 NOSIG
GAKD 140000Z 08008KT 8000 TSRA SCT020 FEW030CB 22/22 Q1015
VOVZ 140000Z VRB02KT 4000 TS BR FEW018 FEW025CB BKN080 26/25 Q1007 TEMPO 3000 -TSRA
KGZN 140000Z AUTO 13012KT 10SM CLR 31/15 A2989 RMK AO2
KPNS 140000Z AUTO 35007KT 10SM CLR 26/16 A2992 RMK T02600160 MADISHF
FMMT 140000Z 22004KT 9999 SCT017 BKN033 20/19 Q1019
MGTU 140000Z 09004KT 8000 TSRA FEW018 FEW022CB BKN070 26/24 CB/TS/LTNG N/NE/NW
CWJO 140000Z AUTO 13003KT 21/18 RMK AO1 SLP051 T02110184 55003
MGRT 140000Z 18006KT 9999 -TSRA BKN018 FEW025CB 26/23 Q1012 A2988 CB/TS/LTNG NE/W/NW VOL. SANTA MARIA Y SANTIAGUITO EN ACTIVIDAD
MGCB 140000Z 00000KT 9999 SCT018 BKN070 20/19 QFE 867.8
MGES 140000Z 00000KT 9999 SCT015 OVC090 21/21 QFE 906.8
MGHT 140000Z 20014KT 9999 FEW028 BKN032CB 20/15 CB/PCPN SSE/S/SSW CB SBR STN 
MGPB 140000Z 09004KT CAVOK 29/27 Q1006 A2971 SCT200 CB DIST SSW
MGQZ 140000Z 00000KT 9999 BKN015 FEW018CB 16/12 QFE 770.9 CB/PCPN NE/E/SE
MGSJ 140000Z 14006KT 9999 SCT016 OVC090 28/26 Q1010 A2983
MGZA 140000Z 00000KT 9999 FEW025 FEW035CB BKN200 30/22 QFE 982.3 CB/TS/PCPN ESE/SE/SSE CB N/S
MGMT 140000Z 00000KT 8000 BKN020 BKN080 28/24 HZ
MGMM 140000Z 00000KT 9999 FEW020 BKN090 26/25 Q1010 A2983
GAMB 140000Z 18006KT CAVOK 26/25 Q1011
HAAB 140000Z 05006KT 7000 -RA BKN025 14/12 Q1026
HKEL 140000Z 12005KT CAVOK 14/13 Q1024
CXTV 140000Z AUTO 07011KT 04/03 RMK AO1 6PAST HR 5000 SLP099 P0002 T00360030 50006
CYCY 140000Z AUTO 36015G21KT 4SM -RA BR BKN004 OVC009 03/03 A2959 RMK PCPN 2.0MM PAST HR SLP024
LFOJ 140000Z AUTO 14009KT 9999 //////CB 20/19 Q1006 BECMG BKN004
LFOA 140000Z AUTO 17008KT 9999 -RA //////TCU 19/19 Q1008
LFRS 140000Z AUTO 09004KT 050V120 9999 FEW033/// BKN110/// BKN130/// //////TCU 20/18 Q1004 TEMPO 4500 SHRA BKN040CB
CTRA 140000Z AUTO 03004KT 13/04 RMK AO1 SLP178 T01300035 53006
EINN 140000Z 34005KT 260V040 CAVOK 10/09 Q1013 NOSIG
VOBM 140000Z 23006KT 4000 -RA SCT007 SCT012 BKN080 21/20 Q1012
HESW 140000Z 02010KT CAVOK 23/14 Q1012
CWMZ 140000Z AUTO 28018KT 19/14 RMK AO1 PK WND 29021/2335 SLP098 T01890139 53005
MBGT 140000Z 09008KT 9999 SCT010TCU SCT040 29/24 Q1014
HEBA 140000Z 32006KT CAVOK 23/17 Q1011 NOSIG
CWDT 140000Z AUTO 03003KT RMK AO1 1PAST HR 8004 P0024 50061
VAAU 140000Z 20004KT 4000 BR SCT012 SCT020 BKN100 23/22 Q1007 NOSIG
SBMY 140000Z AUTO 13008KT 070V190 9999 SCT046 26/20 Q1012 RETS
UBBL 140000Z 00000KT 9999 BKN015 23/23 Q1006 NOSIG RMK MT OP
CWKD 140000Z AUTO 34002KT 15/14 RMK AO1 7PAST HR 8001 SLP078 P0003 T01540138 50007
CZPS 140000Z AUTO 29002KT 15/08 RMK AO1 T01540077
HEGN 140000Z 30008KT CAVOK 29/13 Q1007 NOSIG
HESN 140000Z 01007KT CAVOK 30/10 Q1009 NOSIG
HEAT 140000Z 34008KT CAVOK 25/10 Q1012 NOSIG
HEBL 140000Z 35003KT CAVOK 29/12 Q1008 NOSIG
HELX 140000Z 00000KT CAVOK 28/13 Q1008 NOSIG
HEMA 140000Z 29011KT CAVOK 29/07 Q1007 NOSIG
HEMM 140000Z 25005KT 9999 SCT020 24/19 Q1012 NOSIG
HEPS 140000Z 28008KT CAVOK 26/21 Q1010 NOSIG
HESH 140000Z 30005KT CAVOK 30/17 Q1007 NOSIG
HKKT 140000Z 00000KT 9999 FEW017 BKN080 15/15
CYQD 140000Z AUTO VRB02KT 9SM CLR 17/03 A3007 RMK TS/LTNG TEMPO UNAVBL SLP194 DENSITY ALT 1200FT
MPMG 140000Z VRB02KT 9999 SCT017CB 28/24 Q1009 NOSIG
CWEE 140000Z AUTO 17/17 RMK AO1 SLP050 T01710166 58007
CWIX 140000Z AUTO 29003KT 18/18 RMK AO1 9PAST HR 6006 SLP051 P0011 T01830181 50057
HESG 140000Z 25005KT CAVOK 25/09 Q1008 NOSIG
CWCI 140000Z AUTO 32011G16KT 15/14 RMK AO1 0003 PK WND 32020/2325 SLP107 T01530138 50002
HKKI 140000Z 05002KT 9999 FEW017CB BKN080 19/17 Q1017
FMMI 140000Z 12004KT 120V180 9999 FEW017 BKN020 11/10 Q1023 NOSIG
MYNN 140000Z 20004KT 9999 -SHRA FEW015CB SCT020 OVC120 26/25 A2994
HTJN 140000Z AUTO 06904KT //// 15/09 Q1021
DNAA 140000Z 34001KT CAVOK 23/21 Q1013 NOSIG
CXWB 140000Z AUTO 31012KT 05/M00 RMK AO1 PK WND 32019/2301 SLP080 T00481002 51004
CWFF 140000Z AUTO 13009KT 16/01 RMK AO1 SLP189 T01600007 56002
CWZW 140000Z AUTO 18006KT 15/05 RMK AO1 SLP125 T01510053 56013
CZEV 140000Z AUTO 07008KT 06/05 RMK AO1 1PAST HR 6002 SLP091 P0000 T00560047 50004
CWDM 140000Z AUTO 21005KT 16/15 RMK AO1 SLP117 T01560146 56002
CWDO 140000Z AUTO 36012G17KT 10/10 RMK AO1 PK WND 01017/2357 SLP116 T00990099 53005
CWRZ 140000Z AUTO 19008KT 18/17 RMK AO1 SLP104 T01800169 55001
CXHF 140000Z AUTO 17/17 RMK AO1 T01660166 50024
HKMO 140000Z 23004KT 9999 SCT018 22/20 Q1015 NOSIG
CWBV 140000Z AUTO 18011KT 20/18 RMK AO1 SLP114 T01970183 53004
CWCO 140000Z AUTO 28003KT 17/12 RMK AO1 SLP101 T01650116 53010
HKML 140000Z 00000KT 9999 FEW019 24/21 Q1014
CWRM 140000Z AUTO 14003KT 17/11 RMK AO1 SLP094 T01680108 56004
SGAS 140000Z 21010KT CAVOK 19/10 Q1022
PAFS 140001Z AUTO 05005KT 10SM FEW050 SCT065 BKN080 16/05 A2951 RMK AO2 SLP999 T01560050 10156 20061 58012
PAHX 140002Z AUTO 34003KT 10SM BKN034 OVC055 11/09 A2952 RMK AO2 RAB2337E02 SLP998 P0001 60001 T01110094 10128 20094 57002
PADG 140006Z 09004KT 15SM BKN023 BKN030 OVC038 11/08 A2963
VCBI 140010Z VRB02KT 9000 SCT017 25/24 Q1011 NOSIG
VCRI 140010Z 25005KT 9999 FEW018 25/25 Q1011 NOSIG
YESP 140012Z AUTO 27022G32KT 9999 // SCT025 11/06 Q1014
RJAI 140014Z 09002KT 9999 FEW015 BKN040 29/23 Q1015 RMK 1CU015 6SC040 A2999
YOLD 140014Z AUTO 36024KT 7000 // NCD 23/04 Q1012
K54J 140015Z AUTO 00000KT 10SM CLR 23/14 A2994 RMK AO2 T02310143
KW99 140017Z AUTO 00000KT 7SM SCT055 17/13 A2996 RMK AO2
ENGM 140020Z 27005KT CAVOK 11/08 Q0994
ETGG 140020Z AUTO /////KT //// // ////// ///// Q//// ///
ETHA 140020Z AUTO VRB02KT 9999 // ////// 15/14 Q1011 ///
ETHB 140020Z 17003KT 9999 BKN200 12/11 Q1008 BLU+
ETHC 140020Z 23002KT 9999 BKN230 11/10 Q1008 BLU+
ETHF 140020Z AUTO 19002KT 7000 // ////// 17/16 Q1008 ///
ETHL 140020Z VRB01KT 9999 FEW070 BKN110 17/16 Q1009 BLU
ETHN 140020Z VRB02KT 9999 BKN100 SCT200 17/13 Q1009 BLU
ETHS 140020Z AUTO 19002KT 8000 // ////// 10/09 Q1007 ///
ETMN 140020Z 32008KT 9999 FEW020 BKN038 15/09 Q1007 BLU BLU TEMPO BLU+
ETNH 140020Z AUTO 26008KT 9000 // ////// 13/11 Q1005 ///
ETNL 140020Z AUTO 25009KT 9999 // ////// 14/11 Q1005 ///
ETNN 140020Z 00000KT 9999 -RA SCT050 BKN090 17/17 Q1007 RERA BLU
ETNS 140020Z AUTO 27006KT 9999 // ////// 14/11 Q1005 ///
ETNT 140020Z AUTO /////KT //// // ////// 13/12 Q1007 ///
ETNW 140020Z 25002KT 9999 BKN230 13/12 Q1008 BLU+
ETSB 140020Z AUTO 11006KT //// // ////// 17/16 Q1008 ///
ETSI 140020Z AUTO 08003KT 8000 // ////// 16/15 Q1009 ///
ETSL 140020Z 16005KT 9999 -RA FEW060 BKN100 15/15 Q1010 BLU
ETSN 140020Z 00000KT 9999 BKN100 BKN140 16/15 Q1009 BLU
ETWM 140020Z AUTO VRB02KT //// // ////// 10/09 Q1008 ///
ETSH 140020Z 34003KT 9999 MIFG SCT040 OVC240 12/12 Q1008 BLU+
EGNT 140020Z 28005KT CAVOK 10/09 Q1009
ENSB 140020Z VRB02KT 9999 FEW030 BKN045 02/M02 Q1007 RMK WIND 1400FT VRB02KT
LGSR 140020Z 32005KT CAVOK 23/13 Q1013
RKTY 140023Z 12007KT 9999 FEW110 BKN250 24/17 A3009 RMK CIG250
RJTK 140025Z 02008KT 9999 FEW025 BKN240 29/24 Q1016 RMK 1CU025 5CI240 A3001
YABA 140026Z AUTO 28015KT 9999 // SCT037 BKN044 OVC052 11/09 Q1014
KMTJ 140027Z AUTO 22004KT VCTS 15/13 A3007 RMK AO2 LTG DSNT NE AND SW RAB2322232123222309B2322232123222311B2327B2329B2337B2340B2353 B235 6 P0019 T01500133 $
PAGM 140028Z AUTO 1 1/2SM -RA OVC004 A2961 RMK AO2 UPE08RAB08 P0000 FZRANO $
YCBP 140029Z AUTO 29019KT 9999 // SCT120 27/08 Q1012
VNKT 140030Z VRB02KT 8000 FEW010 SCT030 BKN100 20/19 Q1015 NOSIG
WABB 140030Z 12010KT 160V100 9999 SCT018 SCT100 30/25 Q1012 NOSIG
VYMD 140030Z 00000KT 6000 BKN015 FEW018CB BKN100 26/23 Q1007
WILL 140030Z 19003KT 9999 NSC 25/21 Q1014
EIWF 140030Z 01007KT CAVOK 10/09 Q1011
LGKP 140030Z AUTO 32018KT //// -RA ////// 23/17 Q1009 RE//
OPKC 140030Z 27004KT 4000 FU FEW020 BKN090 27/25 Q1003 NOSIG
VABO 140030Z 21006KT 2500 HZ SCT015 SCT020 BKN080 26/25 Q1002 NOSIG
VASU 140030Z 00000KT 6000 SCT018 BKN080 27/26 Q1003 NOSIG
VIBR 140030Z 00000KT 5000 BR FEW010 SCT025 BKN080 21/20 Q1011
VOHB 140030Z 24006KT 5000 BR SCT008 SCT012 BKN080 22/21 Q1011
VORY 140030Z 08004KT 4000 BR SCT020 FEW030CB BKN080 27/26 Q1007 NOSIG
WATT 140030Z 12013KT 9999 FEW018 30/23 Q1016 NOSIG
WIDN 140030Z 21004KT 9999 FEW017 26/24 Q1013 NOSIG
WIHH 140030Z 24003KT 3000 HZ FEW022 26/23 Q1014 NOSIG
YBRM 140030Z 19007KT 9999 FEW015 25/20 Q1017
YBTL 140030Z 08016KT 9999 FEW028 26/18 Q1022
YMEN 140031Z AUTO 01015G25KT 9999 // NCD 14/06 Q1022
KRPX 140032Z AUTO 10SM 27/04 A2971 RMK Roundup
OPST 140035Z 00000KT 3000 BR FEW100 28/25 Q1005 BECMG 1500 RH88
KCEC 140035Z AUTO 22004KT 10SM BKN004 14/12 A2991 RMK AO2 T01440122
KOQN 140035Z AUTO 00000KT 10SM CLR 20/12 A2985 RMK AO2
K3D2 140035Z AUTO 00000KT 10SM CLR 18/14 A2990 RMK AO2 T01750140
KCEC 140035Z AUTO 22004KT 10SM BKN004 14/12 A2991 RMK T01400120 MADISHF
KDCM 140035Z AUTO 30003KT 10SM CLR 20/12 A2994 RMK AO2 LTG DSNT SE
KMNZ 140035Z AUTO 14006KT 10SM CLR 30/16 A2993 RMK AO2 T03010162
ZSJN 140038Z 02002MPS 2100 BR BKN008 22/22 Q1017 NOSIG
KMRT 140039Z AUTO 00000KT 10SM CLR 13/12 A2998 RMK AO1
COR MMOX 140040Z 15007KT 5SM BKN030 OVC070 18/16 A3012 RMK 60125 8/72/ INTMNT DZ VRB CONDS
KQEI 140040Z AUTO 33005G13KT 9999 FEW038 BKN200 24/17 A3013 RMK A02 TSNO
MMAN 140040Z 13004KT 12SM SKC 29/15 A2992 RMK ISOL SC
MMMY 140040Z 12006KT 15SM FEW070 29/18 A2987 RMK 8/030 ISOL SC CU
MMNL 140040Z 12008KT 10SM SKC 32/18 A2986 RMK ISOL SC
MMSL 140040Z 25008KT 10SM SKC 28/21 A2982 RMK SC
MMHO 140040Z 25008KT 10SM FEW030 34/20 A2977 RMK 8/100
MMZO 140040Z 00000KT 10SM BKN020 BKN210 28/25 A2978 RMK 8/106
MMML 140040Z 12004KT 10SM SCT040TCU BKN120 34/15 A2970 RMK 8/290 CB-NW-S
K2G4 140040Z AUTO 28008KT 10SM BKN026 BKN031 OVC050 12/10 A3000 RMK AO1
KCBE 140040Z AUTO 27006KT 10SM OVC070 19/12 A2999 RMK AO2 T01900116
KCGS 140040Z AUTO 00000KT 10SM OVC075 19/16 A2987 RMK AO2 T01920161
MMCE 140040Z 04010KT 7SM OVC015CB 26/22 A2982 RMK 8/3// BINOVC
MMPS 140040Z 35006KT 4SM -RA BKN010 OVC070 23/15 A2985 RMK 61495 8/77/ VRBL CNDS
MMUN 140040Z 00000KT 7SM FEW015 SCT250 27/25 A2987 RMK 8/408
RJTC 140040Z 05006KT 290V080 9999 FEW030 SCT050 30/23 Q1016 RMK 1CU030 4SC050 A3002
KEVM 140041Z AUTO 01003KT 10SM CLR 16/12 A3001 RMK AO2
KECG 140041Z 29008KT 10SM CLR 23/16 A2988
MMCP 140041Z 23005KT 6SM -RA OVC080 23/23 A2988 RMK 8/07/
MMLO 140041Z 07004KT 10SM SCT030 BKN080 BKN220 21/09 A3015 RMK 8/558
MMLP 140041Z 32005KT 10SM SKC 31/19 A2976 RMK ISOL SC
K2W6 140042Z AUTO 00000KT 10SM CLR 19/17 A2989 RMK AO1
MMCM 140042Z 00000KT 7SM FEW020 27/26 A2984 RMK 8/100
MMCN 140042Z 26006KT 10SM SKC 30/20 A2972 RMK HZY DSNT CB NE
MMMA 140042Z 09009KT 10SM FEW080 29/22 A2987 RMK 8/060
MMMM 140042Z 12006KT 7SM BKN030 BKN100 18/13 A3010 RMK 8/460 HZY CI
MMMZ 140042Z 31004KT 15SM SCT020 BKN090 BKN240 29/26 A2976 RMK 8/463 DSNT CB NE
MMPB 140042Z 33005KT 8SM SCT025CB BKN090 BKN230 16/13 A3022 RMK 8/362 HZY PCPN SE
MMTM 140042Z 05008KT 7SM 29/23 A2984 RMK 8/008 DSNT CBS E
MMTO 140042Z 00000KT 6SM BKN020CB BKN070 16/10 A3026 RMK 8/360 HZY
MMLM 140043Z 28011KT 10SM SKC 31/21 A2974
MMMD 140043Z 00000KT 6SM -RA SCT010 BKN015 BKN070 OVC300 24/23 A2991 RMK 60065 8/567 RAB35 CB N NW
MMRX 140043Z 06010KT 10SM SCT035 30/19 A2987 RMK 8/100
MMSD 140043Z 13010KT 10SM FEW040 28/21 A2978 RMK 8/500
MMTP 140043Z 05005KT 6SM -RA SCT025CB BKN100 OVC200 26/26 A2984 RMK 8/368 RAB42 OCNL LTGICCC N NE
MMGM 140044Z 20014KT 10SM SKC 32/25 A2969
PAJC 140044Z AUTO 25017G26KT 10SM -RA SCT023 BKN028 BKN034 11/07 A2970 RMK AO2 PK WND 24030/0024 RAB43 PNO $
PAKU 140045Z 09023G31KT 5SM R06/P6000FT BR OVC006 03/03 A2976
KTRK 140045Z 28008KT 2SM BKN018 OVC025 17/03 A3000 FU
KWDG 140045Z 13012KT 10SM SKC 29/16 A2988
PALP 140045Z 08012G26KT 7SM OVC005 03/02 A2976
KBAK 140045Z 00000KT 10SM SCT047 OVC050 18/16 A2999
KCGF 140045Z 23005KT 10SM BKN038 17/12 A2993
KATW 140045Z 26005KT 10SM CLR 19/14 A2993
KGYY 140045Z 00000KT 10SM CLR 16/15 A2998
KJVL 140045Z 00000KT 10SM CLR 17/16 A2998
LIRP 140045Z 12007KT 9999 SCT030 21/20 Q1014 NOSIG
KSCH 140045Z 27007KT 10SM SCT095 17/16 A2979
KSWF 140045Z 26005KT 10SM SKC 20/14 A2979
LHKE 140045Z 16006KT CAVOK 16/08 Q1012 NOSIG RMK BLU
LHDC 140045Z AUTO 18004KT CAVOK 14/10 Q1012 NOSIG
LHPP 140045Z AUTO 00000KT CAVOK 17/12 Q1011
LHPR 140045Z AUTO 10005KT CAVOK 14/10 Q1010
LHSM 140045Z AUTO 00000KT CAVOK 17/15 Q1010
LHSN 140045Z 20008KT CAVOK 16/09 Q1011 NOSIG RMK BLU
KGLX 140045Z AUTO 10/80000011KT 10SM FEW030 SCT040 29/21 A2992 RMK A01
LMML 140045Z VRB01KT CAVOK 23/20 Q1016 NOSIG
KBBG 140045Z 00000KT 10SM CLR 19/17 A3001
LHPA 140045Z 17002KT CAVOK 17/13 Q1009 NOSIG RMK BLU
MMAS 140045Z 04005KT 8SM FEW040 BKN100 22/07 A3011 RMK 8/130 HZY
MMCL 140045Z 25008KT 10SM FEW030CB 31/24 A2972 RMK 8/300 ISOL SC
MMCU 140045Z 24006KT 10SM FEW030TCU SCT080 BKN200 24/14 A3003 RMK 8/278 VC CB
MMCZ 140045Z 09002KT 7SM FEW015 BKN250 28/25 A2986 RMK 8/508
MMSP 140045Z 08007KT 10SM FEW025 19/09 A3014 RMK 8/400 ISOL AC
KMMU 140045Z 28007KT 10SM SKC 22/13 A2981
KMWC 140045Z 00000KT 10SM CLR 19/11 A2996
KOUN 140045Z 14008KT 10SM CLR 29/16 A2989
KROS 140045Z AUTO 00000KT 10SM SCT110 18/16 A2996 RMK AO2
KUES 140045Z 00000KT 10SM CLR 16/12 A2997
MMCV 140046Z 09008KT 10SM FEW020 29/17 A2988 RMK 8/100
MMDO 140046Z 03006KT 8SM FEW015 SCT110 21/08 A3011 RMK 8/170 CB 2 AND 3 QUAD
MMMX 140046Z 02020KT 10SM BKN020 BKN080 BKN220 20/10 A3021 NOSIG RMK 8/472 DSNT PCPN 3TH 4TH QUAD
MMTC 140046Z 00000KT 10SM SKC 30/08 A2996 RMK DSNT SC 4 QUAD
RJTL 140046Z 07010KT 020V120 9999 SCT020 29/24 Q1016 RMK 4CU020 A3001
KLBE 140047Z 21005KT 20SM CLR 15/12 A2997
KGYR 140047Z 28008KT 10SM FEW070 SCT180 BKN220 34/14 A2974
KCQT 140047Z AUTO VRB04KT 10SM CLR 25/18 A2982 RMK AO2 SLP094 T02500178
KCHD 140047Z 25012KT 10SM SCT080 34/14 A2975
KPAO 140047Z 28011KT 10SM SKC 21/11 A2989
KPOC 140047Z 24012KT 10SM CLR 27/17 A2983
KADS 140047Z 12008KT 10SM SKC 29/13 A2993
KCIC 140047Z 15012KT 10SM FEW250 28/09 A2976
KCWA 140047Z 26004KT 10SM CLR 18/14 A2997
KEMT 140047Z 25006KT 10SM SCT050 28/17 A2981
KGYH 140047Z 28005KT 10SM CLR 22/12 A2996 RMK LAST
KHSA 140047Z 35006KT 10SM FEW046 20/19 A2994
MMIA 140047Z 27006KT 4SM RA BKN025CB 23/22 A2993 RMK 8/900
MMSM 140047Z 02010KT 7SM SCT020CB BKN080 BKN200 17/13 A3025 RMK 8/363 HZY
MMTG 140047Z 30005KT 8SM SCT025CB BKN080 BKN300 24/21 A2988 RMK 8/963 LTGIC DSNT SE
MMVR 140047Z 35005KT 7SM FEW010 BKN040 BKN250 27/23 A2984 RMK 8/808 HZY DSNT TCU N AND SW
MMZC 140047Z E06010KT 10SM BKN050 19/11 A3016 RMK 8/500 RA W
KSAW 140047Z 36007KT 10SM CLR 13/11 A2996
KSEE 140047Z 24008KT 10SM SKC 26/16 A2984
KASG 140048Z 10004KT 10SM CLR 24/15 A2999
KJDN 140048Z AUTO 09012G22KT 24/06 A2979 RMK AO1 SLP079 T02390061
KGEU 140048Z 22010KT 10SM SCT080 BKN180 34/14 A2974
KAEG 140048Z 25015KT 10SM VCTS BKN080CB 18/10 A3007 RMK OCNL LTGCG VC
MMAA 140048Z 21003KT 7SM BKN015TCU BKN090 OVC300 27/24 A2979 RMK 8/277 HZY CB NE NW
MMIO 140048Z 02015KT 10SM FEW040 25/11 A3012 RMK 8/500
MMLT 140048Z 00000KT 10SM FEW030 32/23 A2972 RMK 8/100
MMPR 140048Z 13004KT 10SM BKN035CB BKN080 28/25 A2978 RMK 8/36/ DSNT PCPN E
KSUA 140048Z 29015G25KT 10SM VCTS SCT010 BKN022 26/23 A2996 RMK WND EST. OCNL CGLTG NE.
KTIX 140048Z 00000KT 7SM SCT100 27/23 A2994
KFRM 140049Z AUTO 13003KT 1 1/2SM HZ CLR 16/13 A2997 RMK AO2 VIS 1/2V5
MMCS 140049Z 00000KT 10SM FEW040TCU FEW090 SCT200 29/11 A2996 RMK 8/242
PAEL 140049Z 00000KT 7SM -RA OVC021 12/12 A2985 RMK SEA 0 SWELL 2 SW NOSPECI
KJWN 140050Z 00000KT 10SM CLR 22/11 A2996
EETU 140050Z AUTO 15006KT 9999 OVC055/// 11/09 Q1003
ENCN 140050Z AUTO 28007KT 230V350 9999 NCD 14/09 Q0998
EYKA 140050Z 15005KT 130V190 9999 SCT039 11/09 Q1002
KGPM 140050Z 11008KT 10SM SKC 28/12 A2992
KLAL 140050Z 00000KT 10SM SKC 28/23 A2993
KVQQ 140050Z VRB03KT 10SM CLR 25/25 A2992
KEVB 140050Z 00000KT 10SM SCT030 26/23 A2994
KNQA 140050Z 00000KT 10SM CLR 21/20 A2995
ENBO 140050Z AUTO 08009KT 9999 DZ BKN047/// 11/10 Q0994
EKVG 140050Z AUTO 28012KT 9999 OVC034/// 09/07 Q1004 RMK OVC026/// WIND SKEID 30017KT
ENAL 140050Z AUTO 28008KT 9999 -RA FEW015/// SCT022/// 11/09 Q0998
ENAN 140050Z AUTO 05030KT 9999 NCD 08/05 Q1001
ENBR 140050Z AUTO 36007KT 5000 -RA FEW004/// SCT011/// BKN017/// 11/10 Q1001 RMK WIND 1200FT 32018KT
ENDU 140050Z 03004KT 330V070 9999 FEW015 BKN025 08/03 Q1001 RMK WIND 1100FT 02008KT WIND 2200FT 09005KT
ENHD 140050Z AUTO 31015KT 9999 FEW021/// SCT026/// BKN040/// 13/09 Q1002 REUP
EYPA 140050Z 22005KT 190V270 9999 FEW018 15/12 Q0999
LATI 140050Z 17004KT CAVOK 14/11 Q1015 NOSIG
FHAW 140050Z 13010KT 9999 FEW012 OVC040 24/20 Q1014 RMK BLU
ENTC 140050Z AUTO 05014KT 9999 FEW190/// 06/02 Q1003 RMK WIND 2600FT 07013KT
ENTO 140050Z AUTO 27005KT 9999 BKN098/// 11/07 Q0995
ENVA 140050Z 24019KT 8000 FEW008 BKN015 OVC021 12/11 Q0993 RMK WIND 670FT 28018KT
ENZV 140050Z AUTO 31017KT 9999 SCT021/// OVC043/// 14/10 Q1002
EYVI 140050Z 15006KT CAVOK 10/09 Q1003 NOSIG
LLBG 140050Z VRB03KT 9999 FEW050 25/21 Q1009 NOSIG
EVLA 140050Z AUTO 16007KT 9999 FEW030/// 12/12 Q0998
EVRA 140050Z 16009KT 9999 -RA FEW009 BKN040 11/10 Q1000 NOSIG
EVVA 140050Z AUTO 17007KT 9000 OVC003 12/12 Q0997
EEKE 140050Z AUTO 19013KT 9999NDV OVC008 13/12 Q0997
EEPU 140050Z AUTO 15009KT 120V190 9999 -RA OVC071/// 11/09 Q1000
EETN 140050Z 14010KT 9999 FEW012 10/08 Q1000
EFHK 140050Z 14014KT 9999 BKN019 BKN045 12/09 Q1000 NOSIG
EFIV 140050Z AUTO 03007KT 9999 -RA OVC005 07/06 Q1001
EFMA 140050Z AUTO 14014KT 110V170 9999 +SHRA VCTS BKN016 //////CB 12/10 Q0991
EFOU 140050Z AUTO 14006KT CAVOK 10/08 Q1002
EFRO 140050Z AUTO 15005KT 9999 FEW011 BKN038 08/07 Q1002
EFTP 140050Z AUTO 13010KT 100V160 9999 FEW018 BKN033 10/08 Q0998
EFTU 140050Z AUTO 14010KT 9999 -SHRA OVC008 //////CB 12/10 Q0996
EFVA 140050Z AUTO 11007KT 9999 -RA NSC 10/08 Q0997
ENOL 140050Z 28016KT 9999 -RA OVC007 11/11 Q0993
ENRO 140050Z AUTO 30003KT 260V320 9999 -RA BKN035 OVC045 09/07 Q0993
ENRY 140050Z AUTO 26005KT 9999NDV BKN066/// 12/09 Q0995
EEEI 140050Z 15008KT 120V180 9999 SCT020 11/08 Q0999
EVGA 140050Z AUTO 14007KT 120V180 9999 BKN038/// 11/09 Q1001
EDHK 140050Z AUTO 27005KT 9999 // FEW026/// SCT036/// BKN042/// 13/10 Q1005
EGGP 140050Z AUTO 12003KT 080V150 9999 BKN019/// 13/12 Q1010
ENDR 140050Z AUTO 34020KT 9999NDV -RA OVC010/// 11/10 Q0993 W///S5
EKSB 140050Z AUTO 27006KT 240V300 9999 BKN038/// 14/10 Q1004
ENGC 140050Z 32014KT 9999 SCT012 11/09 Q1002 W11/S3
ENHE 140050Z 02026KT 8000 -RA BKN010 OVC034 10/09 Q0994 W///S5
LICD 140050Z AUTO 16005KT 120V180 9999 FEW023/// 27/22 Q1015
LICR 140050Z AUTO 05005KT 9999 NCD 20/07 Q1016
PALJ 140050Z 00000KT 20SM -RA BKN030 OVC050 11/10 A2953 RMK EST PASS CLSD NOSPECI
ENFB 140050Z AUTO 29014KT 9999NDV SCT014/// BKN053/// 11/09 Q1002 W///S4
ESNG 140050Z AUTO 09003KT 9999 BKN012/// OVC018/// 09/// Q0999
LTCR 140050Z 28004KT 210V350 CAVOK 21/14 Q1007
EGNM 140050Z 25006KT CAVOK 10/09 Q1009
LTAI 140050Z 32009KT CAVOK 24/06 Q1007 NOSIG RMK RWY18C 32007KT RWY36R 32010KT RWY18L 32010KT
LTCF 140050Z 11008KT CAVOK 12/07 Q1014
EKSP 140050Z 29008KT 9999 BKN042 13/09 Q1005
ESGT 140050Z AUTO 28008KT 9999 FEW045/// BKN061/// 12/09 Q0995
ESKM 140050Z AUTO 00000KT 9999 BKN006/// OVC008/// 06/06 Q0991
ESKN 140050Z 22008KT CAVOK 12/11 Q0991
ESMK 140050Z AUTO 26011KT 9999 FEW027/// BKN057/// 14/11 Q0999
EGFF 140050Z AUTO 06005KT 9999 -RA OVC028 15/14 Q1008
ESMQ 140050Z AUTO 23008KT 9999 FEW016/// SCT027/// BKN036/// 13/11 Q0996
ESMS 140050Z 26014KT 9999 OVC044 14/10 Q1001
KHXD 140050Z 00000KT 10SM CLR 25/24 A2992
LIBP 140050Z AUTO 23005KT 9999 NCD 16/13 Q1014
LIBR 140050Z 25007KT CAVOK 18/11 Q1015
LIEO 140050Z 15002KT CAVOK 22/20 Q1013
LICJ 140050Z VRB02KT CAVOK 23/14 Q1015
LTBH 140050Z 08005KT CAVOK 14/12 Q1014
MUHG 140050Z 02003KT 9000 FEW020 26/22 Q1014
MUCC 140050Z 05006KT 8000 TS BKN018CB 27/26 Q1013
MUCM 140050Z 31006KT 5000 -RA BKN020CB 23/21 Q1013
MUHA 140050Z VRB02KT 8000 -RA BKN030 22/22 Q1013
MUSC 140050Z VRB03KT 9000 FEW020CB SCT070 24/22 Q1013
MUCU 140050Z VRB02KT 9000 FEW020 28/24 Q1013
LCEN 140050Z 22006KT 9999 FEW025 21/14 Q1007 NOSIG RMK RWY11 24004KT
MUVR 140050Z VRB01KT 9000 FEW020 OVC080 22/22 Q1014
EGJB 140050Z 07011KT 3000 VCSH BR SCT001 BKN003 FEW050CB 18/18 Q1004
EGPB 140050Z AUTO 31007KT 9999 SCT004/// BKN015/// BKN026/// 11/10 Q1004 RERA
ENFL 140050Z AUTO 33012KT 9999NDV FEW044/// 12/08 Q1000
ENHF 140050Z 36005KT 9999 SCT027 03/M01 Q1005 RMK WIND 1254FT 36009KT
ENHK 140050Z AUTO 04007KT 9999 OVC028 05/M00 Q1005
LIRF 140050Z 09005KT CAVOK 19/17 Q1015 NOSIG
LCRA 140050Z 29004KT 9999 FEW025 23/20 Q1007 NOSIG
EDAC 140050Z AUTO VRB01KT 9999 // FEW040/// BKN063/// BKN200/// 14/13 Q1008
EDDL 140050Z AUTO 01006KT 9999 BKN016 16/14 Q1007 NOSIG
EDBC 140050Z AUTO 30004KT 9999 // FEW028/// BKN220/// 14/11 Q1008
EDDB 140050Z AUTO 25005KT 9999 FEW037 11/11 Q1007 NOSIG
EDDC 140050Z AUTO VRB02KT 9999 BKN024 BKN040 16/14 Q1008
EDDE 140050Z AUTO 21007KT 9999 -DZ OVC023 16/14 Q1008
EDDF 140050Z AUTO 08004KT 9999 -RA FEW018 18/17 Q1008 TEMPO 1400 TSRA
EDDG 140050Z AUTO 33001KT CAVOK 12/11 Q1008 NOSIG
EDDH 140050Z AUTO 25004KT CAVOK 13/11 Q1006 NOSIG
EDDK 140050Z AUTO 14003KT 100V160 6000 -RA FEW003 18/17 Q1007 TEMPO 4500 BR
EDDM 140050Z AUTO 30002KT CAVOK 15/15 Q1010 TEMPO SHRA BKN045TCU
EDDN 140050Z AUTO 11005KT 9999 -SHRA FEW042 FEW///TCU 16/15 Q1009 RESHRA
EDDP 140050Z AUTO 33005KT 9999 SCT029 BKN039 16/13 Q1008 NOSIG
EDDR 140050Z AUTO 10005KT 070V130 9999 BKN026 OVC036 17/15 Q1007
EDDS 140050Z AUTO 35001KT CAVOK 18/15 Q1007
EDDV 140050Z AUTO VRB01KT CAVOK 11/10 Q1008
EDDW 140050Z AUTO 22004KT CAVOK 11/10 Q1007
EDFH 140050Z 13010KT 9999 -RA SCT049 16/16 Q1008
EDGS 140050Z AUTO 00000KT 1100 R31/P2000N // BKN002/// BKN070/// OVC100/// 15/15 Q1009
EDHI 140050Z AUTO 28005KT 9999 // FEW040/// 13/13 Q1006
EDHL 140050Z AUTO 28006KT 250V310 9999 // NCD 13/11 Q1006
EDJA 140050Z AUTO 17005KT 9999 // OVC120/// 17/15 Q1010
EDLN 140050Z AUTO 34004KT 9999 // FEW064/// SCT074/// OVC100/// 16/15 Q1007
EDLV 140050Z AUTO 02003KT 9999 // BKN029/// BKN034/// OVC043/// 16/13 Q1008
EDLW 140050Z AUTO 04004KT 9999 // BKN027/// 16/12 Q1008
EDMA 140050Z AUTO 14004KT 9999 BKN130/// OVC160/// 17/15 Q1009
EDMO 140050Z AUTO VRB01KT 9999 // FEW068/// BKN110/// OVC130/// 16/15 Q1010
EDNY 140050Z AUTO 07003KT 9999 // OVC130/// 17/17 Q1009
EDLP 140050Z VRB01KT 9999 BKN029 15/11 Q1008
EDVE 140050Z AUTO 00000KT 9999 BKN230/// 11/10 Q1008
EDQM 140050Z AUTO 00000KT 6000 // BKN100/// 14/14 Q1009
EDSB 140050Z AUTO 26003KT 220V290 7000 // BKN042/// OVC057/// 18/16 Q1007
EDTL 140050Z AUTO 16004KT 9999 // FEW002/// SCT035/// BKN050/// 18/17 Q1007
EDXW 140050Z AUTO 31017KT 9999 // FEW030/// BKN043/// 16/09 Q1005
ETNG 140050Z 05005KT 9999 SCT010 BKN070 16/15 Q1007
MSLP 140050Z VRB01KT 9999 -RA FEW017 BKN023 FEW040CB 27/25 Q1009 A2981 TEMPO 5000 TSRA RMK CB E
NSTU 140050Z 11015KT 12SM FEW022 SCT100 30/26 A2996 RMK SLP146 T02950258
ENHM 140050Z AUTO 28013KT 9999NDV FEW021/// SCT036/// BKN044/// 12/09 Q1003 W15/S/
ENHV 140050Z AUTO 27004KT 230V320 9999 NCD 04/M01 Q1005
ENNE 140050Z AUTO 01032KT 5000NDV -RA BKN012/// 10/09 Q0993 W///S5
ENSE 140050Z AUTO 32014KT 9999NDV OVC018/// 11/09 Q1002 W///S4
ENSF 140050Z AUTO /////KT 9999NDV FEW014/// BKN055/// ///// Q//// W///S4
ENOA 140050Z 31015KT 9999 FEW015 BKN050 12/08 Q1002 W///S4
LIMJ 140050Z 08007KT 9999 SCT020 25/19 Q1012
KQFB 140050Z AUTO 04005G17KT 9999 BKN030 BKN080 25/18 A3011 RMK A02 TSNO
KHQZ 140050Z 09003KT 10SM CLR 26/14 A2993
KRYY 140050Z 00000KT 10SM CLR 20/14 A2999 RMK AO2 SLP148 T02000139 $
KJQF 140050Z 00000KT 10SM CLR 19/14 A2997
KQER 140050Z AUTO 32004KT 9999 OVC070 23/17 A3008 RMK A02 TSNO
LIBD 140050Z 20005KT CAVOK 18/10 Q1015
LICA 140050Z AUTO 08004KT 9999 NCD 17/14 Q1016
LICB 140050Z AUTO 06005KT 9999 NCD 20/18 Q1016
LICC 140050Z 23003KT CAVOK 22/16 Q1015
LIEA 140050Z 03003KT CAVOK 21/20 Q1013
LIEE 140050Z 17006KT CAVOK 25/22 Q1014
LIPH 140050Z AUTO 06002KT 9999 BKN160/// BKN190/// 20/18 Q1012
LIPZ 140050Z AUTO 05005KT 9999 BKN160/// BKN210/// 20/18 Q1012
LIMC 140050Z 26003KT 240V300 9999 BKN060 22/15 Q1013 NOSIG
LIME 140050Z 03002KT 9999 SCT060 20/16 Q1013 NOSIG
LIML 140050Z 28003KT 250V310 9999 BKN070 23/16 Q1012 NOSIG
LIMZ 140050Z AUTO 19003KT 9999 BKN160/// 17/16 Q1014
LIPE 140050Z 21003KT 180V250 CAVOK 22/13 Q1012
LIPO 140050Z AUTO 35005KT 9999 SCT057/// 21/17 Q1013
LIPQ 140050Z AUTO 08003KT 9999 SCT026/// BKN054/// 20/18 Q1013
LIPR 140050Z AUTO VRB02KT 9999 NCD 19/16 Q1012
LIPX 140050Z 33003KT CAVOK 20/17 Q1012
LIPY 140050Z AUTO 19003KT 9999 NCD 19/14 Q1013
LIRA 140050Z 14004KT CAVOK 21/11 Q1016
LIRQ 140050Z AUTO 11003KT 9999 NCD 20/18 Q1014
LIRZ 140050Z AUTO 03004KT 9999 NCD 17/15 Q1016
LIRN 140050Z AUTO VRB01KT 9999 NCD 20/17 Q1016
KQEN 140050Z AUTO 08004G13KT M0400 -SHRA FG CLR / / RMK A02 TSNO
KQEJ 140050Z AUTO 05003G14KT 9999 // BKN036 21/21 / RMK A02 TSNO
KQEQ 140050Z AUTO 05006KT 9999 FEW110 BKN130 22/18 A3009 RMK A02 TSNO
KQEW 140050Z AUTO 04001KT 9999 // FEW240 23/15 A3008 RMK A02 TSNO
KQEP 140050Z AUTO 15001KT 9999 BKN110 25/15 A3008 RMK A02 TSNO
KADM 140050Z 12006KT 10SM CLR 27/15 A2990
KIWA 140050Z 26006KT 10SM SCT060 33/16 A2977
KOQU 140050Z 24012KT 10SM SCT005 BKN012 23/21 A2975
EBLG 140050Z 05003KT 4500 BR FEW041 16/16 Q1007 TEMPO 3000 RA
EBOS 140050Z 06008KT 9999 -RA SCT019 15/14 Q1008 TEMPO BKN012
LTAF 140050Z 11004KT 080V170 CAVOK 25/22 Q1006 NOSIG RMK RWY23 11005KT SKC
LTAN 140050Z 36008KT 9999 FEW040 13/06 Q1015 NOSIG
LTAT 140050Z 00000KT CAVOK 15/12 Q1011 NOSIG RMK RWY03 VRB02KT
LTAG 140050Z 07002KT 9999 FEW025CB SCT030 24/24 Q1006 TEMPO -TSRA RMK 1CB025 4CU030
LTAJ 140050Z 29012KT 9999 FEW040 SCT120 22/14 Q1008 NOSIG RMK RWY10 27014KT 1CU040 3AC120
LTAR 140050Z 36006KT 3000 BR FEW004 SCT030 08/08 Q1016
LTAU 140050Z VRB02KT 9999 FEW040 11/05 Q1014 NOSIG RMK RWY07 22006KT 180V240
LTAY 140050Z 04004KT 010V070 CAVOK 15/06 Q1014
LTAZ 140050Z 24004KT CAVOK 11/05 Q1015 RMK RWY29 VRB01KT
LTBA 140050Z 04003KT CAVOK 18/15 Q1014 NOSIG RMK RWY23 06004KT
LTBF 140050Z 25002KT CAVOK 13/11 Q1014 NOSIG
LTCG 140050Z 27010KT 9999 SCT012 FEW020CB BKN028 20/16 Q1011 TEMPO TSRA RMK RWY29 27013KT
LTCI 140050Z VRB02KT 9999 FEW040 17/02 Q1016 NOSIG
LTCJ 140050Z VRB02KT CAVOK 18/13 Q1006 NOSIG RMK RWY20 34003KT SKC
LTBJ 140050Z 36005KT CAVOK 19/07 Q1011 NOSIG RMK RWY16 00000KT
LTBQ 140050Z 31002KT 8000 NSC 09/09 Q1015 TEMPO FM0200 3200 BR
LTBR 140050Z 15001KT CAVOK 10/10 Q1015 NOSIG RMK RWY07 VRB02KT
LTBS 140050Z 34012KT CAVOK 25/08 Q1006 NOSIG RMK RWY19 34011KT SKC
LTBU 140050Z 03003KT CAVOK 14/11 Q1014 RMK RWY22 VRB01KT
LTBY 140050Z 00000KT CAVOK 08/08 Q1016
LTCA 140050Z 27005KT 220V290 CAVOK 19/11 Q1011 NOSIG
LTCB 140050Z 23007KT 210V270 9999 BKN033 19/13 Q1013 RETSRA
LTCC 140050Z 28006KT CAVOK 22/11 Q1007 NOSIG RMK RWY16 29009KT 270V350 SKC
LTCD 140050Z 00000KT 9999 FEW040 SCT070 13/12 Q1014 NOSIG
LTCE 140050Z 18007KT 150V210 9999 -TSRA FEW025CB BKN035 10/09 Q1016 RETSRA NOSIG RMK RWY08R 15009KT RWY26R 18009KT RWY08L 17009KT 2CB025 5CU035
LTCN 140050Z VRB02KT 9999 FEW040 18/18 Q1010 NOSIG
LTCS 140050Z 31014KT CAVOK 20/13 Q1008 RMK RWY22 26013KT 3AC100
LTDA 140050Z VRB02KT 9999 -TSRA FEW020CB SCT030 23/21 Q1007 NOSIG
EGXC 140050Z 24003KT CAVOK 10/09 Q1009 RMK BLU
EGAC 140050Z AUTO 34006KT 300V010 9999 OVC013 13/11 Q1011
EGBB 140050Z 33003KT 9999 MIFG NSC 09/09 Q1010
COR EGCC 140050Z AUTO 15003KT 9999 NCD 09/08 Q1010 NOSIG
EGPH 140050Z 26004KT CAVOK 08/07 Q1009
EGCN 140050Z 19003KT 9999 MIFG NSC 09/08 Q1010
EGGD 140050Z AUTO 06009KT 010V080 9999 -RA BKN015 BKN036 13/13 Q1008
EGGW 140050Z AUTO 04002KT 9999 -RA NCD 14/12 Q1009
EGHQ 140050Z AUTO 05005KT 9999 -DZ OVC039/// 16/16 Q1007
EGJJ 140050Z AUTO 08015KT 8000 NCD 19/19 Q1004
EGKK 140050Z 04004KT 9999 -RA SCT003 15/14 Q1008
EGLC 140050Z AUTO 06004KT 020V080 9999 SCT006 BKN022 15/14 Q1008
EGLF 140050Z AUTO 05005KT 9000 -RA FEW005/// 15/14 Q1008 REDZ
COR EGLL 140050Z AUTO 05004KT 9999 FEW011 15/14 Q1008 TEMPO BKN009
EGMC 140050Z 06006KT 8000 -RA FEW025 15/14 Q1008
EGMD 140050Z AUTO 06011KT 9999 BKN009/// OVC018/// 16/15 Q1008
EGNJ 140050Z AUTO 23004KT 9999 NCD 11/11 Q1009
EGNX 140050Z VRB01KT CAVOK 12/11 Q1009
EGPA 140050Z AUTO 30013G23KT 9999 SCT015/// BKN026/// 11/09 Q1006
EGPC 140050Z AUTO 27009KT 9999 BKN011/// BKN020/// OVC025/// 11/10 Q1007
COR EGPD 140050Z AUTO VRB02KT 9999 OVC030 13/08 Q1008 NOSIG
EGPE 140050Z AUTO 24008KT 9999 BKN018/// 12/09 Q1009
EGPF 140050Z AUTO 23005KT 9999 NCD 08/07 Q1010
EGSH 140050Z AUTO 00000KT 9999 NCD 13/11 Q1009
EGPK 140050Z AUTO 31007KT 9999 OVC018/// 13/10 Q1010
EGPL 140050Z AUTO 31009KT 9999 BKN002/// 12/10 Q1010
EGPO 140050Z AUTO 25004KT 9999 OVC024/// 11/10 Q1009
EGQL 140050Z 28006KT 9999 SKC 10/08 Q1009 RMK BLU
EGQM 140050Z AUTO 29010KT 9999 FEW230/// 12/09 Q1008
EGQS 140050Z 27008KT 9999 FEW019 BKN030 13/09 Q1008 RMK BLU
EGSS 140050Z AUTO 03004KT 9999 -RA SCT047 14/13 Q1009
EGTE 140050Z 36006KT 9999 -RA SCT008 BKN030 15/14 Q1007
EGVN 140050Z 04004KT 9999 -RA FEW027 BKN037 BKN110 14/13 Q1008 NOSIG RMK BLU BLU
EKRN 140050Z AUTO 28022G32KT 9999 FEW022/// BKN048/// 16/11 Q1001
ENMS 140050Z AUTO 00000KT 9999 SCT035/// 10/10 Q0992 RMK WIND 412FT VRB01KT
EKRK 140050Z AUTO 28019KT 9999 BKN037/// 14/09 Q1001
EKVD 140050Z AUTO 28011KT //// ///////// 14/10 Q1004
ENAT 140050Z 07009KT 9999 FEW029 BKN190 05/02 Q1005 RMK WIND 700FT 04014KT
ENBN 140050Z AUTO VRB03KT 9999NDV -RA FEW034/// SCT041/// BKN049/// 12/11 Q0992
ENBS 140050Z AUTO 31009KT 9999 NCD 04/01 Q1003
ENBV 140050Z AUTO 32012KT 9999 BKN028 05/00 Q1004
ENEV 140050Z 36010KT 330V040 9999 -RA OVC024 08/07 Q0999 REDZ RMK WIND 1400FT 01017KT
ENKB 140050Z AUTO 26008KT 2200 DZ VV015 10/09 Q0996 RMK WIND 745FT 28014KT
ENKR 140050Z AUTO 03007KT 9999 -RA FEW013/// OVC051/// 05/04 Q1003 RMK WIND 731FT 03013KT
ENMH 140050Z AUTO VRB02KT 9999 BKN032 BKN037 04/M01 Q1004
ENML 140050Z AUTO 25011KT 9999NDV -SHRA FEW030/// SCT050/// 11/09 Q0997
ENNA 140050Z AUTO 36009KT 9999 FEW007/// OVC018/// 05/03 Q1005 RMK WIND 1800FT 03009KT
ENNM 140050Z AUTO 00000KT 3500 RABR FEW001 SCT016 OVC028 11/11 Q0991
ENSD 140050Z AUTO 30010KT 260V340 9999 BKN036/// OVC046/// 12/08 Q0999 RMK WIND RWY26 29008KT WIND 1140FT VRB11KT
ESIB 140050Z AUTO 29014KT 9999 BKN060/// 13/11 Q0994
ESNL 140050Z AUTO 12008KT 9999 FEW005/// BKN007/// OVC010/// 10/09 Q0997
ESNO 140050Z AUTO 10012KT 2700 RA OVC003/// 10/10 Q0995
ESPE 140050Z AUTO 12005KT 9999 FEW014/// SCT018/// OVC032/// 09/09 Q0999
ESSB 140050Z AUTO 22004KT 9999 BKN068/// OVC190/// 11/11 Q0991
ESMT 140050Z AUTO 29016KT 9999 FEW015/// SCT018/// BKN020/// 15/12 Q0998
ESMX 140050Z AUTO 24007KT 9999 BKN010/// OVC025/// 13/13 Q0996
ESNK 140050Z AUTO 11007KT 080V150 6000 +DZ FEW006/// BKN010/// OVC015/// 12/11 Q0993
ESNN 140050Z AUTO 08004KT 9999 -RA FEW035/// OVC072/// 13/12 Q0991
ESNQ 140050Z AUTO 02007KT 9999 -RA SCT003/// OVC005/// 06/06 Q0999
ESNS 140050Z AUTO 11006KT 9999 FEW022/// BKN061/// OVC100/// 10/10 Q0999
ESNU 140050Z AUTO 10009KT 9999 OVC018/// 11/09 Q0997
ESNX 140050Z AUTO 11007KT 9999 DZ OVC004/// 09/09 Q0998
COR ESNZ 140050Z 06006KT 3100 FEW004 SCT009 BKN035 10/10 Q0991
ESOE 140050Z AUTO 22005KT 9999 NCD 09/08 Q0992
ESOK 140050Z AUTO 23004KT 0300 R03/P1500N R21/1100U FG NCD 05/// Q0993
ESOW 140050Z AUTO 26004KT 230V300 9999 OVC034/// 11/09 Q0991
ESPA 140050Z AUTO 17007KT 9999 FEW014/// BKN018/// OVC048/// 12/10 Q1000
ESSA 140050Z 17004KT 9999 FEW015 10/09 Q0990 TEMPO SHRA BKN012 SCT030CB
ESSD 140050Z AUTO 26005KT 9999 -RA OVC048/// 09/09 Q0991
ESSL 140050Z AUTO 26006KT 9999 SCT016/// OVC048/// 12/11 Q0993
ESSP 140050Z AUTO 25006KT 9999 FEW059/// 11/10 Q0992
ESSV 140050Z AUTO 23012KT 9999 BKN016/// BKN021/// OVC029/// 15/12 Q0994 REDZ
ESTL 140050Z AUTO 27015KT 9999 FEW020/// SCT034/// BKN041/// 14/12 Q0999
ESUT 140050Z AUTO 13011KT 9999 OVC017/// 10/09 Q0994
LGMK 140050Z 36013KT CAVOK 22/16 Q1012
LGHI 140050Z 36008KT 320V040 CAVOK 22/14 Q1011
LGKZ 140050Z AUTO VRB02KT //// // ////// 11/04 Q1017 RE//
LGPA 140050Z AUTO 36012KT //// // ////// 22/13 Q1013 RE//
LGSA 140050Z 00000KT CAVOK 20/17 Q1013
LGAD 140050Z 00000KT 9999 FEW020 18/16 Q1013
LGAV 140050Z 27002KT CAVOK 18/11 Q1014 NOSIG
LGBL 140050Z 24004KT CAVOK 16/10 Q1014
LGEL 140050Z 33006KT 9999 FEW025 22/08 Q1014
LGIR 140050Z 18003KT 9999 FEW020 21/17 Q1013 NOSIG
LGKL 140050Z VRB03KT CAVOK 17/15 Q1013
LGKR 140050Z 00000KT CAVOK 18/15 Q1012 NOSIG
LGRP 140050Z 30008KT CAVOK 25/15 Q1007 NOSIG
LGRX 140050Z 00000KT CAVOK 17/14 Q1013
LGTS 140050Z VRB02KT CAVOK 15/10 Q1014 NOSIG
LGIO 140050Z AUTO 00000KT //// // ////// 11/09 Q1016 RE//
KM54 140050Z AUTO 00000KT 10SM CLR 21/14 A2996 RMK A01
LSZA 140050Z AUTO 02001KT 9999 OVC050 20/17 Q1014
EGYP 140050Z 02028KT CAVOK 04/01 Q1013
BGGH 140050Z 20016KT 9999 SCT110 06/05 Q1012
BGKK 140050Z AUTO 00000KT 9999NDV OVC002/// 02/01 Q1018
BGJN 140050Z AUTO 10008KT 9999NDV OVC091/// 09/04 Q1009
BGBW 140050Z AUTO 23001KT 9999NDV BKN065/// 06/03 Q1015
EBAW 140050Z AUTO 03005KT 9999 -SHRA BKN025/// OVC029/// 15/14 Q1008
EBCI 140050Z 04006KT 9999 FEW008 BKN046 16/15 Q1007 BECMG BKN008
EKYT 140050Z AUTO 28016KT 9999 NCD 14/11 Q0999
ELLX 140050Z AUTO 09006KT 060V120 9999 SHRA FEW043/// OVC096/// //////CB 17/16 Q1007 NOSIG
ENSR 140050Z AUTO 36008KT 9999 FEW021/// OVC026/// 07/04 Q1004 RMK WIND RWY32 35005KT WIND 1118FT 02012KT
ENVD 140050Z AUTO 02006KT 9999 OVC057/// 05/03 Q1003
ENSS 140050Z AUTO 34008KT 9999 BKN025 OVC030 07/03 Q1003 RMK WIND 0500FT 36014KT 310V010
ENSK 140050Z AUTO 04013KT 9999 OVC130/// 09/04 Q0998
ENSL 140050Z AUTO 29017KT 9999NDV BKN029/// 12/10 Q1007 W12/S4
EYSA 140050Z AUTO 17008KT 9999NDV BKN005 BKN010 BKN038 11/10 Q1001 RERA
KALN 140050Z 00000KT 10SM CLR 18/13 A2999
LGSO 140050Z AUTO 33011KT //// // ////// 22/12 Q1013 RE//
LOWG 140050Z AUTO VRB01KT 9999 NSC 15/14 Q1010
LOWI 140050Z AUTO 33003KT 270V080 9999 FEW110 BKN120 16/14 Q1011
LOWL 140050Z AUTO VRB02KT 9999 NSC 16/15 Q1010
LOWW 140050Z VRB01KT CAVOK 16/13 Q1009 NOSIG
LOWK 140050Z AUTO 31003KT 9999 NSC 15/14 Q1012
LOWS 140050Z AUTO VRB02KT 9999 FEW120 15/13 Q1010
LSGC 140050Z AUTO 22008KT 170V250 9999 NSC 19/14 Q1013
LSGG 140050Z AUTO 26003KT 9999 BKN090 20/18 Q1011
LSGS 140050Z AUTO VRB01KT CAVOK 19/14 Q1011
LSMA 140050Z AUTO VRB02KT 9999NDV OVC110 18/15 Q1010 RMK
LSME 140050Z AUTO 24004KT 210V280 9999NDV OVC100 20/16 Q1010 RMK
LSMM 140050Z AUTO 11005KT 070V130 9999NDV OVC110 16/15 Q1011 RMK
LSMP 140050Z AUTO 25007KT 200V280 9999NDV -SHRA OVC090 20/18 Q1011 RMK
LSZB 140050Z AUTO VRB01KT 9999 FEW100 SCT130 BKN140 18/16 Q1011
LSZC 140050Z AUTO 22003KT 9999 BKN100 18/14 Q1010
LSZG 140050Z AUTO VRB03KT 9999 -RA BKN/// 18/17 Q1010
LSMD 140050Z AUTO 02004KT 020V190 9999NDV OVC110 20/16 Q1010 RMK
LSZH 140050Z AUTO 14004KT 9999 NSC 20/16 Q1009 NOSIG
LTAC 140050Z 00000KT CAVOK 10/06 Q1016 NOSIG RMK RWY21L 17003KT RWY03L 00000KT RWY21R 19004KT
LSZR 140050Z AUTO 11005KT 9999 NSC 19/16 Q1009
LSZS 140050Z AUTO 18005KT 140V240 9999 FEW014 SCT016 BKN095 13/10 Q1018
LTFC 140050Z 34011KT CAVOK 15/07 Q1014 RMK RWY23 01005KT
LTFD 140050Z 07008KT CAVOK 17/13 Q1014
LTFE 140050Z 17003KT CAVOK 19/10 Q1009 NOSIG RMK RWY10 VRB01KT
LTFH 140050Z 22006KT 9999 SCT030 BKN100 17/14 Q1013 NOSIG
LTFJ 140050Z 04003KT CAVOK 16/14 Q1014 NOSIG RMK RWY24 02004KT
KDAG 140050Z AUTO 25017KT 10SM CLR 31/13 A2976 RMK AO2 PK WND 24027/0019 LTG DSNT E SLP051 T03110133
KQFT 140050Z AUTO 03003KT 9999 BKN130 BKN170 25/16 A3006 RMK A02 TSNO
KQFU 140050Z AUTO 02004KT 9999 BKN130 24/15 A3011 RMK A02 TSNO
KQFV 140050Z AUTO 25002KT 9999 OVC110 22/16 A3016 RMK A02 TSNO
OOMS 140050Z 03002KT 9000 NSC 29/27 Q1003 NOSIG
OOSA 140050Z 19004KT 4000 -DZ BR FEW008 BKN012 OVC020 26/26 Q1006 NOSIG
OOSH 140050Z AUTO 29004KT //// ////// 30/26 Q1003
TJBQ 140050Z COR 12005KT 10SM -VCTSRA SCT045 BKN060 BKN080 26/24 A2998 RMK TSB2345E0035
BGSF 140050Z AUTO 06011KT 9999NDV -RA OVC050/// 10/04 Q1010
EFET 140050Z AUTO 04011KT 9999 -RA OVC011 06/05 Q1000
EFHA 140050Z AUTO 14010KT 9999 FEW013 BKN036 10/08 Q1000
EFJO 140050Z AUTO 14008KT CAVOK 11/09 Q1006
EFJY 140050Z AUTO 15006KT 9999 SCT012 OVC038 10/09 Q1001
EFKE 140050Z AUTO 12006KT 9999 OVC012 10/09 Q1001
EFKI 140050Z AUTO 13005KT 9999 SCT008 SCT034 BKN041 10/09 Q1003
EFKK 140050Z AUTO 10005KT 9999 FEW024 10/08 Q0999
EFKS 140050Z AUTO 16006KT 9999 FEW009 SCT042 08/07 Q1004
EFKT 140050Z AUTO 18005KT 9999 OVC009 09/09 Q1001
EFKU 140050Z AUTO 13006KT 100V160 9999 BKN027 12/10 Q1003
EFLP 140050Z AUTO 14005KT 100V170 CAVOK 11/09 Q1004
EGAA 140050Z AUTO 34006KT 300V360 9999 OVC010 12/11 Q1011
EFMI 140050Z AUTO 12006KT 9999 -SHRA SCT018 OVC023 11/10 Q1003
EFPO 140050Z AUTO 11014KT 9999 OVC012 11/09 Q0995
EFSA 140050Z AUTO 15008KT 9999 FEW044 12/09 Q1005
EFSI 140050Z AUTO 12009KT CAVOK 09/08 Q0998
EFUT 140050Z AUTO 13009KT 9999 FEW023 OVC037 11/10 Q1002
EKBI 140050Z AUTO 28011KT 9999 OVC023/// 13/10 Q1004
EKCH 140050Z AUTO 26013KT 9999 BKN034/// 14/10 Q1001 NOSIG
EKEB 140050Z AUTO 30010KT 9999 SCT043/// 14/08 Q1005
EKKA 140050Z AUTO 27014KT 9999 OVC030/// 13/09 Q1002
EKAH 140050Z AUTO 26013KT 9999 BKN024/// 14/10 Q1001
ENRM 140050Z AUTO 09003KT 050V130 9999 -RA FEW011 OVC015 12/11 Q0991
ENOV 140050Z AUTO VRB03KT 9999 -RA SCT013/// BKN020/// OVC041/// 10/09 Q0999 REDZ RMK WIND RWY24 19003KT WIND 2090FT 27017KT
ENRA 140050Z AUTO VRB03KT 9999 OVC045/// 11/10 Q0993
ENRS 140050Z AUTO 05020KT 9999 -RA FEW019 BKN051 11/09 Q0995
ENQA 140050Z AUTO 31017KT 9999NDV FEW029/// OVC058/// 12/08 Q1002 W21/S4
ENQC 140050Z AUTO 29014KT 9999NDV /// ///// Q//// W///S4
ESCM 140050Z AUTO 22006KT 9999 FEW008/// SCT170/// 11/11 Q0991
ESCF 140050Z AUTO 26006KT 9999 FEW013/// OVC045/// 12/11 Q0993
ESGG 140050Z 27006KT 9999 FEW028 12/09 Q0996
ESTA 140050Z AUTO 28020KT 9999 BKN019/// BKN026/// OVC036/// 15/11 Q0999
ESDF 140050Z AUTO 25009KT 9999 OVC017/// 14/12 Q0998
ESGJ 140050Z AUTO 30004KT 270V330 6000 DZ FEW013/// SCT023/// 12/12 Q0994
ESGP 140050Z AUTO 29009KT 9999 FEW032/// BKN059/// 14/11 Q0996
KQEV 140050Z AUTO 11008G13KT 9999 FEW110 25/12 A2999 RMK A02 TSNO
PGRO 140050Z 26012KT 5SM -RA BR BKN014 OVC100 28/25 A2985
PTYA 140050Z VRB03KT 12SM FEW016 SCT130 OVC300 30/26 A2986 RMK SLP113 T03020262
KQFX 140050Z AUTO 32001KT 9999 BKN120 23/22 / RMK A02 TSNO
LTCT 140050Z 35010KT 9999 SCT080 22/07 Q1008
EDTY 140050Z AUTO 08004KT 9999 // FEW110/// OVC130/// 17/14 Q1008
ENLA 140050Z AUTO 28018KT 9999NDV SCT021/// BKN045/// 14/10 Q1005 W///S5
ESUP 140050Z AUTO 16005KT 9999 FEW008/// BKN016/// OVC160/// 10/10 Q1000
ESNV 140050Z AUTO 11008KT 9000 OVC011/// ///// Q0995 RERA
ESST 140050Z AUTO VRB02KT 0200 R16/1300U R34/0700N FG FEW001/// OVC002/// 07/06 Q0993
LTCW 140050Z VRB04KT CAVOK 19/M00 Q1015
ESND 140050Z AUTO 29003KT 9999 -DZ BKN011/// OVC016/// 09/09 Q0991 REUP
ENLE 140050Z 28020KT 9999 FEW020 BKN045 14/10 Q1007 W17/S5
ENUG 140050Z AUTO 34010KT 240V010 9999NDV BKN032/// 06/M02 Q1004 W///S4
ENWV 140050Z AUTO 28019KT 9999NDV -SHRA OVC027/// 14/11 Q1007 W///S4
EGCK 140050Z AUTO VRB03KT 9999 NCD 09/08 Q1010
ESIA 140050Z AUTO 27006KT 9999 -RA OVC070/// 12/11 Q0993
OODQ 140050Z AUTO 21018KT 9999 OVC006 24/23 Q1004 NOSIG
LTFM 140050Z 19004KT CAVOK 15/13 Q1015 NOSIG RMK RWY17L 24005KT RWY34L 21003KT RWY16R 24004KT RWY36 19005KT RWY18 19007KT
ENUN 140050Z AUTO 04030KT 9999NDV OVC022/// 10/05 Q0998 W10/S5
EKRS 140050Z AUTO 29007KT 210V350 9999 BKN023/// 13/13 Q1002
ESOH 140050Z AUTO VRB02KT 0100 R18/0500N FG VV002 07/07 Q0992
ESKS 140050Z AUTO 04002KT 9999 OVC054/// 04/04 Q0992
EDWE 140050Z AUTO 00000KT 9999 // FEW041/// 12/10 Q1008
OOKB 140050Z AUTO 19006KT 5000 FEW035 33/23 Q1002 NOSIG
OOAD 140050Z AUTO 11008KT //// R31///// // NCD 27/22 Q1007 NOSIG
LTFO 140050Z 19009KT 9999 -SHRA SCT012 BKN035 20/17 Q1010 RESHRA
OIYY 140050Z 09002KT CAVOK 22/01 Q1014
OITU 140050Z 00000KT CAVOK 18/02 Q1022
LGAL 140050Z 00000KT CAVOK 15/11 Q1014
EGXS 140050Z AUTO 23005KT 9999 NCD 11/10 Q1009
KTNB 140050Z AUTO 29003KT 10SM CLR 15/11 A3006 RMK AO2 T01490106
KHOE 140050Z AUTO 00000KT 7SM CLR 25/23 A2993 RMK AO2 T02490234
LTAE 140050Z 02004KT CAVOK 10/05 Q1016 NOSIG RMK RWY21 05006KT
LTAP 140050Z 34002KT 9999 SCT040 BKN090 14/13 Q1014 NOSIG RMK RWY23 32003KT
KOLV 140050Z 00000KT 10SM CLR 24/14 A2997
KMGR 140050Z AUTO 00000KT 10SM CLR 23/18 A2995 RMK AO2
EGOP 140050Z AUTO 06007KT 9999 NCD 13/11 Q1008
EGDM 140050Z AUTO 05007KT 5000 -RA BKN004/// SCT073/// 15/14 Q1007
EGDR 140050Z AUTO 05011KT 9999 -RA BKN071/// SCT100/// 16/16 Q1005
EGDY 140050Z AUTO 01005KT 9999 BR OVC007/// 14/14 Q1007
EGOM 140050Z AUTO 26006KT 0150 FG BKN001/// 06/06 Q1009
EGOS 140050Z AUTO 25002KT 9999 NCD 09/09 Q1009
EGOV 140050Z AUTO 36006KT 9999 FEW016/// 11/09 Q1010
EGWU 140050Z AUTO 06005KT 9999 // OVC071/// 15/14 Q1008
EGUB 140050Z AUTO 36004KT 9000 -RA SCT009/// BKN060/// 14/14 Q1008
EGPI 140050Z AUTO 32006KT 9999 FEW014/// BKN021/// 10/10 Q1011 REDZ
EGPU 140050Z AUTO 32010KT 5000 -DZ FEW004/// BKN017/// 12/11 Q1011
EGQK 140050Z AUTO 23011KT 9999 BKN031/// 12/09 Q1008
EGUW 140050Z AUTO 03005KT 9999 FEW080/// OVC110/// 14/11 Q1008 REDZ
EGVO 140050Z AUTO 04005KT 6000 -RA BKN003/// OVC048/// 15/14 Q1008
EGVP 140050Z AUTO 04006KT 6000 -RA OVC049/// 15/14 Q1007
EGXE 140050Z AUTO 29002KT 9999 NCD 09/08 Q1009
EGXP 140050Z AUTO 16003KT 9999 // NCD 10/09 Q1009
EGXT 140050Z AUTO 04005KT 9999 OVC200/// 12/10 Q1009
EGXV 140050Z AUTO 28001KT //// // NCD 08/08 Q1009
EGXW 140050Z AUTO 17003KT 9999 NCD 12/10 Q1009
EGXZ 140050Z AUTO 12001KT 3600 NCD 09/08 Q1009
EGYD 140050Z AUTO 14002KT 9999 NCD 10/10 Q1009
EGYE 140050Z AUTO 14005KT //// VV/// ///// Q////
EGYH 140050Z AUTO 15003KT 9999 OVC240/// 10/10 Q1009
EGYM 140050Z AUTO 36005KT 9999 BKN200/// 11/10 Q1009
LGKO 140050Z 35012KT CAVOK 22/13 Q1010
LXGB 140050Z AUTO 24005KT 9999 FEW030/// OVC210/// 23/18 Q1012
KQEX 140050Z AUTO 31003KT 9999 CLR 25/13 A3000 RMK A02 TSNO
KQFW 140050Z AUTO 36003KT 4800 HZ SCT130 25/18 A2994 RMK A02 TSNO
KQEY 140050Z AUTO 11011G15KT 9999 FEW220 25/09 A2975 RMK A02 TSNO
KCZT 140050Z AUTO 10SM CLR 30/18 A2987 RMK AO2
KEAN 140050Z AUTO 16004KT 10SM CLR 26/M03 A2987 RMK AO2 T02571034
KHSG 140050Z AUTO 21008KT 10SM CLR 24/01 A2983 RMK AO2 T02400005
KADT 140050Z AUTO 14006KT 10SM CLR 28/M01 A2991 RMK AO2 T02791006
MUCL 140050Z AUTO 05006KT 010V120 27/24 Q1013
LIMF 140050Z 00000KT 9999 FEW120 20/16 Q1013
COR EBBR 140050Z 05006KT 9999 BKN012 16/14 Q1007 TEMPO 4000 RA SCT012
MSAC 140050Z 17004KT 9999 BKN027 28/23 Q1009 A2981
MSSA 140050Z 19005KT 9999 FEW030 FEW033CB 25/21 Q1017 A3000
LTFG 140050Z 12004KT 9999 SCT025 23/21 Q1007
K4V1 140050Z AUTO 25010KT 10SM CLR 25/03 A3003 RMK AO2 T02450029
KAJR 140050Z AUTO 00000KT 10SM CLR 21/13 A2999 RMK AO2 T02100130
KANE 140050Z 00000KT 10SM CLR 20/12 A2995
KANK 140050Z AUTO 21007G16KT 10SM SCT080 OVC090 A3024 RMK AO1
KBMC 140050Z AUTO 10SM BKN060 OVC065 21/10 A2990 RMK AO1 T02080102
KCQB 140050Z AUTO 16004KT 10SM CLR 27/15 A2990 RMK AO2 T02670154
KDVK 140050Z AUTO 00000KT 10SM CLR 16/13 A3002 RMK AO2
KDWX 140050Z AUTO 06009KT 320V070 10SM VCTSRA SCT032 SCT048 OVC060 M01/M05 A3012 RMK AO2 LTG DSNT N AND NW T10141052
ENJS 140050Z 31019KT 9999 FEW020 BKN050 13/09 Q1004 W15/S/
KH71 140050Z AUTO 12003KT 10SM CLR 23/13 A2992 RMK AO2
KHEQ 140050Z AUTO 10008KT 10SM CLR 26/01 A2988 RMK AO2
KMHP 140050Z AUTO 31005KT 10SM CLR 23/13 A2993 RMK AO2 T02290129
MMVA 140050Z 00000KT 5SM SCT017 BKN060 26/25 A2985 RMK 8/620 HZY
KMPZ 140050Z AUTO 09004KT 10SM CLR 18/15 A2998 RMK AO2
KMRC 140050Z AUTO 00000KT 10SM CLR 20/14 A2996 RMK A01
KMYZ 140050Z AUTO 00000KT 10SM CLR 26/16 A2988 RMK AO2
KO69 140050Z AUTO 30008G20KT 270V330 10SM SCT021 18/13 A2987 RMK A01
KPBX 140050Z AUTO 00000KT 10SM SCT060 18/13 A3002 RMK AO2 T01790130
KPPA 140050Z AUTO 17010KT 10SM CLR 26/13 A2995 RMK AO2 T02600129
KPVW 140050Z AUTO 16005KT 10SM CLR 24/10 A2998 RMK AO2 T02390101
KSLR 140050Z AUTO 12004KT 10SM CLR 25/12 A2997 RMK AO2 T02470117
KSUN 140050Z 00000KT 10SM SCT110 15/13 A2996
KTQK 140050Z AUTO 16007KT 7SM HZ CLR 26/06 A2988 RMK AO2 T02650057
KTXW 140050Z AUTO 10010KT 10SM CLR 29/22 A2987 RMK AO2 T02940218
KTZR 140050Z AUTO 00000KT 10SM 16/14 A2999 RMK AO2 T01550137
KUKL 140050Z AUTO 13006KT 10SM CLR 23/12 A2993 RMK AO2 T02290117
KULS 140050Z AUTO 16008KT 10SM CLR 30/02 A2985 RMK AO2
MUGM 140051Z 00000KT 10SM FEW030 SCT250 29/23 A2994 RMK AO2 SLP136 T02890233 $
PAMD 140051Z AUTO 19007KT 10SM OVC055 13/10 A2963 RMK AO2 SLP020 T01280100 PNO $
K6R6 140051Z AUTO 11010KT 28/17 A2993 RMK AO1 SLP103 T02780167
KALB 140051Z 25008KT 10SM FEW080 BKN100 17/13 A2978 RMK AO2 SLP085 T01720128
KBGD 140051Z AUTO 17012G23KT 10SM VCTS CLR 29/09 A2992 RMK AO2 SLP091 T02940089
KCSG 140051Z AUTO 00000KT 10SM CLR 24/14 A2996 RMK AO2 SLP140 T02390139
KHSE 140051Z AUTO 24006KT 10SM FEW055 26/24 A2988 RMK AO2 SLP118 T02610244
KLGA 140051Z 26012G19KT 10SM CLR 25/10 A2978 RMK AO2 PK WND 25026/2356 SLP084 T02500100
KORF 140051Z 26005KT 10SM CLR 26/14 A2987 RMK AO2 SLP116 T02560139
KJCT 140051Z AUTO 03010G14KT 10SM BKN070 27/19 A2994 RMK AO2 SLP104 T02670189
KHDO 140051Z AUTO 16008KT 10SM CLR 31/18 A2990 RMK AO2 SLP108 T03060178
KBAZ 140051Z AUTO 14008KT 10SM SCT065 27/17 A2989 RMK AO2 LTG DSNT W AND NW SLP114 T02720172
KPIT 140051Z 25006KT 10SM FEW036 SCT050 16/11 A2996 RMK AO2 SLP150 T01610111
KHTS 140051Z 10003KT 10SM FEW050 SCT060 17/13 A2999 RMK AO2 SLP152 T01670128
KMYL 140051Z AUTO 20005KT 10SM FEW110 18/10 A2990 RMK AO2 LTG DSNT W AND NW SLP088 T01780100
KBHK 140051Z AUTO 10012KT 10SM CLR 21/07 A2987 RMK AO2 SLP103 T02060072
KRDU 140051Z 01003KT 10SM SCT250 19/12 A2992 RMK AO2 SLP129 T01940122
KSNT 140051Z AUTO 27003KT 13/10 A3001 RMK AO1 SLP082 T01330100
KBDL 140051Z 02003KT 10SM FEW070 BKN085 21/19 A2975 RMK AO2 RAB2353E02 SLP072 P0000 T02110194 $
KIGM 140051Z AUTO 14016KT 10SM BKN100 23/16 A2990 RMK AO2 WSHFT 2356 LTG DSNT S SLP062 T02280156
KPHX 140051Z 28012G19KT 10SM SCT070 BKN180 BKN270 34/12 A2973 RMK AO2 LTG DSNT E SLP046 CB DSNT E AND SE SHRA DSNT E T03440117
KSAD 140051Z AUTO 11006KT 10SM FEW065 SCT080 SCT110 26/13 A2990 RMK AO2 LTG DSNT SW AND W SLP083 T02560128
KILG 140051Z 25005KT 10SM CLR 21/12 A2985 RMK AO2 SLP108 T02110117
KELP 140051Z 00000KT 10SM FEW080 FEW110 SCT250 28/12 A2994 RMK AO2 SLP071 CB DSNT SE AND NW TCU DSNT SW-W T02830122
KVCT 140051Z 16004KT 10SM FEW037 28/23 A2990 RMK AO2 SLP123 T02830228
KOCF 140051Z AUTO 11004KT 10SM CLR 24/23 A2995 RMK AO2 SLP140 T02440233 PNO $
KJFK 140051Z 27014KT 10SM FEW045 25/12 A2979 RMK AO2 SLP088 T02500117
KPWM 140051Z 14005KT 10SM OVC002 19/19 A2973 RMK AO2 SLP068 T01940194
PHBK 140051Z AUTO A2997 RMK AO2 SLP152 PWINO $
KSLK 140051Z AUTO 00000KT 10SM SCT012 BKN023 OVC038 14/14 A2977 RMK AO2 SLP078 T01440144
KBKW 140051Z AUTO 32003KT 10SM FEW050 14/11 A3004 RMK AO2 SLP159 T01440111 VISNO RWY19
KEKN 140051Z AUTO 00000KT 10SM OVC055 13/11 A3002 RMK AO2 SLP167 T01330111
KMPV 140051Z AUTO 16004KT 6SM RA BR FEW027 BKN070 OVC090 19/17 A2975 RMK AO2 SLP069 P0024 T01890167
KCON 140051Z AUTO VRB05KT 7SM VCTS -RA OVC009 21/19 A2972 RMK AO2 LTG DSNT N AND S AND SW RAB33 CIG 007V011 SLP064 P0000 T02060194
KOXC 140051Z 24003KT 5SM BR FEW040 BKN070 21/21 A2978 RMK AO2 SLP093 T02110206
KROW 140051Z 11005KT 10SM SCT110 24/14 A2998 RMK AO2 SLP098 T02390144
KPVD 140051Z 20009KT 5SM BR SCT016 OVC021 23/22 A2974 RMK AO2 SLP070 T02280217
KACT 140051Z 11007KT 10SM CLR 29/18 A2990 RMK AO2 SLP117 T02940178
KTPL 140051Z AUTO 14008KT 10SM CLR 29/18 A2991 RMK AO2 SLP118 T02890183
KSJT 140051Z 14013G20KT 10SM FEW085 30/14 A2990 RMK AO2 SLP104 T03000139
KSAT 140051Z 12016G24KT 10SM FEW060 SCT100 SCT250 28/19 A2991 RMK AO2 LTG DSNT N SLP108 CB DSNT N T02830189
KCRP 140051Z 13005KT 10SM FEW030 FEW130 FEW250 29/22 A2988 RMK AO2 SLP118 CB DSNT NW T02890222
KDAW 140051Z AUTO 13005KT 1SM BR VV002 21/20 A2971 RMK AO2 LTG DSNT W AND NW SLP057 T02060200
KTEB 140051Z 27008KT 10SM CLR 23/11 A2978 RMK AO2 SLP084 T02280111
KEWR 140051Z 27011KT 10SM FEW050 24/11 A2979 RMK AO2 SLP088 T02390106
KCLE 140051Z 21005KT 10SM FEW250 17/12 A2992 RMK AO2 SLP147 T01670117
KSTL 140051Z 08003KT 10SM BKN150 23/09 A2999 RMK AO2 SLP150 FU BKN150 T02280094
KYNG 140051Z 25003KT 10SM BKN055 16/13 A2995 RMK AO2 SLP139 T01560128
KBED 140051Z 16008KT 10SM BKN016 23/21 A2970 RMK AO2 LTG DSNT NW SLP067 T02330206
KAHN 140051Z AUTO 00000KT 10SM CLR 18/14 A2996 RMK AO2 SLP141 T01830144
KABE 140051Z AUTO 27004KT 10SM CLR 19/11 A2983 RMK AO2 SLP099 T01890111
KERI 140051Z 25007KT 10SM SCT029 SCT080 19/13 A2990 RMK AO2 SLP124 T01890128
KLGU 140051Z AUTO 13004KT 10SM CLR 18/14 A2990 RMK AO2 RAE09 SLP092 P0002 T01780139
KCMH 140051Z 00000KT 10SM SCT065 17/13 A2997 RMK AO2 SLP147 T01720128
KVNY 140051Z 16010KT 10SM CLR 28/11 A2981 RMK AO2 SLP084 T02780111
KSMX 140051Z 30014G21KT 10SM CLR 19/13 A2987 RMK AO2 SLP116 T01890133
KNYC 140051Z AUTO 27005KT 10SM CLR 23/12 A2982 RMK AO2 SLP087 T02330117 $
KAVX 140051Z AUTO 24006KT 10SM CLR 19/16 A2988 RMK AO2 SLP095 T01890161 $
KOXR 140051Z 28008KT 10SM CLR 22/17 A2981 RMK AO2 SLP095 T02170172
KSAN 140051Z 27007KT 10SM FEW010 23/17 A2985 RMK AO2 SLP107 T02330167
KSMO 140051Z 23006KT 10SM CLR 23/18 A2982 RMK AO2 SLP095 T02330183 $
KP59 140051Z AUTO 05012KT 16/ A2999 RMK AO1 SLP152 T0156 $
KORD 140051Z 31004KT 10SM FEW250 22/14 A2996 RMK AO2 SLP144 T02170139
KCAK 140051Z 23004KT 10SM CLR 16/12 A2996 RMK AO2 SLP142 T01610117
KXWA 140051Z AUTO 09016KT 10SM CLR 17/02 A2995 RMK AO2 PK WND 09026/0026 SLP151 T01670017
OIBB 140051Z 14004KT 3000 BR NSC 27/25 Q1002 A2960
KATT 140051Z AUTO 13008G15KT 10SM CLR 31/18 A2991 RMK AO2 SLP114 T03060178
KC99 140051Z AUTO 20007KT 10SM BKN080 OVC090 10/M03 A3036 RMK AO2 LTG DSNT W
MTPP 140051Z 11008KT 9000 FEW022CB 26/21 Q1012 A2990
OIAI 140051Z 15004KT CAVOK 29/03 Q1004
OITL 140051Z 30004KT CAVOK 10/05 Q1011
PKMR 140051Z 00000KT 12SM -SHRA SCT014 BKN050 OVC110 26/23 A2987 RMK SHRAB26 SLP117 T02590234
KSBD 140051Z 26010G16KT 7SM SCT047 28/15 A2982
KTOA 140051Z 27010KT 10SM FEW015 27/18 A2981
KP69 140052Z AUTO 00000KT 18/16 A2980 RMK AO1 SLP080 T01830161
KAQW 140052Z AUTO 26007KT 10SM SCT024 BKN070 BKN100 18/16 A2978 RMK AO2 SLP081 T01780156
KGLS 140052Z AUTO 13006KT 10SM CLR 27/19 A2993 RMK AO2 SLP134 T02670194
KATL 140052Z 30004KT 10SM FEW250 23/13 A2998 RMK AO2 SLP146 T02280128
KBIS 140052Z 08010G19KT 10SM CLR 19/08 A2996 RMK AO2 SLP145 T01940083
KBLF 140052Z AUTO 00000KT 10SM SCT038 13/11 A3005 RMK AO2 SLP160 T01330106
KBLU 140052Z AUTO 24005KT 4SM HZ BKN030 BKN036 16/03 A3001 RMK AO2 SLP093 T01610033
KCDJ 140052Z AUTO 00000KT 21/17 A2995 RMK AO1 SLP137 T02110167
KIAD 140052Z 32009KT 10SM BKN070 BKN200 22/12 A2990 RMK AO2 SLP122 T02170122
KNHK 140052Z 24005KT 10SM FEW065 FEW280 22/16 A2987 RMK AO2 SLP114 T02170161 $
KSPS 140052Z 14012KT 10SM FEW080 31/17 A2987 RMK AO2 SLP101 T03060172
KCLT 140052Z 00000KT 10SM FEW065 FEW250 21/14 A2994 RMK SLP133 T02060139
KNFW 140052Z 12011G18KT 10SM FEW250 30/18 A2990 RMK AO2 SLP109 T03000178 $
KREO 140052Z AUTO 18011KT 26/10 A2979 RMK AO1 SLP055 T02560100
KCVG 140052Z 29006KT 10SM BKN050 18/15 A2999 RMK AO2 SLP151 T01830150
KABQ 140052Z 25008G20KT 10SM VCTS SCT080CB BKN120 BKN250 22/09 A3005 RMK AO2 PK WND 26031/0001 LTG DSNT ALQDS SLP107 OCNL LTGIC VC S TS S MOV NE VCSH E-S-W T02170089
KSPI 140052Z 00000KT 10SM CLR 17/14 A2999 RMK AO2 SLP153 T01670139
KMLI 140052Z 00000KT 10SM CLR 16/13 A2998 RMK AO2 SLP151 T01610133
KRAP 140052Z 10007KT 7SM FU CLR 21/08 A2988 RMK AO2 SLP104 T02110083
KMDH 140052Z 00000KT 10SM CLR 16/13 A2998 RMK AO2 SLP152 T01610128
KABI 140052Z 15006KT 10SM CLR 30/11 A2991 RMK AO2 SLP100 T03000111
KMWH 140052Z 19006KT 3SM FU CLR 26/12 A2972 RMK AO2 SLP061 T02560122
KNFG 140052Z 20007KT 10SM FEW050 25/13 A2982 RMK AO2 SLP097 T02500133
KOKC 140052Z 15009KT 10SM FEW250 27/17 A2989 RMK AO2 SLP111 T02670167
KNZY 140052Z 30005KT 10SM FEW010 FEW050 23/18 A2983 RMK AO2 SLP100 T02280178
KHRL 140052Z 10007KT 10SM CLR 28/22 A2987 RMK AO2 SLP113 T02780217
KNRB 140052Z 19003KT 10SM FEW020 BKN220 26/24 A2992 RMK AO2 SLP132 T02610244
KHIE 140052Z AUTO 27006KT 9SM -RA FEW031 FEW090 OVC110 19/17 A2971 RMK AO2 SLP060 P0004 T01890167
KALS 140052Z AUTO 28014KT 10SM FEW120 14/08 A3019 RMK AO2 SLP165 T01390083
KAFN 140052Z AUTO 00000KT 10SM FEW009 BKN075 OVC110 20/18 A2975 RMK AO2 LTG DSNT NE AND E RAE18B42E51 SLP076 P0045 T02000183
KIJD 140052Z AUTO VRB03KT 10SM FEW010 22/21 A2974 RMK AO2 SLP067 T02220211
KBML 140052Z AUTO 17004KT 8SM OVC017 19/17 A2973 RMK AO2 RAB14E32 SLP066 P0000 T01890172
KTAN 140052Z AUTO A2973 RMK AO2 SLPNO PWINO TSNO $
KIOW 140052Z AUTO 00000KT 10SM CLR 18/12 A2998 RMK AO2 SLP153 T01780117
KN60 140052Z AUTO 08011G20KT 16/03 A2999 RMK AO1 SLP159 T01610033
KSGF 140052Z 18005KT 10SM CLR 21/13 A2998 RMK AO2 SLP144 T02110128
KOMA 140052Z 12009KT 10SM CLR 25/16 A2988 RMK AO2 SLP113 T02500156
KVTN 140052Z AUTO 07006KT 10SM CLR 24/05 A2988 RMK AO2 SLP111 T02390050 PWINO $
KDDC 140052Z AUTO 12008KT 10SM CLR 28/12 A2988 RMK AO2 SLP089 T02830117
KPWK 140052Z 00000KT 10SM CLR 21/14 A2998 RMK AO2 SLP150 T02060139
KMEB 140052Z AUTO 34003KT 10SM CLR 24/16 A2992 RMK AO2 SLP128 T02390156
KPYM 140052Z AUTO 20006KT 10SM OVC007 23/22 A2974 RMK AO2 CIG 004V011 SLP071 T02330222
KCQX 140052Z AUTO VRB03KT 10SM OVC007 21/19 A2976 RMK AO2 SLP080 T02060194
KFIT 140052Z AUTO 20005KT 6SM -RA BR FEW017 BKN039 OVC080 20/18 A2973 RMK AO2 LTG DSNT N RAB30 TSB29E44 SLP066 P0022 T02000178
KORE 140052Z AUTO 15003KT 10SM OVC065 20/19 A2976 RMK AO2 RAE40 TSE2357B2358E13 SLP074 P0001 T02000189
KMLF 140052Z AUTO 19012KT 10SM SCT037 SCT046 BKN070 19/12 A2995 RMK AO2 SLP090 T01940122
KTRM 140052Z AUTO 22004KT 10SM CLR 31/18 A2966 RMK AO2 SLP045 T03060183
KSUX 140052Z 10009KT 10SM CLR 23/15 A2988 RMK AO2 SLP117 T02330150
KEST 140052Z AUTO 11007KT 10SM CLR 17/12 A2996 RMK AO2 SLP145 T01670122
KCID 140052Z 11003KT 10SM CLR 18/12 A2997 RMK AO2 SLP149 T01830122
PATA 140052Z 13006KT 10SM BKN050 BKN110 17/M01 A2951 RMK AO2 SLP995 T01721011 $
KMFD 140052Z 22003KT 10SM CLR 15/12 A2997 RMK AO2 SLP149 T01500117
KTOL 140052Z 24004KT 10SM SCT055 19/15 A2994 RMK AO2 SLP138 T01890150
KBDR 140052Z 27013G19KT 10SM FEW060 24/17 A2975 RMK AO2 SLP074 T02440167
KDPA 140052Z 00000KT 10SM CLR 19/14 A2997 RMK AO2 SLP147 T01890139
KOKB 140052Z AUTO 20006KT 8SM CLR 24/17 A2982 RMK AO2 SLP096 T02390167
KBLH 140052Z AUTO 17009KT 10SM BKN090 OVC110 34/16 A2968 RMK AO2 RAE04 SLP045 P0000 T03390156 TSNO
KCNU 140052Z AUTO 16006KT 10SM CLR 26/09 A2993 RMK AO2 SLP127 T02560094
KHUT 140052Z 11006KT 10SM CLR 27/13 A2988 RMK AO2 SLP099 T02720133
KLWC 140052Z AUTO 12004KT 10SM CLR 22/16 A2990 RMK AO1 SLP122 T02170161
KMHK 140052Z 19003KT 10SM CLR 24/14 A2988 RMK AO2 SLP112 T02440144
KPPF 140052Z AUTO 17003KT 10SM CLR 27/10 A2995 RMK AO2 SLP135 T02670100
KCFV 140052Z AUTO 13005KT 10SM CLR 26/12 A2992 RMK AO2 SLP129 T02560117
KDCA 140052Z 29006KT 10SM OVC075 24/13 A2988 RMK AO2 SLP119 T02440128
KIEN 140052Z AUTO 08007KT 6SM HZ CLR 23/03 A2987 RMK AO2 SLP104 T02280033
KMKE 140052Z 00000KT 10SM CLR 21/11 A2995 RMK AO2 SLP139 T02060111
KMBG 140052Z AUTO 09014KT 10SM CLR 22/12 A2987 RMK AO2 SLP112 T02220117
KARR 140052Z 27004KT 10SM CLR 17/16 A2998 RMK AO2 SLP150 T01720156
KDVN 140052Z AUTO 07004KT 10SM CLR 14/13 A3000 RMK AO2 SLP156 T01440128
KCKV 140052Z AUTO 00000KT 10SM CLR 21/14 A2999 RMK AO2 SLP151 T02110144
KBKB 140052Z AUTO 00000KT 6SM HZ CLR 22/15 A2993 RMK AO2 SLP162 T02220150
OIIK 140052Z 03006KT CAVOK 19/01 Q1013
PTKK 140052Z 09007KT 15SM SCT013 BKN280 30/27 A2988 RMK MDT CU OHD SLP120 T03000267
PTPN 140052Z 31005KT 15SM SCT018 BKN300 31/26 A2990
TIST 140053Z 07005KT 10SM CLR 29/24 A2998 RMK AO2 SLP153 T02890244
TISX 140053Z AUTO 05006KT 10SM CLR 28/23 A2998 RMK AO2 SLP150 T02830228 TSNO $
KECP 140053Z 34007KT 10SM CLR 24/18 A2992 RMK AO1 SLP142 T02440178
KAEX 140053Z 06004KT 10SM CLR 23/14 A2994 RMK AO2 SLP141 T02330144
KBTR 140053Z 00000KT 10SM CLR 22/17 A2995 RMK AO2 SLP141 T02220172
KDTN 140053Z AUTO 05004KT 10SM CLR 24/13 A2997 RMK AO2 SLP145 T02390133
KESF 140053Z AUTO 00000KT 10SM CLR 19/17 A2995 RMK AO2 SLP142 T01940167
PAOR 140053Z 00000KT 10SM OVC100 12/05 A2953 RMK AO2 SLP008 T01220050
PAOM 140053Z 13009KT 10SM SCT030 BKN070 12/09 A2953 RMK AO2 SLP999 T01220094 $
PANC 140053Z 16009G14KT 10SM FEW019 SCT050 SCT075 BKN200 13/09 A2953 RMK AO2 SLP002 T01280089
PACD 140053Z 27017G24KT 5SM -RA BR FEW008 BKN030 OVC070 10/09 A2983 RMK AO2 SLP100 P0006 T01000089
PADQ 140053Z 32005KT 6SM -RA SCT018 BKN032 OVC095 12/09 A2959 RMK AO2 RAE17B52 SLP019 P0001 T01170089
PAQT 140053Z AUTO 07018G28KT 10SM OVC007 03/02 A2975 RMK AO2 PK WND 08028/0044 SLP076 T00330022 TSNO
PASO 140053Z AUTO 03003KT 4SM -RA BR BKN022 OVC028 11/11 A2957 RMK AO2 RAB2354E14B28 SLP012 P0004 T01110111 TSNO
PAVL 140053Z AUTO VRB04KT 10SM OVC055 12/08 A2960 RMK AO2 SLP023 T01220083 TSNO
PABT 140053Z 01003KT 10SM FEW040 FEW090 SCT210 16/05 A2957 RMK AO2 SLP022 T01560050
PAEG 140053Z AUTO 00000KT 10SM BKN110 17/05 A2953 RMK AO2 SLP005 T01670050 TSNO
KPBG 140053Z AUTO 23003KT 10SM -RA SCT050 BKN070 OVC095 18/17 A2971 RMK AO2 RAB27 SLP060 P0002 T01780167
KDEN 140053Z 15012G21KT 10SM SCT160 BKN220 26/M03 A2994 RMK AO2 PK WND 15026/2357 SLP067 T02611033
KFST 140053Z AUTO 16010KT 10SM CLR 27/15 A2995 RMK AO2 SLP098 T02720150
KGGG 140053Z 11006KT 10SM CLR 22/14 A2995 RMK AO2 SLP139 T02170144
KGVL 140053Z AUTO 30004KT 10SM CLR 20/14 A3000 RMK AO2 SLP148 T02000139
KHLN 140053Z 25010KT 5SM HZ BKN100 OVC120 20/08 A2988 RMK AO2 RAE10 SLP110 P0000 T02000078
KMIA 140053Z 30009G17KT 10SM VCTS BKN028CB BKN120 OVC250 26/23 A2995 RMK AO2 LTG DSNT ALQDS TSE31 SLP141 CONS LTGIC DSNT SW-NW TS MOV NW CB OHD AND DSNT SW-NW MOV NW T02610228 $
KP68 140053Z AUTO 21003KT 14/10 A2998 RMK AO1 SLP094 T01390100
PABI 140053Z 12004KT 10SM SCT065 BKN080 OVC120 15/04 A2951 RMK AO2 SLP996 SHRA DSNT NE-S OCNL WATERFOWL VC T01500044
PACV 140053Z 00000KT 10SM BKN005 OVC011 11/11 A2965 RMK AO2 SLP040 T01110106
PAWD 140053Z AUTO 18010KT 10SM FEW037 BKN045 OVC055 11/09 A2957 RMK AO2 SLP014 T01060089 TSNO
KALW 140053Z 16004KT 6SM HZ FU CLR 23/10 A2974 RMK AO2 SLP068 T02280100
KAOH 140053Z AUTO 24006KT 10SM FEW037 OVC060 18/14 A2998 RMK AO2 SLP150 T01780144
KARB 140053Z 25004KT 10SM FEW042 15/13 A2993 RMK AO2 SLP133 T01500128
KASE 140053Z 27004KT 10SM FEW047 FEW075 SCT120 13/09 A3018 RMK AO2 RAE45 SLP133 P0000 T01330089
KAWM 140053Z AUTO 00000KT 10SM CLR 23/15 A2995 RMK AO2 SLP139 T02280150
KBGM 140053Z 29003KT 10SM FEW060 13/12 A2987 RMK AO2 SLP111 T01280122
KBKE 140053Z AUTO 19004KT 10SM FEW100 18/12 A2984 RMK AO2 LTG DSNT E TSE2355 SLP090 T01780122
KBNO 140053Z AUTO 31005KT 8SM CLR 26/07 A2980 RMK AO2 SLP054 T02610067
KBOI 140053Z 15010KT 10SM CLR 24/11 A2979 RMK AO2 SLP063 T02390106
KBTM 140053Z AUTO 28006KT 4SM HZ OVC065 14/09 A2999 RMK AO2 RAE28 SLP128 P0001 T01390094
KBUR 140053Z 19008KT 10SM CLR 27/13 A2982 RMK AO2 SLP083 T02720128
KBWG 140053Z AUTO 00000KT 10SM CLR 21/15 A3000 RMK AO2 SLP155 T02110150
KCDW 140053Z 00000KT 10SM CLR 21/12 A2981 RMK AO2 SLP098 T02110117
KCHO 140053Z 00000KT 10SM CLR 19/15 A2991 RMK AO2 SLP123 T01890150
KCRE 140053Z AUTO 27003KT 10SM CLR 26/23 A2989 RMK AO1 SLP121 T02610233
KCSM 140053Z 17009KT 10SM CLR 28/16 A2989 RMK AO2 SLP098 T02830161
KCUB 140053Z AUTO 00000KT 10SM CLR 22/14 A2992 RMK AO2 SLP130 T02220144
KDBQ 140053Z 00000KT 10SM CLR 18/15 A2999 RMK AO2 SLP155 T01780150
KDFW 140053Z 12009KT 10SM CLR 28/13 A2990 RMK AO2 SLP118 T02780128
KDHT 140053Z AUTO 22007KT 10SM FEW100 28/08 A2994 RMK AO2 SLP090 T02780083
KDNL 140053Z AUTO 32003KT 10SM CLR 23/12 A2994 RMK AO2 SLP135 T02330122
KDRA 140053Z AUTO 24009KT 10SM CLR 28/12 A2982 RMK AO2 SLP055 T02780122
KFDR 140053Z AUTO 15007KT 10SM CLR 29/15 A2984 RMK AO2 SLP088 T02940150
KFFC 140053Z AUTO 00000KT 10SM CLR 18/16 A2998 RMK AO2 SLP150 T01830156
KFFT 140053Z AUTO 00000KT 10SM OVC048 18/16 A3000 RMK AO2 SLP153 T01830161
KFPR 140053Z AUTO 31010G23KT 1SM +TSRA BR FEW010 BKN019 OVC028 23/21 A2998 RMK AO2 PK WND 22026/0014 WSHFT 0014 LTG DSNT ALQDS RAB30 SLP151 P0052 T02280211
KGEG 140053Z 20007KT 3SM FU FEW200 BKN250 25/07 A2977 RMK AO2 SFC VIS 4 SLP067 T02500067
KGIF 140053Z AUTO A2995 RMK AO2 TSB14E51 SLPNO PWINO
KGKY 140053Z 10008KT 10SM CLR 28/14 A2991 RMK AO2 SLP119 T02830139
KGTF 140053Z 12003KT 9SM OVC110 21/05 A2984 RMK AO2 SLP089 T02110050 $
KHKY 140053Z AUTO 00000KT 10SM SCT060 21/15 A2997 RMK AO2 SLP130 T02110150
KHSV 140053Z 00000KT 10SM FEW065 21/16 A2997 RMK AO2 SLP145 T02060161
KIML 140053Z AUTO 11005KT 10SM CLR 25/05 A2986 RMK AO2 SLP091 T02500050
KITR 140053Z AUTO 14009KT 10SM CLR 27/M01 A2992 RMK AO2 SLP086 T02671011 $
KLBB 140053Z 16008KT 10SM FEW080 SCT250 28/11 A2996 RMK AO2 SLP097 T02780106
KLFK 140053Z AUTO 06004KT 10SM CLR 24/14 A2994 RMK AO2 SLP136 T02440139
KMCI 140053Z 17006KT 10SM CLR 24/16 A2992 RMK AO2 SLP123 T02390156
KMCW 140053Z AUTO 13005KT 10SM CLR 16/12 A2999 RMK AO2 SLP153 T01610122
KOGB 140053Z AUTO 31004KT 10SM CLR 23/16 A2992 RMK AO2 SLP128 T02330156
KPDK 140053Z 34003KT 10SM CLR 20/13 A2998 RMK AO2 SLP143 T02000128
KRQE 140053Z AUTO VRB06KT 10SM FEW070 SCT100 18/07 A3012 RMK AO2 LTG DSNT SW SLP093 T01780067
KSFB 140053Z 10005KT 10SM CLR 26/24 A2994 RMK AO2 SLP137 T02610239
KSNY 140053Z AUTO 12009KT 10SM CLR 26/M02 A2989 RMK AO2 SLP085 T02611017
KVGT 140053Z 12013KT 10SM OVC085 31/13 A2974 RMK AO2 LTG DSNT N RAE07 SLP062 P0000 T03060128
KVRB 140053Z AUTO 33007KT 6SM -TSRA BR SCT039 BKN080 OVC095 23/22 A2996 RMK AO2 PK WND 33032/0006 LTG DSNT ALQDS RAB27 TSB45 SLP145 P0003 T02280222
KMTH 140053Z AUTO 28004KT 10SM CLR 28/23 A2992 RMK AO2 LTG DSNT NW-NE SLP131 T02780228
KRNT 140053Z 35004KT 10SM FU FEW080 OVC090 21/12 A2985 RMK AO2 SLP112 T02110117
PAAQ 140053Z VRB04KT 10SM -RA OVC050 10/07 A2954 RMK AO2 RAB21 SLP007 P0000 T01000072
PABE 140053Z 03007KT 10SM BKN029 BKN044 OVC048 13/07 A2949 RMK AO2 SLP985 T01330067
PADE 140053Z AUTO 05009KT 10SM CLR 13/08 A2954 RMK AO2 SLP003 T01280083 TSNO
PAMR 140053Z 28005KT 10SM BKN050 15/07 A2953 RMK AO2 SLP001 T01500072
KPIE 140053Z 00000KT CLR 27/25 A2992 RMK AO2 SLP132 T02670250
KNEW 140053Z 04012KT 10SM CLR 27/16 A2995 RMK AO2 SLP134 T02670156
PASN 140053Z AUTO 26018G25KT 10SM BKN013 11/08 A2983 RMK AO2 PK WND 27026/0037 SLP102 T01110083 TSNO
PHJR 140053Z VRB06KT 10SM OVC080 31/18 A3000 RMK AO2 SLP164 T03060183
PAHO 140053Z 25006KT 10SM OVC050 12/08 A2957 RMK AO2 SLP013 T01170083
KLMT 140053Z 28010KT 10SM CLR 25/02 A2983 RMK AO2 SLP067 T02500022
KALI 140053Z AUTO 13006KT 10SM CLR 28/21 A2988 RMK AO2 SLP117 T02780206
KAMA 140053Z 19013KT 10SM CLR 28/11 A2995 RMK AO2 LTG DSNT N SLP090 T02780106
KCDS 140053Z AUTO 18007KT 10SM CLR 29/09 A2989 RMK AO2 SLP099 T02890094
KDAL 140053Z 12007KT 10SM CLR 28/14 A2991 RMK AO2 SLP122 T02830144
KDRT 140053Z AUTO 12007KT 10SM CLR 30/18 A2987 RMK AO2 SLP104 T03000178
KFTW 140053Z 11009KT 10SM CLR 29/18 A2989 RMK AO2 SLP115 T02890178
KMWL 140053Z AUTO 12004KT 10SM CLR 28/17 A2989 RMK AO2 SLP108 T02830172
KBPT 140053Z 04006KT 10SM CLR 26/15 A2992 RMK AO2 SLP131 T02610150
KPSX 140053Z AUTO 14006KT 10SM CLR 27/23 A2990 RMK AO2 SLP124 T02670228
KHOU 140053Z 11006KT 10SM FEW250 28/18 A2991 RMK AO2 SLP133 T02830178
KMAF 140053Z 17012KT 8SM CLR 29/12 A2993 RMK AO2 SLP092 T02940122
KCOT 140053Z AUTO 14013KT 10SM CLR 31/19 A2988 RMK AO2 SLP110 T03060194 $
KMFR 140053Z 28010KT 10SM CLR 26/08 A2979 RMK AO2 SLP080 T02560083
KCLL 140053Z 08003KT 10SM CLR 30/17 A2990 RMK AO2 SLP122 T03000172
KIAH 140053Z 10007KT 10SM FEW065 FEW250 27/18 A2991
KRBD 140053Z 11008KT 10SM CLR 27/14 A2991 RMK AO2 SLP123 T02720144
KCRS 140053Z AUTO 09006KT 10SM CLR 26/13 A2993 RMK AO2 SLP132 T02610133
KTKI 140053Z 14007KT 10SM CLR 26/14 A2993 RMK AO2 SLP133 T02610144
KLVJ 140053Z AUTO 17003KT 10SM CLR 27/21 A2993 RMK AO2 SLP133 T02720206
KAFW 140053Z 11009KT 10SM CLR 29/15 A2989 RMK SLPNO
KBMQ 140053Z AUTO 14005KT 10SM CLR 29/17 A2994 RMK AO2 SLP122 T02890172 $
KCXO 140053Z 00000KT 10SM CLR 23/18 A2993 RMK AO2 SLP131 T02280183
KDTO 140053Z 13007KT 10SM CLR 28/16 A2991 RMK AO2 SLP122 T02830156
KDWH 140053Z 10005KT 10SM CLR 28/18 A2991 RMK AO2 SLP127 T02780178
KLBX 140053Z AUTO 13003KT 10SM CLR 26/21 A2992 RMK AO2 SLP131 T02610206
KMFE 140053Z 09010KT 10SM CLR 30/21 A2987 RMK AO2 SLP112 T03000206
KRKP 140053Z AUTO 13005KT 10SM CLR 28/23 A2989 RMK AO2 SLP123 T02830233
KSGR 140053Z 15008KT 10SM CLR 28/21 A2991 RMK AO2 SLP129 T02780206
KSSF 140053Z 13008KT 10SM FEW050 FEW065 FEW090 28/20 A2988 RMK AO2 SLP106 T02830200
KODO 140053Z AUTO 18012KT 10SM CLR 29/13 A2994 RMK AO2 SLP094 T02940133
KFTY 140053Z 00000KT 10SM CLR 21/13 A2997 RMK AO2 SLP144 T02060133
KUNV 140053Z 28006KT 10SM BKN080 16/11 A2992
KCHA 140053Z 00000KT 10SM FEW060 22/16 A2998 RMK AO2 SLP146 T02220156 $
KSEG 140053Z AUTO 00000KT 10SM CLR 18/12 A2988 RMK AO2 SLP117 T01780122
KGKJ 140053Z AUTO 23004KT 10SM SCT024 15/13 A2993 RMK AO2 SLP134 T01500128
KGUP 140053Z AUTO 32003KT 10SM FEW085 OVC110 14/12 A3011 RMK AO2 LTG DSNT SW RAE34 SLP092 P0002 T01440122
KCKB 140053Z 29003KT 10SM OVC055 18/12 A3000 RMK AO2 SLP148 T01830117 $
KHLG 140053Z 23003KT 10SM CLR 14/11 A2999 RMK AO2 SLP155 T01440106
KPKB 140053Z 00000KT 10SM CLR 14/12 A3000 RMK AO2 SLP156 T01390122 $
KCQC 140053Z AUTO 16009KT 10SM 16/09 A3016 RMK AO2 SLP144 T01560094
KMGW 140053Z 23003KT 10SM CLR 17/12 A3000 RMK AO2 SLP154 T01670117
KMBS 140053Z 23004KT 10SM CLR 18/16 A2991 RMK AO2 SLP129 T01830156
KLPR 140053Z AUTO 24005KT 10SM CLR 14/11 A2995 RMK AO2 SLP142 T01440111
KMNN 140053Z AUTO 23004KT 9SM CLR 16/12 A2998 RMK AO2 SLP151 T01610117
KCNM 140053Z AUTO 21010KT 10SM CLR 23/16 A2994 RMK AO2 SLP095 T02280156
KLVS 140053Z AUTO 16013G24KT 10SM OVC085 16/09 A3015 RMK AO2 SLP133 T01610089
KDMN 140053Z AUTO 27031G46KT 8SM VCTS -RA FEW060 SCT080 BKN110 21/13 A3002 RMK AO2 PK WND 28046/0053 LTG DSNT S AND SW RAB34 SLP107 P0000 T02060128
KFMN 140053Z 05003KT 10SM FEW070 SCT095 BKN120 22/09 A2999 RMK AO2 LTG DSNT S AND W RAB43E53 SLP106 P0000 T02170094
KCMX 140053Z AUTO 03004KT 10SM BKN032 14/10 A3000 RMK AO2 SLP161 T01390100
KBIV 140053Z AUTO VRB03KT 10SM CLR 18/16 A2996 RMK AO2 SLP143 T01780156
KBTL 140053Z 29007KT 10SM FEW018 SCT050 19/17 A2996 RMK AO2 SLP142 T01940167 $
KDET 140053Z 30004KT 10SM CLR 22/12 A2992 RMK AO2 SLP129 T02170117
KFNT 140053Z 26004KT 10SM CLR 17/14 A2992 RMK AO2 SLP130 T01720144
KTVC 140053Z 00000KT 10SM FEW250 17/15 A2991 RMK AO2 SLP127 T01720150
KYIP 140053Z 25005KT 10SM CLR 18/13 A2993 RMK AO2 SLP132 T01830128
KDTW 140053Z 27006KT 10SM FEW060 19/12 A2993 RMK AO2 SLP132 T01940122
KGRR 140053Z 28007KT 10SM FEW050 19/17 A2994 RMK AO2 SLP139 T01940167 $
KGLR 140053Z AUTO 26003KT 10SM CLR 18/14 A2992 RMK AO2 SLP132 T01780144
KMCK 140053Z AUTO 13008KT 10SM CLR 29/03 A2984 RMK AO2 SLP086 T02890033
KPTK 140053Z 28003KT 10SM FEW040 18/13 A2992 RMK AO2 SLP130 T01830133
KGSH 140053Z AUTO 28005KT 10SM SCT020 17/16 A2998 RMK AO2 SLP150 T01720161
KCDR 140053Z AUTO 10008KT 6SM HZ CLR 28/02 A2984 RMK AO2 SLP090 T02780017
KCUT 140053Z AUTO 07007KT 6SM HZ CLR 19/03 A3001 RMK AO2 SLP113 T01890033
KGGW 140053Z AUTO 11021G34KT 10SM CLR 22/05 A2982 RMK AO2 PK WND 12034/0050 SLP096 T02220050
KBRO 140053Z 07008KT 10SM CLR 29/22 A2987 RMK AO2 SLP113 T02890222
KINK 140053Z AUTO 28006KT 10SM SCT090 SCT110 27/14 A2991 RMK AO2 SLP088 T02670144 $
KHIO 140053Z 31008KT 10SM OVC070 21/10 A2986 RMK AO2 SLP108 T02060100
KEET 140053Z AUTO 00000KT 10SM CLR 20/17 A2998 RMK AO2 SLP148 T02000172
KCAG 140053Z AUTO 19007KT 10SM FEW060 OVC090 18/08 A3007 RMK AO2 RAE00 SLP145 P0000 T01780078
KAPA 140053Z 16010KT 10SM FEW100 SCT140 BKN220 24/M03 A2997 RMK AO2 SLP089 T02441033
KLKV 140053Z AUTO 19010KT 10SM CLR 24/M02 A2986 RMK AO2 SLP083 T02441017
KUAO 140053Z 33006KT 10SM FEW045 OVC075 21/11 A2986 RMK AO2 SLP112 T02110106
KLVM 140053Z AUTO 21008KT 10SM OVC120 24/01 A2983 RMK AO2 SLP065 T02390011
KMMV 140053Z AUTO 35004KT 10SM FEW050 OVC075 21/11 A2985 RMK AO2 SLP108 T02110106
KLAA 140053Z AUTO 15009KT 10SM CLR 30/03 A2986 RMK AO2 SLP070 T03000033
KHRI 140053Z AUTO 00000KT 4SM HZ CLR 26/11 A2972 RMK AO2 SLP060 T02610106
KSPB 140053Z AUTO VRB04KT 10SM OVC075 21/12 A2985 RMK AO2 SLP108 T02110117
KGSP 140053Z 00000KT 10SM CLR 20/14 A2996 RMK AO2 SLP137 T02000144
KBFI 140053Z 30004KT 10SM FU FEW075 OVC090 20/12 A2985 RMK AO2 SLP109 T02000122
KCLM 140053Z AUTO 32003KT 10SM OVC065 18/12 A2988 RMK AO2 SLP119 T01780122
KBLI 140053Z 22003KT 10SM BKN070 18/15 A2986 RMK AO2 SLP117 T01780150
KDEW 140053Z AUTO 16005KT 5SM HZ CLR 26/08 A2976 RMK AO2 SLP073 T02560083
KELN 140053Z AUTO 31020G31KT 10SM CLR 21/12 A2976 RMK AO2 PK WND 31031/0049 LTG DSNT NW SLP072 T02060117
KEPH 140053Z AUTO 18007KT 4SM HZ CLR 24/11 A2972 RMK AO2 SLP057 T02440106
KFHR 140053Z AUTO 23005KT 10SM FEW080 19/11 A2987 RMK AO2 SLP114 T01890111
KHQM 140053Z AUTO 28007KT 10SM SCT008 OVC075 17/14 A2989 RMK AO2 SLP126 T01670139
KOMK 140053Z AUTO 36005KT 6SM HZ FEW110 26/12 A2972 RMK AO2 LTG DSNT E SLP058 T02610117
KPAE 140053Z 33005KT 10SM OVC065 19/11 A2988 RMK AO2 SLP116 T01890111
KPSC 140053Z 13006KT 4SM FU FEW120 26/13 A2971 RMK AO2 SLP059 T02560128
KPUW 140053Z AUTO 10003KT 2 1/2SM R05/4500VP6000FT HZ BKN017 24/07 A2980 RMK AO2 SLP082 T02390072
KSEA 140053Z 29004KT 10SM FEW025 SCT055 OVC085 19/11 A2986 RMK AO2 SLP117 T01890111
KSFF 140053Z VRB04KT 4SM HZ FU CLR 27/07 A2975 RMK AO2 SLP063 T02670072
KSHN 140053Z AUTO 25006KT 10SM OVC080 21/11 A2984 RMK AO2 SLP103 T02060111
KTIW 140053Z 00000KT 10SM FU OVC080 20/10 A2986 RMK AO2 SLP108 T02000100
KUIL 140053Z AUTO 32005KT 10SM OVC075 18/12 A2988 RMK AO2 SLP118 T01830122
KVUO 140053Z AUTO 31006KT 10SM OVC075 22/07 A2986 RMK AO2 SLP111 T02170072
KYKM 140053Z AUTO 15006KT 4SM HZ CLR 26/12 A2972 RMK AO2 SLP059 T02560122
KORL 140053Z 09005KT 10SM FEW065 28/23 A2994 RMK AO2 SLP142 T02780228 $
KFLL 140053Z 12008KT 10SM VCTS FEW027 SCT039 BKN060 30/24 A2992 RMK AO2 LTG DSNT SW-NW TSE51 SLP131 CONS LTGICCCCA DSNT SW-NW CB DSNT SW-NW MOV LTL T03000239
KDTS 140053Z 01007KT 10SM CLR 27/15 A2993 RMK AO2 SLP133 T02720150
KBPK 140053Z AUTO 00000KT 10SM CLR 20/14 A2998 RMK AO2 SLP146 T02000139
KJBR 140053Z AUTO 00000KT 10SM CLR 23/13 A2997 RMK AO2 SLP145 T02330128 $
KDEQ 140053Z AUTO 17004KT 10SM CLR 25/12 A2994 RMK AO2 SLP135 T02500117
KMMK 140053Z AUTO 00000KT 10SM FEW047 BKN065 23/19 A2974 RMK AO2 SLP071 T02280194
KHRO 140053Z AUTO 00000KT 10SM CLR 21/12 A3001 RMK AO2 SLP152 T02060122
KRIL 140053Z AUTO 09005KT 10SM FEW080 OVC100 19/09 A3005 RMK AO2 SLP131 T01890094
KPBI 140053Z 00000KT 10SM SCT030 SCT085 BKN250 28/23 A2994 RMK AO2 LTG DSNT SW SLP137 FRQ LTGIC DSNT NE-SE AND DSNT SW-N T02780233
PATK 140053Z AUTO 22003KT 10SM -RA OVC070 11/09 A2952 RMK AO2 SLP999 P0000 T01110089 TSNO
KSHR 140053Z AUTO 16004KT 10SM CLR 25/07 A2975 RMK AO2 SLP046 T02500067
KTPA 140053Z 33003KT 10SM FEW030 FEW250 28/23 A2993 RMK AO2 SLP134 T02830233 $
KNSI 140053Z AUTO 32015KT 10SM CLR 19/15 A2984 RMK AO2 SLP099 T01940150 $
KMYV 140053Z AUTO 15012G19KT 10SM CLR 27/09 A2977 RMK AO2 SLP083 T02720089
KSMF 140053Z 17013KT 10SM CLR 26/10 A2977 RMK AO2 SLP080 T02560100
KCRQ 140053Z 21007KT 10SM CLR 23/16 A2983 RMK AO2 SLP097 T02280156
KTOI 140053Z AUTO 00000KT 10SM CLR 19/16 A2997 RMK AO2 SLP145 T01940161
KDHN 140053Z 03003KT 10SM CLR 19/18 A2998 RMK AO2 SLP149 T01890178 $
KBYI 140053Z AUTO 17006KT 10SM FEW075 SCT090 OVC110 16/14 A2990 RMK AO2 RAB2359E51 SLP097 P0001 T01610139
KIDA 140053Z 22005KT 10SM -RA OVC085 18/12 A2993 RMK AO2 SLP102 P0000 T01780122
KMLP 140053Z AUTO VRB03KT 2 1/2SM HZ SCT033 14/01 A2996 RMK AO2 SLP060 T01440006
KPIH 140053Z 00000KT 10SM FEW025 BKN065 18/15 A2992 RMK AO2 LTG DSNT SE SLP098 T01780150
KIAG 140053Z 24008KT 10SM CLR 17/13 A2985 RMK AO2 SLP107 T01720133 $
KPOU 140053Z 29003KT 10SM FEW043 SCT065 22/18 A2976 RMK AO2 SLP074 T02220178
KTWF 140053Z 12005KT 10SM CLR 18/12 A2989 RMK AO2 SLP076 T01830117
KBIL 140053Z 02007KT 9SM FEW130 SCT200 27/03 A2975 RMK AO2 SLP047 T02670033
KCRG 140053Z 00000KT 10SM CLR 26/24 A2992 RMK AO2 SLP133 T02610244 $
KMLS 140053Z AUTO 09014KT 10SM CLR 25/06 A2976 RMK AO2 SLP066 T02500061
KGAG 140053Z AUTO 15011KT 10SM CLR 30/14 A2987 RMK AO2 SLP087 T03000144
KJER 140053Z AUTO 12006KT 10SM CLR 17/13 A2989 RMK AO2 SLP090 T01720133
KRXE 140053Z AUTO 28007KT 10SM OVC060 19/08 A2992 RMK AO2 SLP104 T01940083
KDCU 140053Z AUTO 00000KT 10SM CLR 19/16 A2998 RMK AO2 SLP147 T01940161
KGOK 140053Z AUTO 14005KT 10SM 28/16 A2988 RMK AO2 SLP111 T02780161 $
KGUY 140053Z AUTO 16006KT 10SM CLR 29/07 A2987 RMK AO2 SLP072 T02940072
KGZH 140053Z AUTO 00000KT 10SM CLR 18/16 A2997 RMK AO2 SLP146 T01830161
KHFD 140053Z 31005KT 10SM BKN044 BKN060 OVC070 23/19 A2974 RMK AO2 RAB21E48 SLP071 P0012 T02330194
KLAW 140053Z AUTO 14010KT 10SM CLR 30/18 A2987 RMK AO2 SLP105 T03000178
KPWA 140053Z 16010KT 10SM CLR 29/16 A2989 RMK AO2 SLP106 T02890161
KDXR 140053Z 25007KT 10SM CLR 23/16 A2978 RMK AO2 SLP081 T02280161
KBGR 140053Z 15006KT 5SM BR OVC004 19/19 A2976 RMK AO2 SLP076 T01890189
KFVE 140053Z AUTO 14007KT 10SM FEW023 SCT080 OVC100 20/17 A2977 RMK AO2 SLP075 T02000172
KHUL 140053Z AUTO 00000KT 10SM BKN100 OVC110 19/18 A2976 RMK AO2 SLP078 T01940178
KIWI 140053Z AUTO 00000KT 4SM BR OVC002 19/18 A2976 RMK AO2 SLP076 T01940183
KLOL 140053Z AUTO 00000KT 10SM CLR 26/10 A2981 RMK AO2 SLP054 T02610100 $
KMLT 140053Z AUTO 12003KT 9SM BKN013 OVC030 19/19 A2977 RMK AO2 SLP085 T01940189
KCEW 140053Z AUTO 02003KT 10SM CLR 19/18 A2996 RMK AO2 SLP142 T01940178
KAUG 140053Z AUTO 14008KT 10SM OVC003 20/19 A2975 RMK AO2 SLP073 T02000189
KOXB 140053Z AUTO 31004KT 10SM CLR 20/19 A2986 RMK AO2 SLP112 T02000189
KPDX 140053Z 32006KT 10SM OVC075 22/11 A2985 RMK AO2 SLP108 T02220111
KTTD 140053Z VRB03KT 10SM OVC070 22/10 A2984 RMK AO2 SLP105 T02220100
KABY 140053Z AUTO 33003KT 10SM CLR 21/16 A2995 RMK AO2 SLP142 T02060161
KDVT 140053Z 26007KT 10SM CLR 32/12 A2977 RMK AO2 LTG DSNT SE SLP058 T03220122
KELD 140053Z AUTO 00000KT 10SM CLR 19/17 A2998 RMK AO2 SLP149 T01940167
KLIT 140053Z 18003KT 10SM CLR 24/14 A2996 RMK AO2 SLP147 T02390139
KMRB 140053Z 30008KT 10SM CLR 20/11 A2991 RMK AO2 SLP125 T02000106
KPBF 140053Z AUTO 00000KT 10SM CLR 24/14 A2997 RMK AO2 SLP146 T02390144
KPGA 140053Z AUTO 12006KT 10SM SCT110 21/13 A2997 RMK AO2 SLP097 T02110133
KSSI 140053Z AUTO 00000KT 10SM CLR 27/23 A2992 RMK AO2 SLP131 T02670233
KTUS 140053Z 01006KT 10SM FEW100 31/15 A2986 RMK AO2 SLP068 T03060150
KTXK 140053Z 15004KT 10SM CLR 24/15 A2997 RMK AO2 SLP144 T02390150
KVLD 140053Z 21003KT 10SM BKN048 BKN055 26/23 A2992 RMK AO2 SLP139 T02610233
KPRC 140053Z 16003KT 3SM RA BR FEW065 BKN075 OVC095 14/14 A3005 RMK AO2 TSE50 SLP117 P0015 T01440139
KDRO 140053Z AUTO 24010KT 10SM SCT070 21/06 A3009 RMK AO2 SLP125 T02060061
KLHX 140053Z AUTO 14006KT 10SM CLR 27/04 A2988 RMK AO2 SLP069 T02720044
KNRS 140053Z 29005KT 10SM FEW005 FEW020 22/18 A2984 RMK AO2 SLP105 T02220183
KDAN 140053Z AUTO 00000KT 10SM CLR 17/15 A2993 RMK AO2 SLP126 T01720150
KHKS 140053Z 00000KT 10SM CLR 22/16 A2998 RMK AO2 SLP147 T02170156
KPIL 140053Z AUTO 09007KT 10SM CLR 28/22 A2987 RMK AO2 SLP115 T02830217
KTYR 140053Z 09006KT 10SM CLR 26/13 A2995 RMK AO2 SLP135 T02610128
KUTS 140053Z AUTO 00000KT 10SM CLR 27/17 A2993 RMK AO2 SLP129 T02670167
KTRL 140053Z AUTO 10005KT 10SM CLR 27/13 A2993 RMK AO2 SLP130 T02670133 $
KMAI 140053Z AUTO 02003KT 10SM CLR 23/17 A2993 RMK AO1 SLP135 T02280167
PHNL 140053Z 08014G20KT 10SM FEW024 SCT041 BKN075 31/20 A2999 RMK AO2 SLP154 T03110200
KASD 140053Z AUTO 00000KT 10SM CLR 22/18 A2995 RMK AO2 SLP141 T02220183
KBAF 140053Z 00000KT 10SM FEW020 FEW080 19/18 A2975 RMK AO2 SLP074 T01940183
KFYV 140053Z 00000KT 10SM CLR 19/14 A2999 RMK AO2 SLP148 T01940144
KMLB 140053Z 00000KT 6SM -RA BR BKN110 23/23 A2993 RMK AO2 LTG DSNT E AND SE TSE02B06E21 SLP135 P0006 T02330228
KOWD 140053Z 19003KT 10SM BKN009 OVC014 23/22 A2973 RMK AO2 CIG 007V012 SLP068 T02330222
PHTO 140053Z 05009KT 10SM SCT040 29/22 A2999 RMK AO2 SLP152 T02890222
KRVS 140053Z 00000KT 10SM CLR 23/14 A2990 RMK AO2 SLP131 T02330144
KTUL 140053Z 12004KT 10SM CLR 27/11 A2990 RMK AO2 SLP118 T02670111
KILM 140053Z 22005KT 10SM CLR 26/22 A2989 RMK AO2 SLP121 T02610222
KFAY 140053Z 34004KT 10SM CLR 24/17 A2991 RMK AO2 SLP120 T02390167
KRBG 140053Z AUTO 32009KT 10SM SCT060 22/11 A2985 RMK AO2 SLP106 T02220106
KOVE 140053Z AUTO 17016KT 10SM CLR 29/09 A2977 RMK AO2 SLP083 T02890094
KTVL 140053Z AUTO 23009G16KT 10SM CLR 18/01 A3000 RMK AO2 SLP106 T01780011
KSDL 140053Z 25005KT 10SM CLR 33/14 A2979 RMK AO2 LTG DSNT SE SLP060 T03280139
KFXE 140053Z AUTO 10005KT 10SM FEW030 FEW035 SCT100 30/24 A2993 RMK AO2 SLP137 T03000239 TSNO
KLEE 140053Z AUTO 12003KT 10SM CLR 23/22 A2994 RMK AO2 TSE2357B02E20B21E36 SLP136 T02330222
KAAF 140053Z AUTO 03007KT 10SM CLR 27/24 A2990 RMK AO2 SLP124 T02670244
KAPF 140053Z 12010KT 10SM SCT029 BKN060 OVC085 26/23 A2993 RMK AO2 WSHFT 0025 LTG DSNT W SLP132 T02610233 $
KBKV 140053Z 00000KT 10SM CLR 26/24 A2994 RMK AO2 SLP135 T02560244 PNO
KDAB 140053Z 15003KT 10SM FEW085 BKN150 26/24 A2994 RMK AO2 SLP137 T02610239
KFMY 140053Z 34004KT 10SM CLR 29/24 A2992 RMK AO2 LTG DSNT SW SLP132 T02940244 $
KGNV 140053Z 00000KT 10SM CLR 24/23 A2995 RMK AO2 SLP140 T02440233
KMCO 140053Z 12008KT 10SM SCT050 SCT090 BKN300 28/23 A2994 RMK AO2 SLP137 T02780233
KNIP 140053Z 00000KT 10SM SCT120 BKN250 27/23 A2992 RMK AO2 SLP128 T02670233 $
KNQX 140053Z 28013KT 10SM FEW025 SCT050 BKN250 29/23 A2993 RMK AO2 TSE29 SLP135 CONS LTGICCG DSNT NW AND NE CB DSNT NW AND NE T2 SET T02890233 $
KOPF 140053Z 00000KT 10SM VCTS SCT025 26/22 A2995 RMK AO2 LTG DSNT ALQDS TSB36E51 SLP142 T02560217 $
KPGD 140053Z 03003KT 10SM CLR 27/23 A2995 RMK AO2 SLP140 T02670233
KPMP 140053Z AUTO 11004KT 10SM VCTS FEW030 BKN100 30/23 A2993 RMK AO2 LTG DSNT SW AND W SLP136 T03000228
KRWI 140053Z AUTO 00000KT 10SM CLR 19/16 A2991 RMK AO2 SLP128 T01940161
KSPG 140053Z 00000KT 10SM CLR 28/26 A2991 RMK AO2 SLP127 T02830256 $
KSRQ 140053Z 00000KT 10SM CLR 27/23 A2991 RMK AO2 SLP127 T02720228
KTMB 140053Z 33015G22KT 10SM VCTS SCT037 BKN044 BKN055 26/23 A2995 RMK AO2 LTG DSNT ALQDS SLP141 T02610233
KBCT 140053Z VRB05KT 10SM VCTS SCT030 29/23 A2994 RMK LTG DSNT ALQDS.
KHWO 140053Z AUTO 26012KT 10SM -RA OVC025 26/23 A2996 RMK AO2 WSHFT 0039 LTG DSNT ALQDS RAB39 SLP144 P0001 T02560228
KSTS 140053Z 24010KT 10SM FEW100 22/12 A2983 RMK AO2 SLP094 T02220117
KMKO 140053Z AUTO 13005KT 10SM CLR 26/10 A2994 RMK AO2 SLP132 T02560100
KSWO 140053Z 18005KT 10SM CLR 28/16 A2989 RMK AO2 SLP110 T02830156
KMSS 140053Z AUTO 25007KT 4SM -RA BR FEW020 BKN070 OVC090 16/16 A2974 RMK AO2 SLP072 P0006 T01610156
KRME 140053Z 10003KT 10SM CLR 14/14 A2982 RMK AO2 SLP096 T01440139
KBHM 140053Z 00000KT 10SM CLR 21/14 A3000 RMK AO2 SLP155 T02110144
KBFM 140053Z 35006KT 10SM CLR 24/14 A2996 RMK AO2 SLP145 T02390139
PHLI 140053Z 04011KT 10SM FEW025 29/21 A3003 RMK AO2 SLP166 T02890211
KANB 140053Z AUTO 00000KT 10SM CLR 19/16 A2998 RMK AO2 SLP150 T01890161
KMGM 140053Z 00000KT 10SM CLR 20/17 A2996 RMK AO2 SLP143 T02000172
KTCL 140053Z AUTO 00000KT 10SM CLR 21/17 A2997 RMK AO2 SLP148 T02060172
KMSL 140053Z AUTO 00000KT 10SM CLR 21/16 A2997 RMK AO2 SLP145 T02060156
KONO 140053Z AUTO 16005KT 10SM BKN120 26/12 A2977 RMK AO2 SLP066 T02610122
KTLH 140053Z 36003KT 10SM FEW050 SCT250 26/21 A2991 RMK AO2 SLPNO T02620212
KDLS 140053Z AUTO 30015G25KT 10SM CLR 25/08 A2975 RMK AO2 SLP073 T02500083
KLEB 140053Z 00000KT 10SM -RA FEW006 BKN023 OVC070 19/17 A2972 RMK AO2 RAB46 SLP057 P0001 T01940172
KMKL 140053Z AUTO 00000KT 10SM CLR 18/16 A2998 RMK AO2 SLP149 T01830161
KOQT 140053Z AUTO 00000KT 10SM BKN070 20/16 A3000 RMK AO2 SLP154 T02000161
KMWT 140053Z AUTO 00000KT 10SM CLR 23/12 A2996 RMK AO2 SLP140 T02280117
KPUB 140053Z 11009G19KT 10SM CLR 29/02 A2989 RMK AO2 SLP068 T02890022
KLLQ 140053Z AUTO 00000KT 10SM CLR 21/16 A2997 RMK AO2 SLP146 T02110156
KRUE 140053Z AUTO 00000KT 10SM CLR 21/15 A2995 RMK AO2 SLP136 T02060150
KAKO 140053Z AUTO 13009KT 10SM CLR 27/M03 A2992 RMK AO2 SLP080 T02721033
KGJT 140053Z 33008KT 6SM +RA OVC050 16/14 A3004 RMK AO2 RAB25 SLP124 P0006 T01560139
KHOT 140053Z AUTO 00000KT 10SM CLR 24/11 A2997 RMK AO2 SLP145 T02390111
KCEZ 140053Z AUTO 00000KT 10SM SCT120 21/10 A3004 RMK AO2 LTG DSNT SW AND W TSB2359E14 SLP105 T02110100
KHVR 140053Z AUTO 07009KT 10SM BKN100 OVC110 22/06 A2980 RMK AO2 SLP082 T02220056
KEEO 140053Z AUTO 08006KT 10SM OVC100 17/08 A3008 RMK AO2 SLP134 T01670078
KOLF 140053Z AUTO 08015G26KT 10SM CLR 21/04 A2986 RMK AO2 PK WND 09029/0015 SLP112 T02060039
KMHT 140053Z 13010KT 10SM TS SCT017CB BKN035 OVC060 22/20 A2967 RMK AO2 LTG DSNT SW-N RAE03 TSB25 SLP057 FRQ LTGIC VC SW-NW TS VC SW-NW MOV E P0000 T02220200
KAGC 140053Z 27008KT 10SM BKN048 OVC060 17/11 A2996 RMK AO2 SLP148 T01670106
KLXV 140053Z AUTO 22005KT 10SM SCT070 BKN080 OVC120 13/01 A3030 RMK AO2 SLP128 T01280006
KRTN 140053Z AUTO 08004KT 10SM OVC100 21/06 A3006 RMK AO2 SLP113 T02110061
KSAF 140053Z 14008KT 10SM FEW100 FEW110 22/06 A3008 RMK AO2 SLP105 T02170061
KTCC 140053Z AUTO 20011KT FEW100 27/11 A2993 RMK AO2 SLP082 T02720106
KUUU 140053Z AUTO VRB04KT 6SM BR OVC004 22/22 A2975 RMK AO2 SLP071 T02220222
KFLO 140053Z 02004KT 10SM CLR 24/18 A2991 RMK AO2 SLP125 T02440178
KGMU 140053Z 28003KT 10SM CLR 24/11 A2997 RMK AO2 SLP139 T02390106
KTCS 140053Z AUTO 27025G38KT 10SM VCTS BKN080 OVC095 23/11 A3001 RMK AO2 PK WND 26038/0053 WSHFT 0039 LTG DSNT ALQDS PRESRR SLP092 T02280111 $
KRSW 140053Z 14012G19KT 10SM BKN035 28/24 A2993 RMK AO2 LTG DSNT SE AND SW SLP131 T02780239
KNUI 140053Z AUTO 00000KT 10SM BKN065 22/16 A2987 RMK AO2 SLP113 T02170156
KWST 140053Z AUTO 21005KT 10SM FEW005 OVC010 23/22 A2974 RMK AO2 SLP071 T02280222 TSNO
KHKA 140053Z AUTO 00000KT 10SM CLR 23/14 A2995 RMK AO2 SLP141 T02330139 $
KPEO 140053Z AUTO 19007KT 10SM CLR 14/13 A2987 RMK AO2 SLP113 T01390128
KDKK 140053Z AUTO 20005KT 10SM SCT030 16/13 A2988 RMK AO2 SLP117 T01560133 TSNO $
KELM 140053Z 00000KT 10SM OVC090 14/13 A2987 RMK AO2 SLP112 T01390128
KFOK 140053Z 23006KT 10SM FEW049 BKN060 23/22 A2977 RMK AO2 SLP081 T02330222
KFRG 140053Z 28011KT 10SM CLR 24/13 A2978 RMK AO2 SLP083 T02440133
KGWO 140053Z AUTO 00000KT 10SM CLR 21/16 A2997 RMK AO2 SLP148 T02060161
KGLH 140053Z AUTO 18003KT 10SM CLR 21/15 A2996 RMK AO2 SLP150 T02060150
KTUP 140053Z 00000KT 10SM CLR 23/15 A2997 RMK AO2 SLP146 T02330150
KHGR 140053Z 28006KT 10SM CLR 19/11 A2991 RMK AO2 SLP136 T01890111
KMLU 140053Z 00000KT 10SM CLR 21/16 A2997 RMK AO2 SLP149 T02060161
KMSY 140053Z 02005KT 10SM CLR 27/15 A2994 RMK AO2 SLP141 T02670150
KLFT 140053Z 00000KT 10SM CLR 23/18 A2994 RMK AO2 SLP139 T02280183
KLCH 140053Z 07005KT 10SM CLR 24/16 A2993 RMK AO2 SLP143 T02390156
KARA 140053Z 02004KT 10SM CLR 24/16 A2994 RMK AO2 SLP136 T02390161
KRMG 140053Z AUTO 00000KT 10SM CLR 21/17 A2997 RMK AO2 SLP142 T02060172
KEYW 140053Z 29011KT 10SM VCTS CLR 26/24 A2994 RMK AO2 LTG DSNT ALQDS RAE30 SLP138 P0000 T02610244
KXNA 140053Z 11004KT 10SM CLR 24/12 A2999 RMK AO2 SLP143 T02440117
KENW 140053Z 25003KT 10SM CLR 19/12 A2997 RMK AO2 SLP148 T01940117
KFLD 140053Z AUTO 23004KT 10SM CLR 18/14 A2995 RMK AO2 SLP142 T01830144
KHEI 140053Z AUTO 08010KT 10SM CLR 21/09 A2990 RMK AO2 SLP119 T02110089
KSBM 140053Z AUTO 27004KT 10SM CLR 18/15 A2994 RMK AO2 SLP139 T01780150
PAPB 140053Z AUTO 26013KT 8SM FEW025 BKN034 11/ A2986 RMK AO2 SLP100 T0106 PWINO TSNO $
PASC 140053Z 08021G32KT 5SM BR OVC005 03/02 A2973 RMK AO2 PK WND 08032/0048 SLP070 T00280017
PATO 140053Z AUTO VRB06KT 10SM FEW030 OVC039 09/08 A2959 RMK AO2 SLP019 T00940078 TSNO
KPNC 140053Z AUTO 12009KT 10SM CLR 29/13 A2988 RMK AO2 SLP109 T02890128
KAXN 140053Z AUTO 00000KT 10SM CLR 21/09 A2997 RMK AO2 SLP148 T02060094
KBDE 140053Z AUTO 36004KT 10SM CLR 13/08 A3005 RMK AO2 SLP182 T01330078
KBRD 140053Z AUTO 03005KT 10SM CLR 21/15 A2997 RMK AO2 SLP150 T02060150
KGEZ 140053Z AUTO 21003KT 10SM OVC050 19/17 A2999 RMK AO2 SLP151 T01940167
KHBR 140053Z AUTO 17009KT 10SM CLR 30/15 A2988 RMK AO2 SLP099 T03000150
KHIB 140053Z AUTO 36005KT 10SM CLR 16/12 A3000 RMK AO2 SLP167 T01560117
KHZY 140053Z AUTO 22005KT 10SM BKN075 17/14 A2993 RMK AO2 SLP133 T01670139
KMSP 140053Z 21004KT 10SM FEW150 FEW250 24/09 A2995 RMK AO2 SLP141 T02390089
KPHD 140053Z AUTO 00000KT 10SM BKN050 16/12 A2998 RMK AO2 SLP149 T01610122
KRWF 140053Z AUTO 13007KT 10SM CLR 19/11 A2994 RMK AO2 SLP141 T01940111
KSTC 140053Z 00000KT 10SM CLR 18/13 A2995 RMK AO2 SLP153 T01780133
KFCM 140053Z 19003KT 10SM CLR 22/11 A2995 RMK AO2 SLP140 T02170111
KPKD 140053Z AUTO 04005KT 10SM CLR 19/12 A2998 RMK AO2 SLP158 T01890122 $
KLXT 140053Z AUTO 15006KT 10SM CLR 26/13 A2994 RMK AO2 SLP131 T02610133
KFNB 140053Z AUTO 16006KT 10SM CLR 26/17 A2988 RMK AO2 SLP111 T02610167
KHLC 140053Z AUTO 13007KT 10SM CLR 30/08 A2986 RMK AO2 SLP090 T03000083
KHSI 140053Z AUTO 16006KT 10SM CLR 28/11 A2987 RMK AO2 SLP099 T02780111
KHYR 140053Z AUTO 00000KT 10SM CLR 16/14 A2996 RMK AO2 SLP151 T01610144
KICR 140053Z AUTO 11005KT 10SM CLR 23/11 A2987 RMK AO2 SLP108 T02330106
KMIC 140053Z 18004KT 10SM CLR 20/11 A2994 RMK AO2 SLP138 T02000106
KMIE 140053Z 00000KT 10SM OVC046 19/16 A2999 RMK AO2 SLP149 T01890156
KODX 140053Z AUTO 00000KT 10SM CLR 22/17 A2983 RMK AO2 SLP100 T02220167
KOWA 140053Z AUTO 00000KT 10SM 16/14 A2998 RMK AO2
KPAH 140053Z 00000KT 10SM CLR 17/13 A2997 RMK AO2 SLP146 T01720128
KSTP 140053Z 00000KT 10SM -RA CLR 20/13 A2996 RMK AO2 RAB51 SLP142 P0000 T02000128
KAUS 140053Z 16008KT 10SM FEW070TCU FEW085 SCT200 29/19 A2989 RMK AO2 SLP113 TCU SE T02890194
KVIH 140053Z AUTO 13003KT 10SM CLR 19/14 A2999 RMK AO2 SLP150 T01940144
KADG 140053Z AUTO 26006KT 10SM SCT038 BKN048 OVC060 18/15 A2995 RMK AO2 SLP142 T01780150
KDMO 140053Z AUTO 16004KT 10SM CLR 23/17 A2996 RMK AO2 SLP142 T02330167
KJEF 140053Z 00000KT 10SM CLR 22/17 A2996 RMK AO2 SLP133 T02170167 $
KAQP 140053Z AUTO 16005KT 10SM BKN090 20/11 A2993 RMK AO2
KBBW 140053Z AUTO 29003KT 10SM CLR 20/14 A2986 RMK AO2 SLP105 T02000144
KBFF 140053Z AUTO 10009KT 7SM CLR 24/04 A2986 RMK AO2 SLP081 T02440044
KFOZ 140053Z AUTO 02004KT 10SM CLR 15/09 A3007 RMK AO2
KXVG 140053Z AUTO 03003KT 10SM CLR 17/13 A2999 RMK AO2
KICT 140053Z 13007KT 10SM FEW300 28/12 A2989 RMK AO2 SLP111 T02780117
KTOP 140053Z AUTO 00000KT 10SM CLR 24/18 A2989 RMK AO2 SLP117 T02440178
KHUF 140053Z 00000KT 10SM OVC065 21/18 A2998 RMK AO2 SLP151 T02060178
KLWV 140053Z AUTO 00000KT 10SM CLR 19/16 A2999 RMK AO2 SLP153 T01940161
KMDW 140053Z 12004KT 10SM CLR 22/16 A2997 RMK AO2 SLP143 T02220156
KPDT 140053Z 28005KT 6SM HZ CLR 25/10 A2975 RMK AO2 SLP062 T02500100
KSMQ 140053Z AUTO 00000KT 10SM CLR 19/12 A2980 RMK AO2 SLP091 T01940122
KEWB 140053Z 22010KT 5SM BR BKN007 OVC018 23/23 A2973 RMK AO2 CIG 005V009 SLP068 T02330233 $
KMVY 140053Z 21010KT 3SM BR OVC003 23/23 A2975 RMK AO2 SLP073 T02330228
KBVY 140053Z 17005KT 10SM OVC007 22/21 A2972 RMK AO2 CIG 007V011 SLP058 T02220206
KACK 140053Z 20011KT 6SM BR OVC003 23/22 A2977 RMK AO2 SLP079 T02330222
KFWN 140053Z AUTO 00000KT 10SM CLR 18/14 A2982 RMK AO2 SLP095 T01780144
KTTN 140053Z 00000KT 10SM CLR 21/11 A2982 RMK AO2 SLP091 T02110111
KMCB 140053Z AUTO 00000KT 10SM CLR 19/15 A2997 RMK AO2 SLP144 T01940150
KGPT 140053Z 01004KT 10SM CLR 24/15 A2994 RMK AO2 SLP137 T02440150
KHBG 140053Z AUTO 00000KT 10SM CLR 21/17 A2997 RMK AO2 SLP148 T02110172
KPQL 140053Z 00000KT 10SM CLR 20/17 A2994 RMK AO2 SLP141 T02000172
KTHV 140053Z AUTO 25003KT 10SM CLR 18/12 A2988 RMK AO2 SLP119 T01830117
KTVR 140053Z AUTO 00000KT 10SM CLR 19/16 A2997 RMK AO2 SLP155 T01890161
KAMG 140053Z AUTO 33004KT 10SM CLR 26/19 A2992 RMK AO2 SLP130 T02610194
KMCN 140053Z AUTO 00000KT 10SM CLR 18/16 A2995 RMK AO2 SLP138 T01830161
KSAV 140053Z 00000KT 10SM BKN110 25/22 A2991 RMK AO2 SLP128 T02500217
KAOO 140053Z AUTO 25003KT 10SM CLR 14/11 A2995 RMK AO2 SLP139 T01390106
KBFD 140053Z AUTO 22003KT 10SM BKN024 BKN034 OVC070 14/12 A2992 RMK AO2 SLP128 T01390117 TSNO
KLNS 140053Z 27009KT 10SM CLR 21/12 A2986 RMK AO2 SLP109 T02060117
KMPO 140053Z AUTO 28007KT 10SM CLR 15/12 A2987 RMK AO2 SLP109 T01500117
KDUJ 140053Z AUTO 26007KT 10SM SCT032 BKN080 14/11 A2993 RMK AO2 SLP133 T01440106
KLAX 140053Z 27009KT 10SM FEW015 FEW050 24/19 A2981 RMK AO2 SLP094 T02390189 $
PHKO 140053Z VRB04KT 10SM SCT055 BKN070 28/21 A2996 RMK AO2 SLP143 T02830206
PAWI 140053Z AUTO 08017KT 10SM OVC005 04/02 A2973 RMK AO2 CIG 003V010 SLP067 T00390022 TSNO
PABR 140053Z 08022G28KT 10SM OVC007 02/01 A2981 RMK AO2 PK WND 09031/2358 SLP096 T00220006 $
PAEN 140053Z 20010KT 10SM SCT011 OVC055 12/09 A2955 RMK AO2 SLP010 T01170094
PAFA 140053Z 11003KT 10SM FEW090 SCT140 BKN200 17/05 A2948 RMK AO2 SLP987 T01720050 $
PAYA 140053Z AUTO 19004KT 5SM -RA BR FEW006 BKN014 OVC022 12/12 A2974 RMK AO2 SLP071 P0016 T01220117 TSNO $
PAOT 140053Z 11012KT 10SM SCT075 13/08 A2957 RMK AO2 SLP014 T01330083
PAKT 140053Z 31005KT 10SM CLR 17/10 A2993 RMK AO2 SLP136 HARBOR WIND 28012KT T01720100
KBNA 140053Z 00000KT 10SM FEW060 22/11 A2999 RMK AO2 SLP150 T02220111
KTRI 140053Z 29005KT 10SM SCT060 19/13 A3000 RMK AO2 SLP141 T01940128
KTYS 140053Z 33004KT 10SM BKN070 22/13 A2998 RMK AO2 SLP144 T02170128
KBCE 140053Z AUTO 14008KT 10SM FEW025 OVC036 13/09 A3013 RMK AO2 SLP106 T01330094
KOGD 140053Z 00000KT 2 1/2SM RA BKN055 OVC065 18/15 A2991 RMK AO2 SLP079 P0011 T01780150
KCDC 140053Z AUTO 22011KT 10SM BKN070 OVC095 16/13 A3001 RMK AO2 SLP110 T01610133
KAGS 140053Z 00000KT 10SM CLR 18/16 A2992 RMK AO2 SLP132 T01780156 $
KOAK 140053Z 27016KT 10SM FEW010 SCT018 19/14 A2988 RMK AO2 SLP119 T01940139
KPRB 140053Z AUTO 21015KT 10SM CLR 24/08 A2982 RMK AO2 SLP091 T02390083
KPSP 140053Z 32010KT 10SM CLR 33/16 A2971 RMK AO2 SLP058 T03330161
KPUC 140053Z AUTO 09006KT 10SM VCTS FEW010 BKN080 15/13 A3001 RMK AO2 RAE38 TSE06B20E36 SLP116 P0005 T01500133
KVEL 140053Z AUTO 14004KT 10SM OVC095 17/12 A2999 RMK AO2 SLP112 T01720122
KSIY 140053Z AUTO 35009KT 10SM CLR 27/06 A2978 RMK AO2 SLP071 T02720061
KCNY 140053Z AUTO 13011KT 10SM SCT120 19/13 A2993 RMK AO2 SLP086 T01940128
KLAR 140053Z AUTO 15018KT 10SM SCT120 21/M03 A3004 RMK AO2 PK WND 14028/2354 SLP089 T02111033
KCPR 140053Z 14005KT 9SM CLR 24/03 A2987 RMK AO2 SLP071 T02390033
KFAR 140053Z 01006KT 10SM CLR 18/11 A2997 RMK AO2 SLP152 T01780106
KLWD 140053Z AUTO 13004KT 10SM CLR 23/13 A2995 RMK AO2 SLP137 T02330133
KMIW 140053Z AUTO 11005KT 10SM CLR 17/11 A2997 RMK AO2 SLP150 T01720106
KAMW 140053Z AUTO 00000KT 10SM CLR 15/13 A2996 RMK AO2 SLP142 T01500133
KBRL 140053Z AUTO 00000KT 10SM CLR 17/12 A2998 RMK AO2 SLP150 T01720122
KOTM 140053Z AUTO 10005KT 10SM CLR 21/09 A2996 RMK AO2 SLP142 T02060094
KLSE 140053Z 00000KT 10SM CLR 19/16 A2996 RMK AO2 SLP143 T01890161
KCYS 140053Z 13009KT 10SM CLR 24/M03 A2998 RMK AO2 SLP080 T02391033
KLND 140053Z AUTO 20017G29KT 10SM SCT120 22/06 A2990 RMK AO2 PK WND 20035/2354 SLP075 T02220056
KOSH 140053Z 00000KT 10SM CLR 19/15 A2994 RMK AO2 SLP133 T01890150
KRAC 140053Z AUTO 26004KT 10SM CLR 19/11 A2998 RMK AO2 SLP149 T01890111
KRIW 140053Z AUTO 24012KT 10SM OVC100 22/05 A2992 RMK AO2 SLP079 T02170050
KBPI 140053Z AUTO 33004KT 10SM BKN055 BKN070 OVC085 16/07 A3004 RMK AO2 RAB2354E07 SLP119 P0000 T01610072
KEVW 140053Z AUTO 22009KT 3SM RA BR SCT050 OVC060 12/10 A3005 RMK AO2 PK WND 23026/0031 RAB28 SLP111 P0006 T01170100
KGCC 140053Z AUTO 14014KT 6SM HZ CLR 25/04 A2983 RMK AO2 SLP065 T02500039
KRWL 140053Z AUTO 25014G23KT 9SM -RA FEW070 BKN080 OVC100 17/08 A3006 RMK AO2 PK WND 20035/0038 LTG DSNT E RAB2355E05B44 SLP126 P0000 T01720078
KWRL 140053Z AUTO 22010KT 10SM FEW120 24/02 A2977 RMK AO2 SLP052 T02440017 $
KDGW 140053Z AUTO 13013KT 10SM CLR 26/01 A2987 RMK AO2 PK WND 14027/2358 SLP073 T02560011
KGEY 140053Z AUTO 20010G19KT 10SM CLR 27/03 A2973 RMK AO2 SLP038 T02670028
KTOR 140053Z AUTO 11012KT 10SM CLR 26/03 A2984 RMK AO2 SLP071 T02610033
KBYG 140053Z AUTO 17005KT 9SM CLR 24/02 A2984 RMK AO2 SLP049 T02440022
PAGY 140053Z AUTO 20023G30KT 10SM OVC050 13/09 A2981 RMK AO2 PK WND 20032/0041 SLP096 T01330094 TSNO
PAIL 140053Z 17006KT 10SM SCT020 BKN035 12/09 A2956 RMK AO2 SLP011 T01170094
PAKV 140053Z AUTO 00000KT 10SM OVC055 13/08 A2957 RMK AO2 SLP014 T01330078 TSNO
PAMC 140053Z 00000KT 10SM SCT040 15/06 A2951 RMK AO2 SLP997 T01500061
PAKW 140053Z AUTO 21007KT 10SM CLR 16/10 A2994 RMK AO2 SLP137 T01610100 TSNO $
KFDY 140053Z AUTO 25007KT 10SM BKN065 18/14 A2995 RMK AO2 SLP137 T01830144
KTDZ 140053Z AUTO 24005KT 10SM SCT070 18/14 A2994 RMK AO2 SLP138 T01830144
KZZV 140053Z AUTO 00000KT 10SM CLR 14/12 A2999 RMK AO2 SLP152 T01390122
KDFI 140053Z AUTO 24005KT 10SM OVC070 18/16 A2996 RMK AO2 SLP142 T01780161
KHAO 140053Z AUTO VRB03KT 10SM FEW060 17/15 A3000 RMK AO2 SLP158 T01720150
KOSU 140053Z 00000KT 10SM CLR 17/11 A2998 RMK AO2 SLP148 T01720111
KLUK 140053Z 32006KT 10SM BKN060 20/14 A3000 RMK AO2 SLP155 T02000144 $
KMGY 140053Z AUTO 00000KT 10SM CLR 18/14 A2999 RMK AO2 SLP152 T01830139
KGFL 140053Z AUTO 22008KT 10SM BKN095 OVC110 18/17 A2974 RMK AO2 SLP071 T01830172
KHVN 140053Z 24007KT 210V270 10SM FEW012 SCT023 BKN030 26/23 A2975 RMK AO2 SLP072 T02560228
KEQY 140053Z AUTO 00000KT 10SM CLR 19/13 A2993 RMK AO2 SLP139 T01890133
KEYE 140053Z AUTO 00000KT 10SM OVC050 19/17 A2999 RMK AO2 SLP152 T01940167
KBVO 140053Z AUTO 00000KT 10SM CLR 22/13 A2993 RMK AO2 SLP126 T02220133
KCMI 140053Z 24004KT 10SM CLR 18/14 A2999 RMK AO2 SLP154 T01830144
KSDM 140053Z 29006KT 10SM FEW045 23/17 A2984 RMK AO2 SLP100 T02330167
KSNA 140053Z 18009KT 10SM FEW011 SCT045 25/17 A2981 RMK AO2 SLP093 T02500172
KFAT 140053Z 32006KT 10SM SCT110 SCT150 SCT200 32/06 A2976 RMK AO2 SLP074 MTNS OBSC FU HZ DSNT N-E-S T03220056
KSDB 140053Z AUTO 31007G18KT 10SM 22/02 A2999 RMK AO2 SLP107 T02170017 $
KCPS 140053Z 00000KT 10SM CLR 16/13 A2998 RMK AO2 RAB13E25 SLP152 P0000 T01610133
KMTO 140053Z AUTO 00000KT 10SM CLR 18/14 A2999 RMK AO2 SLP152 T01830144
KMSO 140053Z 11007KT 1 1/4SM HZ CLR 16/10 A2990 RMK AO2 SLP115 T01560100
KCCR 140053Z 24017KT 10SM CLR 21/12 A2985 RMK AO2 SLP095 T02110117
KMAE 140053Z AUTO 30008KT 10SM CLR 31/08 A2978 RMK AO2 SLP081 T03060078
KLGB 140053Z 19006KT 10SM CLR 27/15 A2981 RMK AO2 SLP092 T02670150
KMCE 140053Z AUTO 33008KT 10SM CLR 29/09 A2978 RMK AO2 SLP083 T02940094
KMOD 140053Z 32017G23KT 10SM CLR 24/10 A2980 RMK AO2 SLP089 T02440100
KMYF 140053Z 25007KT 10SM CLR 24/15 A2984 RMK AO2 SLP100 T02390150
KSBA 140053Z 12005KT 10SM CLR 22/16 A2980 RMK AO2 SLP089 T02220156 $
KSNS 140053Z 27012KT 10SM CLR 22/11 A2989 RMK AO2 SLP131 T02170111
KIPL 140053Z AUTO 19007KT 10SM CLR 34/17 A2966 RMK AO2 SLP045 T03440172
KRAL 140053Z 28010G18KT 10SM CLR 28/16 A2980 RMK AO2 SLP075 T02780161
KFUL 140053Z 19008KT 10SM CLR 27/16 A2980 RMK AO2 SLP089 T02670156
KPMD 140053Z 23018KT 10SM CLR 26/16 A2986 RMK AO2 PK WND 23026/2355 SLP083 T02560156
KCNO 140053Z 24013KT 10SM SCT055 28/16 A2981 RMK AO2 SLP089 T02780161 $
KHHR 140053Z 26007KT 10SM CLR 25/18 A2981 RMK AO2 SLP094 T02500178 $
KSAC 140053Z AUTO 20014G21KT 10SM CLR 23/10 A2979 RMK AO2 PK WND 22026/0015 SLP089 T02280100
KHJO 140053Z AUTO 05004KT 10SM BKN110 33/07 A2975 RMK AO2 SLP075 T03280067
KONT 140053Z 25012KT 10SM FEW045 FEW060 27/17 A2981 RMK AO2 SLP080 T02670167
KLVK 140053Z 26015KT 10SM CLR 21/11 A2987 RMK AO2 SLP112 T02060106
KRNM 140053Z 26009KT 10SM SCT039 24/16 A2986 RMK AO2 SLP097 T02440156
KVCB 140053Z AUTO 22013G22KT 10SM CLR 24/11 A2979 RMK AO2 SLP086 T02390106
KACV 140053Z AUTO 30005KT 10SM CLR 14/12 A2990 RMK AO2 SLP129 T01440117
KSJC 140053Z 35013G21KT 10SM FEW010 FEW035 22/12 A2988 RMK AO2 SLP116 T02170117
KWVI 140053Z AUTO 00000KT 10SM CLR 22/12 A2986 RMK AO2 SLP110 T02220122
KRDD 140053Z 16011KT 10SM FU HZ CLR 29/12 A2973 RMK AO2 SLP063 T02890122
KDLN 140053Z AUTO 24004KT 1 3/4SM RA BR OVC065 13/12 A2995 RMK AO2 RAB18 SLP116 T01330117 PNO $
TJNR 140053Z AUTO 06008KT 10SM FEW025 28/26 A2999 RMK AO2 SLP156 T02830256
KMLC 140053Z AUTO VRB03KT 10SM CLR 28/11 A2993 RMK AO2 SLP125 T02780106
KCGI 140053Z AUTO 13004KT 10SM CLR 21/13 A2997 RMK AO2 SLP147 T02060133
KFOE 140053Z 15006KT 10SM CLR 24/17 A2991 RMK AO2 SLP121 T02390167 $
KPOF 140053Z AUTO 00000KT 10SM CLR 20/16 A2996 RMK AO2 SLP143 T02000156
KSLN 140053Z 15008KT 10SM CLR 28/13 A2988 RMK AO2 SLP107 T02780128
KUNO 140053Z AUTO 00000KT 10SM CLR 21/18 A3001 RMK AO2 SLP154 T02060178
KIXD 140053Z 13005KT 10SM CLR 26/14 A2993 RMK AO2 SLP128 T02610139
KOJC 140053Z 14005KT 10SM CLR 26/14 A2993 RMK AO2 SLP126 T02610139
KRSL 140053Z AUTO 13009KT 10SM CLR 28/12 A2986 RMK AO2 SLP096 T02780117
KEMP 140053Z AUTO 13007KT 10SM CLR 25/12 A2991 RMK AO2 SLP121 T02500122
KBEH 140053Z AUTO 00000KT 9SM CLR 16/16 A2997 RMK AO2 SLP147 T01610156
KLAN 140053Z 27004KT 10SM SCT037 BKN045 OVC055 20/16 A2993 RMK AO2 SLP135 T02000161 $
KLOU 140053Z 00000KT 10SM OVC049 21/16 A2999 RMK AO2 SLP153 T02110161
KLOZ 140053Z AUTO 00000KT 10SM BKN045 BKN060 18/15 A3001 RMK AO2 SLP156 T01830150
KLHQ 140053Z AUTO 00000KT 10SM CLR 13/13 A2999 RMK AO2 SLP154 T01330128
KGRB 140053Z 23003KT 10SM CLR 18/16 A2993 RMK AO2 SLP134 T01830156
KLBF 140053Z AUTO 11007KT 10SM CLR 22/12 A2985 RMK AO2 SLP097 T02220117
KAZO 140053Z 30006KT 10SM CLR 19/16 A2996 RMK AO2 SLP144 T01890161
KMSN 140053Z 00000KT 10SM CLR 17/15 A2996 RMK AO2 SLP145 T01720150
KASX 140053Z AUTO 04005KT 10SM CLR 15/13 A3000 RMK AO2 SLP162 T01500128
KMHE 140053Z AUTO 10007KT 10SM CLR 24/12 A2986 RMK AO2 SLP106 T02440117
KOVS 140053Z AUTO 00000KT 10SM CLR 16/16 A2998 RMK AO2 SLP154 T01610156
KRHI 140053Z AUTO 28004KT 10SM CLR 14/12 A2997 RMK AO2 SLP153 T01440117
KGRI 140053Z 15007KT 10SM CLR 25/17 A2986 RMK AO2 SLP104 T02500167
KETH 140053Z AUTO 00000KT 10SM 20/12 RMK AO2
KORB 140053Z AUTO 00000KT 10SM CLR 13/09 A3002 RMK AO2
KAIA 140053Z AUTO 11008KT 7SM CLR 23/01 A2988 RMK AO2 SLP096 T02330011
KABR 140053Z AUTO 05009KT 10SM CLR 21/13 A2992 RMK AO2 SLP129 T02110133
KJLN 140053Z 15004KT 10SM CLR 24/12 A2996 RMK AO2 SLP139 T02440117
KGLD 140053Z AUTO 16008KT 10SM CLR 26/02 A2989 RMK AO2 SLP086 T02560017 $
KJKL 140053Z AUTO 32003KT 10SM CLR 19/14 A3001 RMK AO2 SLP153 T01890139
KPIR 140053Z AUTO 08010KT 10SM CLR 23/12 A2985 RMK AO2 SLP101 T02280117
KHTL 140053Z AUTO 32007KT 10SM CLR 18/15 A2992 RMK AO2 SLP133 T01780150
KGFK 140053Z 36006KT 10SM CLR 13/07 A3002 RMK AO2 SLP170 T01280067
KATY 140053Z AUTO 09005KT 10SM CLR 22/11 A2993 RMK AO2 SLP133 T02170111
KBKL 140053Z 22009KT 10SM CLR 19/12 A2992 RMK AO2 SLP131 T01890117 $
KELY 140053Z AUTO 34015G37KT 6SM TSRA FEW040 SCT047 OVC060 12/08 A3004 RMK AO2 PK WND 32037/0045 LTG DSNT SW AND W RAB42 TSB45 SLP106 P0000 T01170083
KCSV 140053Z AUTO 00000KT 10SM CLR 16/14 A3004 RMK AO2 SLP163 T01560144
KSTJ 140053Z AUTO 15003KT 10SM CLR 22/17 A2990 RMK AO2 SLP122 T02220172
PAJN 140053Z COR 09009KT 8SM -RA FEW004 OVC035 11/09 A2993
KCUL 140053Z AUTO 00000KT 10SM CLR 18/17 A2998 RMK AO2
KNUW 140053Z 25003KT 10SM FEW045 SCT065 BKN090 BKN250 14/12 A2991 RMK AO2 SLP127 FU FEW045 T01440117 $
OICK 140053Z 20002KT CAVOK 17/02 Q1012
KRHV 140053Z 33016KT 10SM SKC 22/11 A2988
KMVL 140054Z AUTO 12003KT 6SM RA BR FEW028 BKN032 OVC042 18/17 A2970 RMK AO2 SLP057 P0017 T01830172
KAKH 140054Z AUTO 00000KT 10SM CLR 17/16 A2995 RMK AO2 SLP136 T01720156
KAKQ 140054Z AUTO 00000KT 10SM CLR 21/13 A2989 RMK AO2 SLP122 T02110133
KAVL 140054Z 34007KT 320V020 10SM CLR 18/11 A3002 RMK AO2 SLP148 T01830111
KCEU 140054Z AUTO 00000KT 10SM CLR 20/16 A2995 RMK AO2 SLP135 T02000156
KCOU 140054Z 11004KT 10SM CLR 23/15 A2997 RMK AO2 SLP144 T02330150
KDDH 140054Z AUTO 23004KT 10SM BKN015 BKN080 OVC100 17/02 A2978 RMK AO2 SLP081 T01720017
KEWN 140054Z 32004KT 10SM SCT060 26/20 A2990 RMK AO2 SLP125 T02560200
KILN 140054Z AUTO 29005KT 10SM CLR 18/13 A2999 RMK AO2 SLP155 T01830133
KLNK 140054Z 15004KT 10SM CLR 26/14 A2986 RMK AO2 SLP106 T02560144
KMKC 140054Z 16005KT 10SM CLR 28/12 A2990 RMK AO2 SLP120 T02830122
KORH 140054Z 23007KT 2 1/2SM +RA BR SCT007 BKN031 OVC040 19/18 A2976 RMK AO2 RAB39 SLP076 P0005 T01940183
KRIC 140054Z 26004KT 10SM FEW300 24/12 A2989 RMK AO2 SLP126 T02390117
KUIN 140054Z AUTO 14004KT 10SM CLR 20/11 A2998 RMK AO2 SLP148 T02000111
KVAY 140054Z AUTO 24004KT 10SM CLR 24/10 A2983 RMK AO2 SLP100 T02390100
KWAL 140054Z 00000KT 10SM SCT049 BKN075 23/18 A2986 RMK AO2 SLP110 T02330183
KEUG 140054Z 29010KT 10SM FEW050 BKN070 22/09 A2987 RMK AO2 SLP114 T02170094 $
KPTW 140054Z AUTO 00000KT 10SM CLR 18/12 A2986 RMK AO2 SLP107 T01780117
KGED 140054Z AUTO 00000KT 10SM CLR 21/18 A2986 RMK AO2 SLP111 T02110178
KCRW 140054Z 00000KT 10SM BKN060 16/14 A3000 RMK AO2 SLP155 T01560139
KLEX 140054Z 00000KT 10SM SCT033 BKN049 19/14 A3001 RMK AO2 SLP156 T01890144
KPLN 140054Z AUTO 29004KT 10SM CLR 17/16 A2990 RMK AO2 SLP124 T01720161
KAPN 140054Z AUTO 26004KT 10SM FEW035 18/16 A2988 RMK AO2 SLP118 T01780161
KLWT 140054Z AUTO 36004KT CLR 22/04 A2983 RMK AO2 SLP070 T02220044 $
KOLM 140054Z 27004KT 10SM FU BKN065 OVC075 20/11 A2986 RMK AO2 SLP111 T02000111
KRKS 140054Z AUTO 19013KT 10SM OVC080 18/06 A3002 RMK AO2 RAE02 SLP099 P0000 T01830056
KUZA 140054Z AUTO 00000KT 10SM CLR 17/14 A2995 RMK AO2 SLP134 T01720139 TSNO
KLYH 140054Z 31004KT 10SM CLR 20/13 A2994 RMK AO2 SLP131 T02000128
KROC 140054Z 23007KT 10SM SCT100 14/13 A2985 RMK AO2 SLP110 T01390133
KGCN 140054Z 19004KT 10SM FEW027 OVC075 13/12 A3013 RMK AO2 RAB22E45 SLP129 P0001 T01330117
KIZG 140054Z AUTO 00000KT 10SM OVC013 20/18 A2973 RMK AO2 LTG DSNT SW SLP068 T02000178 $
KBTV 140054Z 29008KT 2 1/2SM +RA BR FEW008 BKN017 OVC042 19/17 A2972 RMK AO2 SLP061 P0016 T01890167
KFFZ 140054Z AUTO 09006KT 10SM TS FEW018 SCT060 BKN075 29/18 A2977 RMK AO2 WSHFT 0027 RAB21E52 TSB15E30B43 SLP056 P0019 T02890178
KTAD 140054Z AUTO 16003KT 10SM CLR 23/04 A3000 RMK AO2 SLP089 T02280039
KJAN 140054Z 00000KT 10SM CLR 20/14 A2998 RMK AO2 SLP149 T02000144
KRSP 140054Z AUTO 29009G18KT CLR 16/ A2993 RMK AO2 SLP136 T0156 $
KINT 140054Z 27004KT 10SM SCT060 23/13 A2996 RMK AO2 SLP136 T02280133
KROA 140054Z 32005KT 10SM CLR 19/11 A2998 RMK AO2 SLP146 T01890111
KPHF 140054Z 28006KT 10SM CLR 23/13 A2989 RMK AO2 SLP120 T02330128
KOLS 140054Z AUTO 24006KT 10SM FEW070 28/11 A2995 RMK AO2 SLP079 T02780111
KCAR 140054Z AUTO 16005KT 10SM -RA SCT050 OVC090 19/18 A2976 RMK AO2 RAB54 SLP079 P0000 T01940178
PHMK 140054Z 05012G21KT 10SM SCT045 BKN080 29/20 A3000 RMK AO2 SLP159 T02940200
KFZY 140054Z AUTO 22005KT 10SM OVC095 17/13 A2981 RMK AO2 SLP093 T01720128 $
KBWI 140054Z 28005KT 10SM BKN075 20/14 A2987 RMK AO2 SLP111 T02000144
KSBY 140054Z 00000KT 10SM CLR 21/19 A2986 RMK AO2 SLP114 T02110194
KVSF 140054Z AUTO 00000KT 10SM SCT004 BKN090 OVC110 18/18 A2973 RMK AO2 RAE2340B17E54 SLP067 P0003 T01830178
KDMH 140054Z AUTO 24/12 A2986 RMK AO1 SLP111 T02440117
KMEM 140054Z 19004KT 10SM FEW250 25/14 A2997 RMK AO2 SLP145 T02500139
KNAK 140054Z AUTO 00000KT 10SM CLR 22/15 A2987 RMK AO2 SLP115 T02170150
KCOS 140054Z 12009KT 10SM BKN150 BKN250 25/M03 A3002 RMK AO2 SLP087 T02501028
KJST 140054Z AUTO 26007KT 10SM FEW060 13/09 A2997 RMK AO2 SLP147 T01330094
KRDG 140054Z 27004KT 10SM CLR 21/13 A2984 RMK AO2 SLP107 T02060128 $
KOFP 140054Z AUTO 00000KT 10SM CLR 19/15 A2990 RMK AO2 SLP124 T01890150
KSYR 140054Z 23007KT 10SM FEW065 BKN090 17/13 A2982 RMK AO2 SLP093 T01720133 $
KDSV 140054Z AUTO 15005KT 10SM FEW095 14/12 A2988 RMK AO2 SLP125 T01390122
PAKN 140054Z 22010KT 5SM -RA BR BKN012 BKN024 OVC048 11/10 A2952 RMK AO2 RAB05E42B49 SLP995 P0001 T01060100
KALO 140054Z 05003KT 10SM CLR 17/14 A2997 RMK AO2 SLP150 T01720139
KDSM 140054Z 09007KT 10SM FEW250 22/11 A2996 RMK AO2 SLP142 T02170106 $
KISW 140054Z AUTO 00000KT 10SM CLR 16/15 A2997 RMK AO2 SLP151 T01610150
KMFI 140054Z AUTO 28005KT 10SM CLR 18/14 A2997 RMK AO2 SLP152 T01780139
KINL 140054Z AUTO 05003KT 10SM CLR 13/07 A3003 RMK AO2 SLP172 T01330072
KRFD 140054Z 00000KT 10SM CLR 16/13 A3000 RMK AO2 SLP156 T01560133
KRST 140054Z 00000KT 10SM CLR 19/12 A2999 RMK AO2 SLP157 T01890122
KVTA 140054Z AUTO 00000KT 10SM OVC060 17/14 A2998 RMK AO2 SLP148 T01720139
KPIA 140054Z 00000KT 10SM CLR 19/14 A2999 RMK AO2 SLP153 T01940139
KSET 140054Z AUTO 00000KT 10SM CLR 19/15 A2998 RMK AO2 SLP150 T01940150
KAKR 140054Z AUTO 21005KT 10SM CLR 16/11 A2995 RMK AO2 SLP139 T01610111
KSUS 140054Z 00000KT 10SM CLR 17/14 A2997 RMK AO2 SLP149 T01670139
KTQE 140054Z AUTO 12006KT 10SM CLR 23/14 A2987 RMK AO2 SLP109 T02330139
KDEC 140054Z 00000KT 10SM CLR 19/15 A2999 RMK AO2 SLP154 T01940150
KIND 140054Z 24003KT 10SM SCT037 BKN055 18/16 A2999 RMK AO2 SLP153 T01830156
KSBN 140054Z 00000KT 10SM CLR 17/16 A2998 RMK AO2 SLP152 T01670156
KBUY 140054Z AUTO 00000KT 10SM CLR 18/16 A2993 RMK AO2 SLP131 T01830161
KGSO 140054Z 28003KT 10SM BKN060 BKN250 21/14 A2994 RMK AO2 SLP130 T02110139
KBOS 140054Z 21005KT 10SM OVC009 23/21 A2973 RMK AO2 SLP067 T02280211
KLWM 140054Z VRB04KT 10SM FEW006 BKN017 BKN024 22/20 A2972 RMK AO2 LTG DSNT W AND NW SLP062 T02170200
KACY 140054Z 26006KT 10SM CLR 22/15 A2984 RMK AO2 SLP104 T02220150 $
K12N 140054Z AUTO 00000KT 18/14 A2983 RMK AO1 SLP094 T01780139
KPNE 140054Z 25005KT 10SM CLR 21/11 A2984 RMK AO2 SLP103 T02110111
KDYL 140054Z AUTO 00000KT 10SM CLR 18/13 A2983 RMK AO2 SLP097 T01780128 $
KFIG 140054Z AUTO 21004KT 10SM FEW070 15/11 A2993 RMK AO2 SLP133 T01500111
KAVP 140054Z 23004KT 10SM BKN070 19/12 A2986 RMK AO2 SLP103 T01940122
KPHL 140054Z 24006KT 10SM CLR 24/14 A2984 RMK AO2 SLP103 T02440139
PHOG 140054Z 05015KT 10SM FEW030 BKN055 30/21 A2998 RMK AO2 SLP157 T03000206
KSLC 140054Z 10005KT 10SM -RA FEW034 SCT050 OVC080 19/14 A2990 RMK AO2 RAB20 SLP077 P0002 T01940144
KAPC 140054Z 26019KT 10SM CLR 22/12 A2983 RMK AO2 PK WND 27027/0025 SLP093 T02170122
KAUW 140054Z AUTO 10SM 21/14 A2995 RMK AO2 SLP144 T02060144 $
PAHN 140054Z AUTO 11013G22KT 070V140 10SM -RA OVC009 12/11 A2985 RMK AO2 RAB2355 SLP111 P0001 T01220111 TSNO
KEVV 140054Z 00000KT 10SM CLR 21/16 A2999 RMK AO2 SLP153 T02060161
KLAF 140054Z AUTO 00000KT 10SM FEW043 SCT060 18/17 A2998 RMK AO2 SLP150 T01830167
KBUF 140054Z 25007KT 10SM FEW038 FEW100 17/13 A2985 RMK AO2 SLP107 T01720128 $
KMRY 140054Z VRB06G15KT 10SM CLR 19/11 A2991 RMK AO2 SLP139 T01940106
KMTP 140054Z AUTO 23005KT 23/22 A2976 RMK AO1 SLP077 T02280222
KHWD 140054Z 27011KT 10SM SCT020 19/13 A2989 RMK AO2 SLP129 T01940133
KBFL 140054Z 36010KT 10SM FEW110 33/04 A2975 RMK AO2 SLP068 T03280044
KRBL 140054Z AUTO 15011KT 10SM CLR 28/12 A2975 RMK AO2 SLP069 T02830122
KIPT 140054Z 30009KT 10SM FEW070 OVC090 19/11 A2985 RMK AO2 SLP107 T01940111
KGCK 140054Z 12009KT 10SM CLR 28/09 A2987 RMK AO2 SLP085 T02780089
KWLD 140054Z AUTO 11006KT 10SM CLR 29/13 A2991 RMK AO2 SLP119 T02890128
KAAO 140054Z AUTO 14005KT 10SM CLR 27/11 A2990 RMK AO2 SLP115 T02720106
PGUM 140054Z 00000KT 3SM -RA FEW038 BKN090 OVC110 24/24 A2990 RMK AO2 TSE2356 SLP119 P0021 T02440239
KIMT 140054Z AUTO 02003KT 10SM CLR 19/14 A2993 RMK AO2 SLP137 T01940139
KFWA 140054Z 00000KT 7SM BKN016 OVC026 18/17 A2998 RMK AO2 SLP152 T01780167
KMOT 140054Z 06008KT 10SM CLR 16/03 A3001 RMK AO2 SLP168 T01560028
PGSN 140054Z 25009KT 10SM FEW031 SCT041 30/25 A2983 RMK AO2 SLP120 T03000250 $
KMIV 140054Z AUTO 00000KT 10SM CLR 17/16 A2985 RMK AO2 SLP108 T01720161
K20V 140054Z AUTO 26013G19KT 10SM SCT065 SCT090 SCT110 17/06 A3011 RMK AO2
K7BM 140054Z AUTO 25013G18KT 10SM BKN070 OVC080 13/01 A3031 RMK AO2 LTG DSNT S AND SW
KCVB 140054Z AUTO 15010KT 10SM CLR 31/17 A2992 RMK AO2
KCWF 140054Z 09004KT 10SM SKC 24/16 A2994
KFSM 140054Z 07005KT 10SM CLR 26/12 A2994 RMK AO2 SLP135 T02610122
KGNB 140054Z AUTO 00000KT 10SM OVC100 19/00 A3015 RMK AO2 T01860004
KLNQ 140054Z AUTO 00000KT 10SM CLR 27/18 A2995 RMK AO2 T02680178
KMMH 140054Z AUTO 23009KT 10SM CLR 18/03 A3006 RMK AO2
KNY0 140054Z AUTO 30008KT 10SM CLR 14/14 A2981 RMK AO2
KVKS 140055Z AUTO 00000KT 10SM CLR 24/15 A2996 RMK A01
KMCX 140055Z AUTO 00000KT 10SM SCT042 17/16 A2998 RMK AO2 T01700163
KC62 140055Z AUTO 24004KT 10SM OVC009 17/17 A2997 RMK AO2 T01770177
KRID 140055Z AUTO 27004KT 10SM CLR 15/15 A3000 RMK AO2
K4R5 140055Z AUTO 07010KT 10SM SCT060 BKN070 OVC110 16/13 A2999 RMK AO2 T01610126
KBRY 140055Z AUTO 00000KT 10SM BKN050 19/15 A2999 RMK AO1
K27K 140055Z AUTO 00000KT 10SM SCT047 16/13 A3000 RMK AO1
KCNW 140055Z 12005KT 10SM SKC 28/17 A2990
KMFV 140055Z AUTO 00000KT 10SM CLR 19/17 A2986 RMK AO2 T01890172
KGAF 140055Z AUTO 01008KT 5SM HZ CLR 15/05 A3005 RMK AO2
KEZS 140055Z AUTO 00000KT 10SM CLR 19/17 A2992 RMK AO2 T01940168
KDLL 140055Z AUTO 00000KT 10SM CLR 16/15 A2997 RMK AO2 T01600149
KGPH 140055Z AUTO 00000KT 10SM CLR 23/17 A2992 RMK AO2
KANQ 140055Z AUTO 00000KT 10SM OVC009 18/18 A2996 RMK AO2
KRNV 140055Z AUTO 00000KT 10SM CLR 25/13 A2996 RMK AO2 T02500125 TSNO
KM25 140055Z AUTO 00000KT 10SM CLR 21/10 A2999 RMK AO2 PWINO
KW13 140055Z AUTO 10SM CLR 18/11 A2996 RMK AO1 T01760110
KW63 140055Z AUTO 00000KT 10SM CLR 18/18 A2991 RMK AO1
KW75 140055Z AUTO 00000KT 10SM SCT034 SCT042 SCT055 23/20 A2988 RMK AO1 T02300202
K77S 140055Z AUTO 32005G11KT 10SM BKN050 OVC060 22/10 A2986 RMK A01
KRSN 140055Z AUTO 00000KT 10SM CLR 20/16 A3001 RMK AO2 T01950158
KDRI 140055Z AUTO 00000KT 9SM CLR 23/17 A2996 RMK AO2 T02320168 $
KACP 140055Z AUTO 00000KT 10SM CLR 20/18 A2995 RMK AO2
KBQP 140055Z AUTO 00000KT 10SM CLR 18/17 RMK AO2 T01840172
KHUM 140055Z AUTO 03006KT 10SM CLR 24/17 A2995 RMK AO2 T02430167
KIER 140055Z AUTO 00000KT 10SM CLR 21/16 A2996 RMK AO2 T02050157
KMNE 140055Z AUTO 00000KT 10SM CLR 21/17 A2998 RMK AO2 T02120168
KBVU 140055Z AUTO 15013KT 28/15 A2977 RMK AO2 TSNO
KCXP 140055Z AUTO 25010KT 10SM CLR 24/04 A2991 RMK AO2
OPLA 140055Z 00000KT 3000 BR FEW100 SCT200 27/23 Q1005 BECMG 2000 RMK QFE979 A29.69
KAWG 140055Z AUTO 10004KT 10SM CLR 18/15 A2997 RMK AO2
KCNC 140055Z AUTO 12004KT 10SM CLR 21/12 A2995 RMK AO2
KCSQ 140055Z AUTO 13004KT 7SM CLR 20/15 A2994 RMK AO2
KOXV 140055Z AUTO 09006KT 10SM CLR 21/10 A2996 RMK AO2
KECS 140055Z AUTO 11013G18KT 10SM CLR 25/M01 A2988 RMK AO2
KFSW 140055Z AUTO 00000KT 10SM OVC001 16/14 A2998 RMK AO2
PATC 140055Z AUTO 17001KT 10SM -RA FEW007 SCT016 SCT032 BKN047 10/08 A2956 RMK AO2 RAB2340 SLP010 P0003 T01000084
KEOK 140055Z AUTO 00000KT 10SM BKN044 BKN070 18/13 A2998 RMK A01
KCKM 140055Z AUTO RMK A01 PNO
KSUW 140055Z AUTO 03010KT 10SM CLR 17/15 A2998 RMK AO2 T01660145
KLNC 140055Z AUTO 11004KT 10SM CLR 27/14 A2993 RMK AO2 T02720140
NZCM 140055Z AUTO 07018G28KT 9999 OVC080 M20/M27 A2897 RMK AO2 PK WND 06029/0029 WSHFT 0049 PRESFR SLP815 T11981270 $
KGDJ 140055Z AUTO 12007KT 10SM CLR 29/18 A2991 RMK AO2 T02890182
KAEJ 140055Z AUTO 29003KT 10SM 19/01 A3018 RMK AO2 T01850009
KBXA 140055Z AUTO 00000KT 10SM CLR 21/18 A2997 RMK AO2 T02060178
K1A6 140055Z AUTO 00000KT 10SM OVC060 19/16 A3002 RMK AO2 T01880160
KUCY 140055Z AUTO 00000KT 10SM SCT050 20/18 A2996 RMK A01
KACQ 140055Z AUTO 10003KT 10SM CLR 16/13 A2999 RMK AO2
KIFP 140055Z AUTO 16011KT 10SM SCT100 34/13 A2968 RMK AO2
KSGS 140055Z AUTO 00000KT 10SM CLR 21/12 A2996 RMK AO2 T02100117
KCDD 140055Z AUTO 00000KT 10SM 08/07 A3006 RMK AO2
K0E0 140055Z AUTO 12011KT 10SM CLR 20/08 A3010 RMK AO2 T01970079 TSNO
KACB 140055Z AUTO 00000KT 7SM CLR 16/15 A2992 RMK AO2 T01570150
KAEL 140055Z AUTO 00000KT 5SM HZ CLR 17/13 A2999 RMK AO2
KANJ 140055Z AUTO 32004KT 10SM CLR 16/13 A2988 RMK AO2 SLP115 T01560133
KAQO 140055Z AUTO 00000KT 10SM CLR 28/17 A2991 RMK AO2
KARM 140055Z AUTO 16004KT 10SM SCT038 SCT046 SCT050 25/23 A2992 RMK AO2 T02530232 TSNO
KAST 140055Z AUTO 25006KT 10SM SCT008 OVC075 17/14 A2989 RMK AO2 SLP121 T01670144
KAUN 140055Z AUTO 20009KT 9SM CLR 24/08 A2985 RMK A01
KBGE 140055Z AUTO 34005KT 10SM CLR 23/16 A2995 RMK AO2 T02290155
KBVI 140055Z AUTO 22004KT 10SM 16/12 A2996 RMK AO2 T01620121
KCCU 140055Z AUTO 18013G21KT 10SM BKN080 BKN090 12/M02 A3044 RMK AO2
KCPT 140055Z AUTO 09008KT 10SM CLR 28/17 A2992 RMK A01
KDUX 140055Z AUTO 13014G19KT 10SM CLR 26/09 A2995 RMK AO2 T02590091
KEXX 140055Z AUTO 00000KT 10SM CLR 19/14 A2994 RMK AO2 P0001 T01850143
KF05 140055Z AUTO 14008KT 10SM CLR 32/14 A2987 RMK AO2 T03200140
KFQD 140055Z AUTO 03005KT 10SM CLR 20/13 A2998 RMK AO2
KGWW 140055Z AUTO 00000KT 10SM CLR 20/18 A2991 RMK AO2 T01960182
KHSB 140055Z AUTO 00000KT 10SM CLR 18/17 A2999 RMK AO2 T01750170
KIPJ 140055Z AUTO 00000KT 10SM CLR 18/17 A2995 RMK AO2 T01780167
KJNX 140055Z AUTO 00000KT 10SM CLR 20/19 A2991 RMK AO2
KOMH 140055Z AUTO 28006KT 10SM CLR 18/14 A2992 RMK AO2
KPNM 140055Z AUTO 00000KT 10SM CLR 18/14 A2997 RMK AO2 TSNO
KRHP 140055Z AUTO 00000KT 10SM BKN060 17/15 A3003 RMK AO2 T01740146
KRYW 140055Z AUTO 12004KT 10SM 28/17 A2993 RMK AO2 T02750166
KSOW 140055Z AUTO 23009G14KT 10SM CLR 20/08 A3011 RMK AO2
KTDF 140055Z AUTO 00000KT 10SM CLR 16/15 A2995 RMK AO2
KJVW 140055Z AUTO 00000KT 10SM CLR 19/19 A2998 RMK AO2
KBCB 140055Z AUTO 00000KT 10SM CLR 16/12 A3004 RMK AO2 T01640119
KEMV 140055Z AUTO 00000KT 10SM CLR 16/14 A2992 RMK AO2 T01620141
KFKN 140055Z AUTO 29003KT 10SM CLR 21/12 A2990 RMK AO2 T02110115
KFYJ 140055Z AUTO 00000KT 10SM SCT065 21/16 A2990 RMK AO1 T02120162
KAVC 140055Z AUTO 00000KT 10SM CLR 17/16 A2997 RMK AO2 T01700158
KJYO 140055Z AUTO 32010G16KT BKN070 21/13 A2991 RMK AO2
KLNP 140055Z AUTO 00000KT 10SM SCT038 OVC050 16/11 A3007 RMK AO2
KHWY 140055Z AUTO 00000KT 10SM OVC070 19/17 A2990 RMK AO2 T01850170
KGUL 140055Z AUTO 06006KT 10SM FEW036 28/21 A2990 RMK A01
KBQX 140055Z AUTO 10007KT 10SM 29/22 A2992 RMK A01
KVAF 140055Z AUTO 05013KT 10SM FEW031 28/20 A2991 RMK A01
KHHV 140055Z AUTO 07016KT 10SM 29/23 A2987 RMK A01
KPVJ 140055Z AUTO 16003KT 10SM CLR 28/15 A2991 RMK AO2 T02790149
KGEV 140055Z AUTO 28006KT 10SM CLR 16/10 A3005 RMK AO2 T01580103
KMKJ 140055Z AUTO 00000KT 10SM CLR 13/11 A3006 RMK AO2 T01310105
KOKV 140055Z AUTO 29011G15KT 10SM CLR 18/10 A2991 RMK AO2
KDPL 140055Z AUTO 00000KT 10SM SCT050 21/21 A2991 RMK AO2
KSVH 140055Z AUTO 00000KT 10SM CLR 20/14 A2996 RMK AO2 T02000139
KRKR 140055Z AUTO 00000KT 10SM CLR 23/12 A2994 RMK AO2
KASJ 140055Z AUTO 00000KT 10SM CLR 18/15 A2991 RMK AO2 T01780147
KCTZ 140055Z AUTO 00000KT 10SM CLR 24/20 A2991 RMK AO2 T02420201
KERV 140055Z AUTO 12004KT 10SM CLR 26/17 A2995 RMK AO2 T02610169
KGVT 140055Z AUTO 11004KT 10SM CLR 24/12 A2994 RMK AO2 TSNO T02350122
KCCO 140055Z AUTO 00000KT 10SM CLR 19/15 A2999 RMK AO2 T01900150
KMWK 140055Z AUTO 00000KT 10SM CLR 19/14 A2999 RMK AO2 T01870136
KLOM 140055Z AUTO 00000KT 10SM CLR 17/15 A2984 RMK AO2 T01680150
KSUT 140055Z AUTO 24004KT 10SM CLR 26/22 A2990 RMK AO2 T02630217
KBKS 140055Z AUTO 10004KT 10SM CLR 27/22 A2987 RMK AO2 SLP077 T02720217 $
KFWS 140055Z AUTO 11005KT 10SM CLR 27/16 A2992 RMK AO2 T02770161
KSWW 140055Z AUTO 16006KT 10SM CLR 30/10 A2995 RMK AO2 T03010096
KBPG 140055Z AUTO 14010KT 10SM CLR 30/12 A2993 RMK AO2 T02990116
KJSO 140055Z AUTO 11004KT 10SM CLR 24/13 A2997 RMK AO2 T02390125 TSNO
KLHB 140055Z AUTO 00000KT 10SM CLR 28/20 A2992 RMK AO2 T02830195
KEBG 140055Z AUTO 08008KT 10SM CLR 28/22 A2987 RMK AO2 T02830219 PWINO
KINJ 140055Z AUTO 10007KT 10SM CLR 28/16 A2991 RMK AO2 T02800164
KJWY 140055Z AUTO 09003KT 10SM CLR 27/14 A2993 RMK AO2 T02660143
KLUD 140055Z AUTO 11005KT 7SM CLR 28/17 A2992 RMK AO2 T02800170
KSNK 140055Z AUTO 17005KT 10SM CLR 29/11 A2993 RMK AO2 T02940108
KCOM 140055Z AUTO 15007KT 10SM CLR 30/13 A2992 RMK AO2 T02990125
KGYB 140055Z AUTO 10005KT 10SM CLR 29/18 A2992 RMK AO2 T02890180
KJXI 140055Z AUTO 00000KT 10SM CLR 24/11 A2996 RMK AO2 T02390109
KJDD 140055Z AUTO 00000KT CLR 22/14 A2995 RMK AO2 PWINO
KPKV 140055Z AUTO 17006KT 10SM SCT050 28/23 A2990 RMK AO2 T02800230
KCNI 140055Z AUTO 33004KT 10SM CLR 19/14 A3000 RMK AO2 T01910145
KEYF 140055Z AUTO 00000KT 10SM SCT046 25/20 A2991 RMK AO2 T02470197
KONP 140055Z AUTO 00000KT 10SM OVC007 15/13 A2993 RMK AO2
KMKN 140055Z AUTO 14007KT 10SM CLR 30/15 A2992 RMK AO2 T02960152
KORG 140055Z AUTO 00000KT 10SM CLR 23/18 A2995 RMK AO2 T02320180
KBBD 140055Z AUTO 14007G15KT 10SM CLR 29/15 A2993 RMK AO2
KHRX 140055Z AUTO 16011G15KT 10SM 28/09 A2998 RMK AO2 T02760090
KPEZ 140055Z AUTO 15005KT 10SM CLR 29/21 A2990 RMK AO2 T02870209
KECU 140055Z AUTO 16008G13KT 10SM CLR 26/16 A3002 RMK AO2
KMDD 140055Z AUTO 14011KT 10SM SCT090 30/13 A2994 RMK AO2 T02960127
KBKD 140055Z AUTO 13008KT 7SM CLR 31/15 A2989 RMK AO2 T03140147
KMCJ 140055Z AUTO 12009KT 10SM CLR 28/18 A2990 RMK A01
K0F2 140055Z AUTO 13005KT 10SM CLR 27/18 A2991 RMK AO2 T02740180
KDZB 140055Z AUTO 00000KT 10SM CLR 28/16 A2992 RMK AO2 T02800161
KFTN 140055Z AUTO 11005KT 10SM CLR 31/17 A2988 RMK A01
KEDC 140055Z AUTO 12007KT 10SM CLR 29/17 A2989 RMK AO2
KDNN 140055Z AUTO 00000KT 10SM OVC060 19/18 A2998 RMK AO2 T01950178
KMRN 140055Z AUTO 00000KT 10SM CLR 17/16 A3001 RMK AO2 T01720157
KLWB 140055Z AUTO 32003KT 10SM SCT047 16/11 A3003 RMK AO2 T01560108
KHBI 140055Z AUTO 00000KT 10SM CLR 18/15 A2997 RMK AO2 T01800150
KLRU 140055Z AUTO 25007KT 10SM BKN080 BKN095 29/08 A2998 RMK AO2 LTG DSNT W T02870075
KATS 140055Z AUTO 19006KT 10SM CLR 25/15 A2997 RMK AO2
KALM 140055Z AUTO 21004KT 10SM CLR 27/10 A2995 RMK AO2
KHRJ 140055Z AUTO 00000KT 10SM CLR 23/16 A2992 RMK AO2 T02280159
KLAM 140055Z AUTO 13004KT 10SM BKN120 21/04 A3015 RMK AO2 T02050036
KRUQ 140055Z AUTO 00000KT 10SM CLR 17/15 A2995 RMK AO2 T01660149
KBDN 140055Z AUTO 32009G15KT 2SM HZ CLR 21/07 A2985 RMK AO2 LTG DSNT NE
KCJR 140055Z AUTO 35003KT 10SM BKN065 OVC080 19/16 A2991 RMK AO2 T01930162
KVUJ 140055Z AUTO 00000KT 10SM CLR 17/15 A2998 RMK AO2 T01700147
KTTA 140055Z AUTO 00000KT 10SM CLR 18/13 A2992 RMK AO2 T01800126
KSJX 140055Z AUTO 31008KT 10SM CLR 20/15 A2992 RMK AO2 T01970145
KEDJ 140055Z AUTO 00000KT 10SM SCT033 SCT041 BKN060 16/14 A3000 RMK A01
KHNZ 140055Z AUTO 00000KT 10SM CLR 17/14 A2993 RMK AO2 T01650135
KCEY 140055Z AUTO 23004KT 10SM CLR 20/14 A2998 RMK AO1
KLHZ 140055Z AUTO 00000KT 10SM CLR 17/14 A2993 RMK AO2
KGNT 140055Z AUTO 33004KT 10SM SCT095 17/08 A3012 RMK AO2 T01740080
K1A5 140055Z AUTO 00000KT 10SM CLR 14/13 A3006 RMK AO2 T01380129
KCAD 140055Z AUTO 00000KT 10SM CLR 16/14 A2993 RMK AO2 T01560141
KCVX 140055Z AUTO 24004KT 10SM CLR 16/16 A2991 RMK AO2 T01640156
KIRS 140055Z AUTO 29003KT 10SM SCT049 18/17 A2996 RMK AO2 T01780165
KOEB 140055Z AUTO 24003KT 10SM OVC060 18/17 A2996 RMK AO2 T01770167
KONZ 140055Z AUTO 00000KT 10SM OVC100 19/10 A2992 RMK AO2 T01900099
KOZW 140055Z AUTO 26003KT 10SM CLR 18/15 A2993 RMK AO2 T01760151
KRMY 140055Z AUTO 00000KT 10SM BKN031 BKN040 OVC060 19/17 A2994 RMK AO2 T01900170
KRQB 140055Z AUTO 30006KT 10SM CLR 19/16 A2994 RMK AO2 T01890162
KTEW 140055Z AUTO 00000KT 10SM OVC050 18/16 A2994 RMK AO2 T01840160
KTTF 140055Z AUTO 00000KT 10SM CLR 15/13 A2992 RMK AO2 T01540131
KFFA 140055Z AUTO 26005KT 10SM CLR 27/19 A2987 RMK AO2 T02670189
KSIF 140055Z AUTO 00000KT 7SM CLR 17/17 A2994 RMK AO2 T01710167
KVLL 140055Z AUTO 28003KT 10SM CLR 20/13 A2994 RMK AO2 T02030125
KHAI 140055Z AUTO 00000KT 10SM CLR 18/17 A2997 RMK AO2 T01760166
KDRM 140055Z AUTO 30003KT 10SM CLR 17/11 A2987 RMK AO2 T01680114
KFFX 140055Z AUTO 00000KT 10SM CLR 18/15 A2994 RMK AO2 T01760150
KAMN 140055Z AUTO 00000KT 10SM CLR 17/16 A2992 RMK AO2 T01720162
KBAX 140055Z AUTO 00000KT 10SM CLR 16/15 A2990 RMK AO2 T01570149
KRCZ 140055Z AUTO 00000KT 10SM CLR 22/15 A2992 RMK AO2 T02210151
KHYX 140055Z AUTO 24003KT 10SM CLR 18/15 A2991 RMK AO2 T01830148
KRNP 140055Z AUTO 00000KT 10SM CLR 17/15 A2992 RMK AO2 T01680149
KFKS 140055Z AUTO 00000KT 10SM CLR 15/13 A2993 RMK AO2 T01450131
KMDS 140055Z AUTO 10006KT 10SM CLR 22/11 A2992 RMK AO2
KIYA 140055Z AUTO 00000KT 10SM CLR 21/16 A2995 RMK AO2 T02070160
KPHP 140055Z AUTO 08007KT 10SM CLR 21/11 A2985 RMK AO2 SLP099 T02110111 TSNO
KBWP 140055Z AUTO 02008KT 10SM CLR 20/14 A2993 RMK AO2
KTME 140055Z AUTO 00000KT 7SM CLR 26/20 A2992 RMK AO2
KOKM 140055Z AUTO 13005KT 10SM CLR 26/11 A2991 RMK AO2 T02630111
KIIY 140055Z AUTO 00000KT 10SM CLR 19/16 A2996 RMK AO2 T01920161
KHQU 140055Z AUTO 00000KT 10SM CLR 19/17 A2995 RMK AO2 T01860172
KJYL 140055Z AUTO 00000KT 10SM CLR 21/18 A2993 RMK AO2 T02110182
KDZJ 140055Z AUTO 17003KT 10SM CLR 15/15 A3004 RMK AO2 T01530146
KLIC 140055Z AUTO 13009KT 10SM CLR 26/M06 A2998 RMK AO2 SLPNO T02561061
KDUC 140055Z AUTO 13008KT 10SM CLR 28/18 A2991 RMK AO2 T02780181
KDUA 140055Z AUTO 15006KT 10SM CLR 27/10 A2995 RMK AO2
K2J9 140055Z AUTO 35005KT 10SM FEW049 23/21 A2994 RMK AO2
PASV 140055Z AUTO VRB05KT 10SM BKN022 OVC036 10/05 A2951 RMK AO2 SLP996 T01030052 $
PATL 140055Z AUTO 00000KT 10SM FEW045 FEW050 11/07 A2955 RMK AO2 SLP008 T01130069 TSNO $
KQBL 140055Z AUTO 00000KT 10SM CLR 25/17 A2994 RMK AO2 SLP144 WND DATA ESTMD T02480166
KFHB 140055Z AUTO 00000KT 10SM CLR 26/23 A2993 RMK AO2 LTG DSNT SE
K0CO 140055Z AUTO 16020G28KT 10SM SCT044 OVC060 07/M05 A3047 RMK AO2
KEIK 140055Z AUTO 00000KT 10SM CLR 24/04 A2991 RMK AO2 T02420036 PWINO
KBDU 140055Z AUTO 00000KT 10SM CLR 24/05 A2992 RMK AO2
K33V 140055Z AUTO 19009G14KT 10SM SCT075 BKN095 OVC110 18/00 A3014 RMK AO1
KMDQ 140055Z AUTO 00000KT 5SM HZ CLR 19/15 A2998 RMK A02 T01930146
K4A9 140055Z AUTO 00000KT 10SM CLR A2998 RMK AO2
KALX 140055Z AUTO 00000KT 10SM CLR 19/18 A2998 RMK AO2 T01910180
KBEA 140055Z AUTO 14004KT 10SM CLR 26/21 A2989 RMK AO2 T02600209 PWINO
K0VG 140055Z AUTO 00000KT 10SM OVC060 19/15 A3002 RMK AO2
KONX 140055Z AUTO 00000KT 10SM CLR 24/14 A2988 RMK AO2 T02380138
KIXA 140055Z AUTO 00000KT 10SM CLR 16/16 A2991 RMK AO2
KORS 140055Z AUTO VRB03KT 10SM OVC085 18/13 A2985 RMK AO2
KEAT 140055Z AUTO 33007KT 2 1/2SM HZ OVC030 24/12 A2972 RMK AO2 LTG DSNT SW SLP057 T02390122
KBVS 140055Z AUTO 00000KT 10SM OVC080 19/13 A2987 RMK A01
KPLU 140055Z AUTO 00000KT 10SM SCT055 OVC070 21/10 A2987 RMK AO2
KCLS 140055Z AUTO 00000KT 10SM FEW050 FEW055 OVC080 20/14 A2987 RMK AO2
KWWR 140055Z AUTO 15011KT 10SM CLR 29/14 A2989 RMK AO2
KRNO 140055Z 28015G23KT 2 1/2SM FU BKN020 BKN070 23/04 A2987 RMK AO2 SLP066 FU BKN020 T02330039
KMYP 140055Z AUTO 26012KT 10SM BKN044 BKN055 OVC065 06/02 A3056 RMK AO2
KSTF 140055Z AUTO 00000KT 10SM CLR 19/17 A2997 RMK AO2
KVTP 140055Z AUTO 24008KT 10SM SCT045 OVC060 11/M19 A3034 RMK AO2
K04V 140055Z AUTO 21010G14KT 10SM SCT060 OVC070 16/03 A3023 RMK AO2
KSHD 140055Z AUTO 29003KT 10SM CLR 17/10 A2997 RMK AO2 T01650103
KEZF 140055Z AUTO 00000KT 10SM BKN075 19/15 A2987 RMK AO2 T01920147
KTSP 140055Z AUTO 30016G22KT 10SM CLR 23/M02 A2996 RMK AO2
KJWG 140055Z AUTO 13010KT 10SM CLR 30/17 A2990 RMK AO2 T02960168
KNKX 140055Z 27009KT 10SM FEW020 23/13 A2984 RMK AO2 SLP098 T02330128
KSCK 140055Z 27018KT 10SM CLR 24/11 A2982 RMK AO2 PK WND 26027/0021 SLP097 T02390106
KMCC 140055Z AUTO 19016KT 10SM 24/10 A2979 RMK AO2
K2V5 140055Z AUTO 14007KT 10SM CLR 27/M02 A2988 RMK AO2
KIZA 140055Z AUTO 26011KT 10SM CLR 22/12 A2986 RMK AO2
KPVF 140055Z AUTO 24006KT 210V270 10SM CLR 22/07 A2991 RMK AO1
KTQH 140055Z AUTO 00000KT 10SM CLR 22/10 A2996 RMK AO2
KLLJ 140055Z AUTO 00000KT 10SM BKN055 OVC120 15/13 A2996 RMK AO2 RAE2357 SLP105 P0000 T01500133 TSNO
KPGV 140055Z AUTO 00000KT 10SM CLR 21/21 A2990 RMK AO2
KRMN 140055Z AUTO 00000KT 10SM BKN070 20/15 A2992 RMK AO2 T01950154
KLKU 140055Z AUTO 23004KT 10SM CLR 15/ A2990 RMK AO2 T0152////
KMAN 140055Z AUTO 14009KT 10SM 24/13 A2977 RMK A01
KSZT 140055Z AUTO 00000KT 5SM HZ CLR 24/10 A2976 RMK AO2
K4O4 140055Z AUTO 15006KT 9SM FEW045 22/12 A2996 RMK AO2
KGMJ 140055Z AUTO 00000KT CLR 23/13 A2996 RMK AO2 PWINO
KGCM 140055Z AUTO 00000KT 10SM CLR 22/09 A2994 RMK AO2
KHSP 140055Z AUTO 28007KT 10SM CLR 13/13 A3004 RMK AO2 T01280128
KCDA 140055Z AUTO 05003KT 10SM RA 17/16 A2973 RMK AO2 T01730163
K1P1 140055Z AUTO 00000KT 10SM RA OVC100 18/17 A2971 RMK AO2 LTG DSNT E THRU S P0030 T01760167
KMHR 140055Z AUTO 21014KT 10SM CLR 24/10 A2979 RMK A01
KBQK 140055Z AUTO 00000KT 10SM SCT032 SCT039 24/24 A2992 RMK AO2 T02450242
KHHF 140055Z AUTO 18012KT 10SM CLR 27/14 A2988 RMK AO2 T02720135
KVCV 140055Z AUTO 24013G18KT 10SM BKN055 BKN070 28/14 A2988 RMK AO2
KCPW 140055Z AUTO 16004KT 10SM SCT009 BKN025 OVC040 05/03 A3049 RMK AO2 LTG DSNT W AND NW
KCLK 140055Z AUTO 17006KT 10SM CLR 28/13 A2988 RMK AO2
KAIK 140055Z AUTO 00000KT 10SM CLR 19/16 A2994 RMK AO2 T01940159
KAXS 140055Z AUTO 15009KT 7SM CLR 32/14 A2988 RMK AO2 T03160135
KLHM 140055Z AUTO 19011KT 10SM CLR 26/09 A2978 RMK AO1
KRPH 140055Z AUTO 11007KT 10SM CLR 30/17 A2987 RMK AO2 T03030166 $
KJZI 140055Z AUTO 00000KT 10SM CLR 26/24 A2990 RMK AO2
KCUH 140055Z AUTO 00000KT 10SM CLR 29/14 A2989 RMK AO2 T02900140
KBNL 140055Z AUTO 30004KT 10SM CLR 21/16 A2992 RMK AO2
KE38 140055Z AUTO 00000KT 10SM BKN110 20/16 A3011 RMK AO2 LTG DSNT W T02030163
KGOP 140055Z AUTO 10SM CLR 30/17 A2993 RMK AO2
KJAS 140055Z AUTO 00000KT 9SM CLR 22/15 A2994 RMK AO2
KDKR 140055Z AUTO 00000KT 10SM CLR 23/15 A2993 RMK AO2
KCTY 140055Z AUTO 00000KT 10SM CLR 24/24 A2992 RMK AO2 LTG DSNT SE T02400240
KUXL 140055Z AUTO 00000KT 10SM CLR 24/15 A2994 RMK AO2 T02440152
KBOW 140055Z AUTO 23003KT 10SM BKN039 BKN046 BKN055 24/23 A2995 RMK AO2 LTG DSNT N-SE
KAPY 140055Z AUTO 10008KT 10SM SCT070 32/19 A2987 RMK AO2 T03210193 TSNO
KLQK 140055Z AUTO 00000KT 10SM CLR 18/17 A2995 RMK AO2 T01780167
KCQW 140055Z AUTO 00000KT 10SM CLR 20/16 A2991 RMK AO2 PWINO
KMKS 140055Z AUTO 00000KT 10SM CLR 23/23 A2990 RMK AO2
KBBP 140055Z AUTO 00000KT 10SM SCT060 21/20 A2991 RMK AO2
KDYB 140055Z AUTO 00000KT 10SM CLR 24/24 A2989 RMK AO2
KHVS 140055Z AUTO 00000KT 10SM OVC060 22/17 A2992 RMK AO2
KEDE 140055Z AUTO 31005KT 10SM CLR 25/19 A2990 RMK AO2 T02500193
KARW 140055Z AUTO 00000KT 10SM CLR 25/23 A2990 RMK AO2
KOJA 140055Z AUTO 16011KT 10SM CLR 29/17 A2988 RMK AO2 T02930170
KHAF 140055Z AUTO 8SM OVC009 17/16 A2991 RMK AO2
KCGC 140055Z AUTO 00000KT 10SM CLR 25/23 A2993 RMK AO2 LTG DSNT SE
KBPC 140055Z AUTO 18012G17KT 10SM CLR 28/10 A2990 RMK AO2
KGZL 140055Z AUTO 15006KT 10SM FEW023 27/09 A2992 RMK AO2
KRCE 140055Z AUTO 15009KT 10SM CLR 27/17 A2989 RMK AO2
KWYS 140055Z AUTO 21005KT 10SM OVC100 17/05 A2997 RMK AO2
K4A6 140055Z AUTO 00000KT 10SM FEW055 BKN095 20/17 A2998 RMK AO2
KJFX 140055Z AUTO 00000KT 10SM CLR 18/18 A2998 RMK AO2
KCQF 140055Z AUTO 00000KT 10SM CLR 21/14 A2995 RMK AO2
KVJI 140055Z AUTO 00000KT 10SM CLR 16/14 A3002 RMK AO2 T01600140
KCDH 140055Z AUTO 00000KT 10SM CLR 22/16 A2996 RMK AO2
KMQI 140055Z AUTO 29003KT 10SM CLR 26/21 A2989 RMK AO2 T02610210
KVDF 140055Z AUTO 00000KT 10SM CLR 26/25 A2994 RMK AO2
KBXK 140055Z AUTO 24003KT 10SM CLR 33/14 A2975 RMK A01
KFVX 140055Z AUTO 00000KT 10SM BKN070 18/15 A2990 RMK AO2 T01830150
KOGS 140055Z AUTO 21005KT 10SM BKN065 16/16 A2974 RMK AO2
K1F0 140055Z AUTO 14003KT 10SM CLR 27/17 A2992 RMK AO2 T02660174
KRQO 140055Z AUTO 14010KT 10SM CLR 28/17 A2991 RMK AO2 T02780171
KGAO 140055Z AUTO 07003KT 10SM BKN047 26/19 A2994 RMK AO2 T02610191
KMEZ 140055Z AUTO 00000KT 9SM 20/12 A2999 RMK AO2 P0002 T01990118 $
KCWV 140055Z AUTO 00000KT 7SM CLR 23/21 A2993 RMK AO2 T02250208
KCAO 140055Z AUTO 18010KT 10SM CLR 26/08 A2998 RMK AO2 SLP095 T02610078
KSRR 140055Z AUTO 00000KT 10SM 15/10 A3019 RMK AO2 TSNO
KSVC 140055Z AUTO 21014G18KT 10SM SCT110 21/10 A3011 RMK AO2 LTG DSNT S T02100100
KPCM 140055Z AUTO 00000KT 10SM CLR 29/24 A2995 RMK AO2
KSPA 140055Z AUTO 00000KT 10SM CLR 20/13 A2995 RMK AO2
KSNC 140055Z AUTO VRB05G11KT 10SM BKN008 BKN011 OVC025 23/23 A2976 RMK AO2
KFDW 140055Z AUTO 33003KT 10SM CLR 19/12 A2993 RMK AO1
KXSA 140055Z AUTO 00000KT 10SM CLR 18/18 A2990 RMK AO2 T01760176
KJFZ 140055Z AUTO 00000KT 10SM CLR 14/12 A3005 RMK AO2 T01410120
KL35 140055Z AUTO 23004KT 10SM SCT022 15/10 A3009 RMK AO2
KOBE 140055Z AUTO 08003KT 2SM VCTS RA BR CLR 23/23 A2995 RMK AO2 LTG DSNT NE-S P0012
KDVO 140055Z AUTO 26007G19KT 10SM CLR 21/12 A2985 RMK AO2
KFSO 140055Z AUTO 28003KT 7SM RA SCT012 OVC020 18/18 A2970 RMK AO2 T01810175
KCPK 140055Z AUTO 27005KT 21/15 A2988 RMK AO2 T02120146
KPTB 140055Z AUTO 00000KT 10SM CLR 17/14 A2991 RMK AO2 T01700141
KSFQ 140055Z AUTO 26004KT 10SM CLR A2990 RMK AO2
KMTV 140055Z AUTO 00000KT 10SM CLR 17/14 A2998 RMK AO2 T01670144
KPSK 140055Z AUTO 30003KT 10SM CLR 15/12 A3001 RMK AO2 T01530118
KHLX 140055Z AUTO 31005KT 10SM CLR 16/11 A3002 RMK AO2 T01620111
KSMS 140055Z AUTO 00000KT 10SM CLR 20/18 A2992 RMK AO2
KCDN 140055Z AUTO 00000KT A2993 RMK AO2 PWINO
KCKI 140055Z AUTO 00000KT 10SM CLR A2990 RMK AO2
KHZD 140055Z AUTO 00000KT 10SM BKN095 19/15 A2996 RMK A01
KLRO 140055Z AUTO 00000KT 10SM CLR 26/25 A2989 RMK AO2
KGGE 140055Z AUTO 23003KT 10SM SCT047 SCT055 25/23 A2990 RMK AO2
K3J7 140055Z AUTO 00000KT 10SM CLR 19/15 A2996 RMK AO2
K3T5 140055Z AUTO 13003KT 10SM SCT070 BKN080 29/20 A2988 RMK AO2 T02900195
KEOE 140055Z AUTO 00000KT 10SM CLR 18/14 A2997 RMK AO2
KUVA 140055Z AUTO 12005KT 10SM CLR 28/19 A2992 RMK AO2 T02820186
KLKR 140055Z AUTO 00000KT 10SM CLR 21/14 A2994 RMK AO2
KPHT 140055Z AUTO 00000KT 10SM FEW100 18/14 A2998 RMK A01
KJSV 140055Z AUTO 14003KT 10SM CLR 25/09 A2995 RMK AO2 TSNO
KLUX 140055Z AUTO 00000KT 10SM CLR 19/16 A2995 RMK AO2
KMAO 140055Z AUTO 00000KT 10SM CLR 22/20 A2991 RMK AO2
KSRE 140055Z AUTO 10SM CLR 28/12 A2991 RMK AO2
KMNI 140055Z AUTO 00000KT 10SM CLR 21/19 A2991 RMK AO2
KNBG 140055Z 02004KT 10SM FEW040 SCT250 24/17 A2994 RMK AO2 SLP137 T02440167 $
KCCA 140055Z AUTO 00000KT 10SM CLR 21/15 A2997 RMK AO2
KMQS 140055Z AUTO 26003KT 10SM CLR 19/13 A2988 RMK AO2
KONM 140055Z AUTO 35009KT 10SM CLR 22/07 A2999 RMK AO2 LTG DSNT W T02160074
KSVE 140055Z AUTO 22011KT 10SM CLR 24/M01 A2989 RMK AO2
KCMR 140055Z AUTO 18005KT 10SM SCT075 BKN090 BKN110 13/11 A3014 RMK AO2
K4M9 140055Z AUTO 27004KT 10SM CLR 23/19 A2996 RMK AO2 PWINO
KPAN 140055Z AUTO 30006G11KT 10SM SCT060 BKN120 21/12 A3005 RMK AO2 PWINO TSNO
KGBK 140055Z AUTO 05013G18KT 350V070 9SM FEW026 28/22 A2990 RMK A01
KCVH 140055Z AUTO 23018KT 10SM CLR 22/11 A2987 RMK A01
K46D 140055Z AUTO 07008KT 10SM CLR 16/04 A3003 RMK AO2
K7L2 140055Z AUTO 09012KT 10SM CLR 19/12 A2995 RMK AO2
K9D7 140055Z AUTO 07008KT 5SM HZ CLR 14/03 A3007 RMK AO2 TSNO
KHZE 140055Z AUTO 07008G16KT 10SM CLR 17/04 A2998 RMK AO2
KD50 140055Z AUTO 08010KT 10SM CLR 14/03 A3001 RMK AO2
KD60 140055Z AUTO 09018G25KT 10SM CLR 15/01 A2999 RMK AO2
K06D 140055Z AUTO 05009KT 10SM CLR 13/05 A3007 RMK AO2
K2C8 140055Z AUTO 01005KT 9SM FEW120 14/06 A3006 RMK AO2
KD55 140055Z AUTO 05009KT 10SM CLR 12/04 A3007 RMK AO2
PAIM 140055Z AUTO 13011KT 10SM BKN100 BKN110 13/07 A2956 RMK AO2 SLP012 T01250070 $
KDLZ 140055Z AUTO 00000KT 10SM CLR 14/12 A2998 RMK AO2
KGWB 140055Z AUTO 22003KT 10SM SCT010 OVC014 17/17 A2997 RMK AO2
KRZL 140055Z AUTO 00000KT 10SM CLR 15/15 A2999 RMK AO2
KIDP 140055Z AUTO 00000KT 10SM CLR 25/10 A2993 RMK AO2 T02510097
KASW 140055Z AUTO 29003KT 10SM OVC016 17/16 A2999 RMK AO2 T01770163
KCLI 140055Z AUTO 27004KT 10SM CLR 19/15 A2995 RMK AO2 T01920150
KDKB 140055Z AUTO 00000KT 10SM CLR 18/15 A3000 RMK AO2 T01770151
KDLH 140055Z 09010KT 10SM OVC041 17/13 A2999 RMK AO2 SLP157 T01720128
KEGV 140055Z AUTO 02009KT 10SM CLR 17/12 A2998 RMK AO2 T01710122
KEHA 140055Z AUTO 17009KT 10SM CLR 26/07 A2993 RMK AO2 T02600065
KFEP 140055Z AUTO 22003KT 10SM CLR 15/15 A3000 RMK AO2 T01460145
KFWC 140055Z AUTO 00000KT 10SM CLR 17/15 A2999 RMK AO1 T01730150
KGHW 140055Z AUTO 16004KT 10SM CLR 19/11 A2997 RMK AO2
KJOT 140055Z AUTO 00000KT 10SM CLR 18/16 A2998 RMK AO2 T01750162
KPPQ 140055Z AUTO 00000KT 10SM CLR 18/14 A3000 RMK AO2 T01790143
KULM 140055Z AUTO 15006KT 10SM CLR 19/09 A2997 RMK AO2
KPVB 140055Z AUTO 00000KT 10SM CLR 20/14 A2999 RMK AO1 T01960135
K4I3 140055Z AUTO 00000KT 10SM CLR 14/12 A2999 RMK AO2
KPCZ 140055Z AUTO 00000KT 10SM CLR 18/15 A2995 RMK AO2 T01810153
KIBM 140055Z AUTO 12009KT 10SM CLR 25/M05 A2993 RMK AO2 T02471046
KAIT 140055Z AUTO 00000KT 10SM CLR 18/14 A2997 RMK AO2
KBUU 140055Z AUTO 22003KT 10SM CLR 14/14 A2998 RMK AO2 T01440136 PWINO
KHCO 140055Z AUTO 01007KT 10SM CLR 13/07 A3005 RMK AO2
KJMR 140055Z AUTO 00000KT 10SM CLR 18/14 A2999 RMK AO2
KMJQ 140055Z AUTO 11004KT 10SM CLR 16/12 A2997 RMK AO2 PWINO
KMOX 140055Z AUTO 00000KT 10SM CLR 19/09 A2995 RMK AO2
KMVE 140055Z AUTO 12005KT 10SM CLR 19/13 A2995 RMK AO2
KONA 140055Z AUTO 00000KT 10SM CLR 17/16 A2997 RMK AO2
KRGK 140055Z AUTO 00000KT 10SM CLR 17/13 A2996 RMK AO2
KROX 140055Z AUTO 00000KT 10SM SCT065 13/08 A3005 RMK AO2
KTWM 140055Z AUTO 05007KT 10SM SCT014 16/13 A3000 RMK AO2
KMWO 140055Z AUTO 00000KT 10SM CLR 17/15 A3000 RMK AO2 T01680153
KRCM 140055Z AUTO 15003KT 10SM CLR 24/15 A2993 RMK AO2
KOXI 140055Z AUTO 00000KT 10SM CLR 15/14 A2998 RMK AO1
KAID 140055Z AUTO 24003KT 10SM 18/15 A3000 RMK AO2 T01820145
KAIG 140055Z AUTO 26004KT 10SM CLR 16/13 A2997 RMK AO2 T01630128
KOGA 140055Z AUTO 09006KT 10SM CLR 26/07 A2987 RMK AO2 T02610065
KARV 140055Z AUTO 35004KT 10SM CLR 17/12 A2998 RMK AO2 T01690124
KBJI 140055Z AUTO 00000KT 10SM CLR 15/10 A3001 RMK AO2 T01460098
KCBG 140055Z AUTO 00000KT 10SM CLR 19/11 A2996 RMK AO2
KCOQ 140055Z AUTO 36003KT 10SM CLR 19/13 A2997 RMK AO2 TSNO
KDTL 140055Z AUTO 05007KT 10SM CLR 18/13 A2998 RMK AO2
KELO 140055Z AUTO 00000KT 10SM CLR 14/09 A3003 RMK AO2
KFSE 140055Z AUTO 03005KT 10SM CLR 14/08 A3002 RMK AO2
KGBG 140055Z AUTO 00000KT 10SM CLR 16/14 A3000 RMK AO2 T01550141
KHCD 140055Z AUTO 00000KT 10SM CLR 17/14 A2998 RMK AO2 T01680136
KIRK 140055Z AUTO 11003KT 10SM CLR 19/12 A2998 RMK AO2 SLP153 T01890122 TSNO
KLXN 140055Z AUTO 15007KT 10SM CLR 26/11 A2985 RMK AO2 T02590114
KMZH 140055Z AUTO 00000KT 10SM CLR 20/14 A2996 RMK AO2
KONL 140055Z AUTO 35003KT 10SM CLR 23/14 A2987 RMK AO2 T02320140
KSTE 140055Z AUTO 00000KT 10SM CLR 19/14 A2997 RMK AO2 T01870138
KUNU 140055Z AUTO 00000KT 10SM CLR 18/15 A2997 RMK AO2 T01750149
KBDH 140055Z AUTO 10003KT 10SM CLR 19/13 A2999 RMK AO2
KJYR 140055Z AUTO 15005KT 10SM CLR 24/17 A2986 RMK AO2
KHJH 140055Z AUTO 16005KT 10SM CLR 25/14 A2987 RMK AO2 T02450140
KFET 140055Z AUTO 11009KT 10SM CLR 26/16 A2988 RMK AO2 T02610160
KBVN 140055Z AUTO 13005KT 10SM CLR 24/17 A2986 RMK AO2 T02350167
KLCG 140055Z AUTO 12007KT 10SM CLR 25/13 A2988 RMK AO2 T02460126
KRPD 140055Z AUTO 00000KT 10SM 16/14 A2998 RMK AO2 T01600141
KAFK 140055Z AUTO 13007KT 10SM CLR 26/18 A2988 RMK AO2 T02550180
KBIE 140055Z AUTO 00000KT 10SM CLR 27/15 A2987 RMK AO2 T02730150
KBTA 140055Z AUTO 10007KT 10SM CLR 23/16 A2989 RMK AO2 T02260157
KCKC 140055Z AUTO 34004KT 10SM CLR 11/08 A3002 RMK AO2
KDXX 140055Z AUTO 09005KT 10SM CLR 19/14 A2995 RMK AO2
KDYT 140055Z AUTO 04020KT 10SM BKN047 17/15 A2996 RMK AO2
KGYL 140055Z AUTO 00000KT 7SM CLR 18/13 A2996 RMK AO2 T01800132
KHDE 140055Z AUTO 14007KT 10SM CLR 23/13 A2986 RMK AO2 T02290133
KJYG 140055Z AUTO 00000KT 10SM CLR 18/12 A2996 RMK AO2 TSNO
KLVN 140055Z AUTO 00000KT 7SM CLR 17/11 A2998 RMK AO2
KMWM 140055Z AUTO 10004KT 10SM CLR 16/12 A2996 RMK AO2
KPWC 140055Z AUTO 01003KT 10SM CLR 18/14 A3001 RMK AO2
KRRT 140055Z AUTO 03006KT 10SM CLR 15/08 A3006 RMK AO2
KSAZ 140055Z AUTO 03004KT 10SM CLR 21/13 A2998 RMK AO2
KTOB 140055Z AUTO 00000KT 10SM CLR 16/13 A2999 RMK AO2
KVVV 140055Z 12005KT 10SM 21/12 A2993 RMK AO2
KHZX 140055Z AUTO 01005KT 10SM CLR 19/14 A2998 RMK AO2
KGDB 140055Z AUTO 07003KT 10SM CLR 19/13 A2996 RMK AO2 T01930131
KCFE 140055Z AUTO 00000KT 9SM FEW050 SCT060 16/14 A2996 RMK AO2
KTKC 140055Z AUTO 13004KT 10SM CLR 20/10 A2996 RMK AO2 T02000095
KLYV 140055Z AUTO 10005KT 10SM CLR 19/12 A2994 RMK AO2
KCIR 140055Z AUTO 00000KT 10SM CLR 18/16 A2997 RMK AO2 T01810156
KSYN 140055Z AUTO 00000KT 10SM CLR 17/15 A2997 RMK AO2 T01720151
KPEX 140055Z AUTO 00000KT 10SM CLR 16/14 A2997 RMK AO2
K21D 140055Z AUTO 00000KT 10SM CLR 17/13 A2997 RMK AO2
K14Y 140055Z AUTO 00000KT 4SM HZ CLR 17/13 A2996 RMK AO2
KY63 140055Z AUTO 06003KT 10SM CLR 20/15 A2995 RMK AO2 T02000147
K9MN 140055Z AUTO 00000KT 10SM CLR 22/12 A2999 RMK AO1 T02150123
KD39 140055Z AUTO 15003KT 10SM CLR 18/12 A2996 RMK AO2 T01760124
KIKW 140055Z AUTO 00000KT 10SM CLR 18/17 A2990 RMK AO2 T01760166
KLNL 140055Z AUTO 02007KT 10SM CLR 16/12 A3001 RMK AO2 T01570122
KEFK 140055Z AUTO 00000KT 3SM RA SCT017 BKN065 OVC100 17/16 A2971 RMK AO2 T01720159
KFKA 140055Z AUTO 00000KT 4SM HZ CLR 19/13 A3000 RMK AO2 T01880126
KGVW 140055Z AUTO 10009KT 10SM CLR 27/19 A2993 RMK A01
KOVL 140055Z AUTO 00000KT 10SM CLR 19/12 A2995 RMK AO2
KRNH 140055Z AUTO 00000KT 10SM CLR 17/15 A2997 RMK AO2 T01740146
KUGN 140055Z 00000KT 10SM CLR 17/15 A2997 RMK AO2 SLP143 LAST T01670150 $
KO22 140055Z AUTO 24005KT 10SM CLR 26/05 A2986 RMK A01
KATP 140055Z AUTO 10008KT 10SM FEW035 FEW041 FEW055 29/22 A2991 RMK A01
KGHG 140055Z AUTO 18004KT 10SM BKN009 OVC012 22/21 A2973 RMK AO2
EHRD 140055Z AUTO 04003KT 9999 NSC 16/12 Q1008 NOSIG
KLDJ 140055Z AUTO 29006KT 10SM CLR 23/11 A2981 RMK AO2 T02260105
K6S2 140055Z AUTO 31005KT 10SM OVC007 16/16 A2990 RMK AO2
KUTA 140055Z AUTO 00000KT 8SM CLR 22/15 A2996 RMK AO2 T02180154 $
KUOX 140055Z AUTO 00000KT 10SM -RA CLR 20/17 A3000 RMK AO2
KCRX 140055Z AUTO 00000KT 10SM CLR 20/16 A2997 RMK AO2
KLGC 140055Z AUTO 00000KT 10SM CLR 18/15 A2998 RMK AO2 T01760149
KGOO 140055Z AUTO VRB05KT 10SM CLR 24/06 A2990 RMK A01
KRTS 140055Z AUTO 25014G20KT 5SM HZ CLR 21/M01 A2994 RMK AO2
KIDI 140055Z AUTO 27008KT 10SM BKN050 OVC060 16/12 A2999 RMK A01
KUKT 140055Z AUTO 00000KT 10SM CLR 16/14 A2985 RMK A01
KAIO 140055Z AUTO 00000KT 10SM CLR 22/16 A2991 RMK AO2
KAAT 140055Z AUTO 25013KT 10SM CLR 23/M02 A2986 RMK AO2 SLP076 T02331017
KXLL 140055Z AUTO 21004KT 10SM CLR 18/13 A2985 RMK AO2
K0A9 140055Z AUTO 00000KT 10SM OVC060 16/15 A3000 RMK A01
KM02 140055Z AUTO 00000KT 10SM BKN085 19/13 A2998 RMK A01
KU42 140055Z AUTO 15009KT 10SM BKN075 BKN090 OVC120 18/15 A2993 RMK AO1 T01760146
KFLY 140055Z AUTO 15006KT 10SM CLR 20/M04 A3009 RMK AO2 T02041038
KQHY 140055Z AUTO 04003KT 10SM CLR 25/17 M RMK AO2 SLPNO T02510168 $
K20U 140055Z AUTO 12015G21KT 10SM CLR 20/07 A2990 RMK AO2
KRUG 140055Z AUTO 08009KT 10SM CLR 13/04 A3003 RMK AO2
KY19 140055Z AUTO 08012G17KT 10SM CLR 18/10 A2996 RMK AO2
KS25 140055Z AUTO 10015KT 10SM CLR 18/04 A2994 RMK AO2
K08D 140055Z AUTO 08010G18KT 10SM CLR 15/02 A3000 RMK AO2
KBAC 140055Z AUTO 04007KT 10SM CLR 15/06 A3000 RMK AO2
K2D5 140055Z AUTO 03008KT 9SM CLR 17/13 A2997 RMK AO2
KICL 140055Z AUTO VRB03KT 10SM CLR 23/16 A2992 RMK AO2
KCBF 140055Z AUTO 12008KT 10SM CLR 23/14 A2988 RMK AO2
KOLZ 140055Z AUTO 00000KT 10SM CLR 18/14 A3000 RMK A01
KIKV 140055Z AUTO 00000KT 10SM CLR 17/13 A2996 RMK AO2
KDEH 140055Z AUTO 00000KT 10SM FEW043 BKN070 18/15 A2997 RMK AO2
KVTI 140055Z AUTO 07004KT 10SM CLR 18/13 A2998 RMK AO2 T01760131
KIIB 140055Z AUTO 00000KT 10SM CLR 16/14 A3000 RMK AO2 T01600141
KCKP 140055Z AUTO 11006KT 10SM CLR 21/13 A2994 RMK AO2 T02130126
KRYV 140055Z AUTO 00000KT 10SM CLR 16/15 A2996 RMK AO2 T01570149
TXKF 140055Z 23005KT 9999 VCSH FEW032 26/21 Q1018
KEFT 140055Z AUTO 00000KT 10SM CLR 21/12 A2998 RMK AO2 T02100115
KMDZ 140055Z AUTO 00000KT 10SM CLR 15/14 A2998 RMK AO2 T01480142 PWINO
KOEO 140055Z AUTO 00000KT 10SM CLR 19/17 A2999 RMK AO2 T01870173 PWINO
KPDC 140055Z AUTO 00000KT 10SM CLR 18/15 A2997 RMK AO2 T01750150
KOOA 140055Z AUTO 09005KT 10SM CLR 19/14 A2998 RMK AO2 T01860136
KLUM 140055Z AUTO 00000KT 10SM CLR 20/14 A2997 RMK AO2 T01990138
KTKV 140055Z AUTO 00000KT 10SM CLR 14/12 A2997 RMK AO2 T01400120 PWINO
KRCX 140055Z AUTO 00000KT 10SM CLR 16/14 A2999 RMK AO2 T01610140
KC29 140055Z AUTO 00000KT 10SM CLR 17/16 A2998 RMK AO1 T01670159
KBCK 140055Z AUTO 00000KT 10SM CLR 15/14 A2997 RMK AO2 T01460137
KUBE 140055Z AUTO 00000KT 10SM CLR 16/13 A2997 RMK AO2
KFXY 140055Z AUTO 00000KT 10SM CLR 13/12 A2999 RMK AO2
KI75 140055Z AUTO 10004KT 10SM CLR 18/14 A2995 RMK AO2 T01750135
KLRJ 140055Z AUTO 10010KT 10SM CLR 24/14 A2989 RMK AO2
KCCY 140055Z AUTO 00000KT 10SM CLR 17/14 A2999 RMK AO2
KAXA 140055Z AUTO 12005KT 10SM CLR 20/13 A2996 RMK A01
KCIN 140055Z AUTO 00000KT 10SM CLR 18/15 A2994 RMK AO2
KADU 140055Z AUTO 00000KT 10SM SCT004 SCT049 BKN095 19/16 A2995 RMK AO2 PWINO
KMUT 140055Z AUTO 00000KT 10SM CLR 18/16 A2998 RMK AO2
KIFA 140055Z AUTO 00000KT 10SM CLR 19/13 A2999 RMK AO2 T01860131
KGGI 140055Z AUTO 00000KT 10SM CLR 19/12 A2998 RMK AO2 T01900121
KPEA 140055Z AUTO 09004KT 10SM CLR 19/10 A2997 RMK AO2 T01860097
KBLV 140055Z 00000KT 10SM SCT150 SCT250 18/13 A2998 RMK AO2A FU SCT150 SLP154 T01800131 TSNO CHINO RWY14R $
EHEH 140055Z AUTO 03007KT 9999 -RA OVC023 15/14 Q1008 RERA REDZ WHT
EHBK 140055Z AUTO 04007KT 010V070 9999 BKN005 OVC006 17/16 Q1007
EHDL 140055Z AUTO 01001KT 9999 OVC130 12/11 Q1008 BLU
EHGG 140055Z AUTO 21003KT 9999 BKN037 11/11 Q1008
EHGR 140055Z AUTO 04006KT 360V070 9000 -RA BKN052 OVC058 15/14 Q1008 RERA REDZ BLU
EHKD 140055Z AUTO 31002KT 9999 BKN035 OVC210 13/12 Q1008 BLU
EHLE 140055Z AUTO 00000KT 9999 NSC 12/11 Q1008
EHLW 140055Z AUTO 23003KT 9999 OVC038 14/13 Q1008 BLU
KCAV 140055Z AUTO 12007KT 10SM SCT040 16/13 A2998 RMK A01
KBNW 140055Z AUTO 13003KT 10SM CLR 18/13 A2998 RMK AO2
KDNS 140055Z AUTO 10007KT 10SM CLR 21/17 A2994 RMK AO2
KFFL 140055Z AUTO 10004KT 10SM CLR 18/10 A2997 RMK A01
KC09 140055Z AUTO 00000KT 10SM CLR 18/17 A2998 RMK AO2 T01780171
KC75 140055Z AUTO 00000KT 10SM CLR 16/15 A2998 RMK AO2 T01630154
KFOA 140055Z AUTO 00000KT 10SM CLR 18/15 A2999 RMK AO2
KIGQ 140055Z AUTO 00000KT 10SM CLR 19/16 A2998 RMK AO2 T01880164
KDNV 140055Z AUTO 00000KT 10SM SCT060 18/17 A2999 RMK AO2 T01750166
KIJX 140055Z AUTO 00000KT CLR 17/14 A2998 RMK AO2 T01700135
KMWA 140055Z AUTO 00000KT 10SM CLR 17/15 A2999 RMK AO2 T01730145
K1H2 140055Z AUTO 00000KT 10SM CLR 17/16 A3001 RMK AO2 T01710156
KGPI 140055Z 16008KT 4SM FU BKN042 20/09 A2982 RMK AO2 SLP089 T02000094
KCMA 140055Z 24007KT 10SM CLR 24/16 A2981 RMK AO2 SLP102 T02440156
KNUQ 140055Z AUTO 29009G15KT 10SM CLR 21/10 A2988 RMK AO2
KENL 140055Z AUTO 00000KT 10SM 17/15 A2999 RMK AO2 T01670151
FJDG 140055Z 10013G18KT 9999 FEW021 SCT075 BKN220 26/25 A2988 RMK SLP115 T02640245
KRSV 140055Z AUTO 26003KT 10SM SCT060 17/16 A3000 RMK AO2 T01690156
KVNC 140055Z AUTO 00000KT 10SM CLR 28/23 A2993 RMK AO2 LTG DSNT SE
K42J 140055Z AUTO 00000KT 10SM CLR 25/25 A2993 RMK A01
K3LF 140055Z AUTO 00000KT 10SM CLR 17/14 A3001 RMK AO2 T01700142
KM30 140055Z AUTO 00000KT 10SM CLR 16/13 A2998 RMK AO2 T01570133
K9V9 140055Z AUTO 08004KT 10SM CLR 24/12 A2986 RMK AO2 T02390120
KVER 140055Z AUTO 10006KT 10SM CLR 24/17 A2996 RMK AO2 T02350165
KCBK 140055Z AUTO 13007KT 10SM CLR 26/04 A2989 RMK AO2 T02630036
KNRN 140055Z AUTO 15007KT 10SM CLR 27/06 A2988 RMK AO2
KOIN 140055Z AUTO 14008KT 10SM CLR 29/06 A2990 RMK AO1 T02930057
KPTS 140055Z AUTO 00000KT 10SM CLR 24/12 A2995 RMK AO2 T02390120 PWINO
KVKY 140055Z AUTO 10SM CLR 27/17 A2996 RMK A01
KVOA 140055Z AUTO 05007KT 10SM CLR 27/19 A2994 RMK A01
KCNK 140055Z AUTO 16008KT 10SM CLR 26/12 A2987 RMK AO2 SLP101 T02610122 $
PGWT 140055Z 23008KT 7SM VCSH SCT017 BKN100 BKN150 29/26 A2982 RMK VCSH NW
KSLO 140055Z AUTO 00000KT 10SM CLR 18/16 A2999 RMK AO2 T01800160
K96D 140055Z AUTO 03008KT 10SM CLR 14/03 A3007 RMK AO2
KJYM 140055Z AUTO 24004KT 10SM OVC050 17/16 A2996 RMK AO2 T01680160
KLDM 140055Z AUTO 00000KT 3/4SM BR VV005 15/14 A2994 RMK AO2 T01490138
KMCD 140055Z AUTO 30003KT 10SM CLR 17/17 A2989 RMK AO2 T01710171
KMGN 140055Z AUTO 28003KT 10SM CLR 17/16 A2990 RMK AO2 T01770161
KMOP 140055Z AUTO 00000KT 10SM CLR 17/17 A2991 RMK AO2 T01740173
KPOV 140055Z AUTO 00000KT 10SM CLR 14/10 A2994 RMK AO2 T01420102 PWINO
PAEH 140055Z AUTO 29024KT 180V330 10SM BKN007 BKN055 10/10 A2956 RMK AO2 PK WND 29031/0000 SLP012 T01010097
KLCK 140055Z AUTO 00000KT 10SM SCT050 BKN065 16/13 A2998 RMK AO2 T01560132
K1R7 140055Z AUTO 00000KT 10SM CLR 17/17 A3000 RMK AO2 PWINO
KLUA 140055Z AUTO 10003KT 10SM CLR 20/09 A2994 RMK AO2
KHFJ 140055Z AUTO 13003KT 10SM CLR 22/13 A2999 RMK AO2
EHAM 140055Z 14001KT CAVOK 15/12 Q1008 NOSIG
EHAK 140055Z AUTO 34015KT 300V020 9999 FEW031/// BKN044/// OVC049/// 15/09 Q1008
EHDV 140055Z AUTO 34008KT 9999 NSC 16/// Q1009
EHFD 140055Z AUTO 31019KT 9999 FEW044/// 16/08 Q1007
EHJA 140055Z AUTO 01007KT 9999 SCT020/// BKN027/// 17/11 Q1009
EHVK 140055Z AUTO 02004KT 9999 DZ OVC026 16/12 Q1008 BLU
EHVL 140055Z AUTO 36008KT 9999 SCT025 BKN030 OVC038 17/12 Q1008 BLU
EHWO 140055Z AUTO 06007KT 030V090 9999 -SHRA SCT071 OVC076 15/14 Q1008 REDZ BLU
EHQE 140055Z AUTO /////KT 9999 FEW024 BKN031 17/12 Q1009
EHJR 140055Z AUTO 06004KT //// // ///////// 17/10 Q1009 RE// W20/H13
EHKV 140055Z AUTO 02006KT 320V060 9999 FEW031 17/09 Q1009
EHMA 140055Z AUTO 33013KT 9999 FEW025 BKN033 OVC038 17/11 Q1008
EHMG 140055Z AUTO 33011KT 9999 FEW028 SCT032 17/10 Q1009
EHPG 140055Z AUTO 06009KT 9999 FEW026 18/12 Q1009
EHSA 140055Z AUTO 08012KT 9999 -RA ///////// 18/13 Q1008 W21/H8
EHSC 140055Z AUTO 08010KT 9999 ///////// 18/13 Q1008 W20/H7
KOSC 140055Z AUTO 24004KT 10SM CLR 16/14 A2988 RMK AO2 T01600142
KPHN 140055Z AUTO 00000KT 10SM SCT090 14/10 A2990 RMK AO2
KDUH 140055Z AUTO 25003KT 10SM SCT048 SCT060 19/14 A2994 RMK AO2 T01870135
KFPK 140055Z AUTO 00000KT 10SM OVC035 19/16 A2993 RMK AO2 T01870161
KAHQ 140055Z AUTO 11005KT 10SM CLR 24/17 A2987 RMK AO2 T02420165
KLWA 140055Z AUTO 00000KT 10SM CLR 16/15 A2997 RMK AO2 T01600148
KPZQ 140055Z AUTO 28003KT 10SM SCT032 18/16 A2989 RMK AO2 T01820161
KCFS 140055Z AUTO 27003KT 10SM CLR 16/15 A2990 RMK AO2 T01620150
KANW 140055Z AUTO 10007KT 10SM CLR 20/13 A2990 RMK AO2 T02020129
KETB 140055Z AUTO 00000KT 10SM CLR 16/14 A2996 RMK AO2
KPBH 140055Z AUTO 00000KT 10SM CLR 15/13 A2997 RMK AO2 T01530130
KRRL 140055Z AUTO 26003KT 10SM CLR 16/13 A2996 RMK AO2 T01640132 TSNO
KCKN 140055Z AUTO 06006KT 10SM CLR 17/05 A3002 RMK AO2
KFBL 140055Z AUTO 00000KT 10SM CLR 14/13 A2998 RMK AO2
KFFM 140055Z AUTO 00000KT 10SM CLR 21/13 A2994 RMK AO2
KLJF 140055Z AUTO 00000KT 10SM CLR 19/10 A2996 RMK AO2
KSAR 140055Z AUTO 00000KT 10SM CLR 17/12 A2999 RMK AO2 T01710124
KPMV 140055Z AUTO 11006KT 10SM CLR 24/17 A2989 RMK AO2 T02370170
KERY 140055Z AUTO 30007KT 10SM CLR 15/12 A2991 RMK AO2 T01530116
KISQ 140055Z AUTO 33006KT 10SM CLR 16/13 A2992 RMK AO2 T01560132
KLXL 140055Z AUTO 00000KT 10SM 19/13 A2996 RMK AO2
KRZN 140055Z AUTO 00000KT 10SM CLR 17/15 A2996 RMK AO2 T01700145
KHON 140055Z AUTO 09006KT 10SM CLR 24/12 A2987 RMK AO2 SLP111 T02390122
KAUH 140055Z AUTO 15006KT 10SM CLR 23/17 A2986 RMK AO2 T02320165
KJKJ 140055Z AUTO 03005KT 10SM CLR 18/11 A2998 RMK AO2 TSNO
KSPF 140055Z AUTO 09013G20KT 8SM CLR 23/06 A2988 RMK AO2
KGLY 140055Z AUTO 13005KT 10SM CLR 23/17 A2994 RMK AO2
KY70 140055Z AUTO 00000KT 10SM BKN023 OVC042 20/17 A2993 RMK AO2 T01950174
K04W 140055Z AUTO 00000KT 10SM CLR 17/16 A2996 RMK AO2
KY51 140055Z AUTO 00000KT 10SM CLR 18/17 A3000 RMK AO1 T01750167
KMZZ 140055Z AUTO 00000KT 10SM OVC040 17/17 A3000 RMK AO2 T01710166
KLOT 140055Z AUTO 27003KT 10SM CLR 21/16 A2999 RMK AO2
KCNB 140055Z AUTO 12004KT 10SM CLR 19/13 A2995 RMK AO2 T01900131
KMKG 140055Z 31005KT 10SM FEW250 19/16 A2994 RMK AO2 SLP139 T01890156 $
KGWR 140055Z AUTO 03008KT 10SM CLR 17/17 A2996 RMK A01
KS32 140055Z AUTO 05007KT 10SM CLR 15/04 A3002 RMK AO2 TSNO
KGHB 140055Z AUTO 04013KT 9SM CLR 28/20 A2993 RMK A01
KI35 140055Z AUTO 00000KT 10SM OVC060 17/17 A3002 RMK AO2 T01720171
KEZM 140055Z AUTO 00000KT 10SM CLR 19/14 A2996 RMK AO2
K6A1 140055Z AUTO 34004KT 10SM CLR 17/14 A2998 RMK AO2 T01740138
K2I0 140055Z AUTO 00000KT 10SM CLR 21/17 A3000 RMK AO2 T02060167
KGGP 140055Z AUTO 00000KT 10SM CLR 15/15 A2999 RMK AO2
K6A2 140055Z AUTO 00000KT 10SM CLR 18/13 A2998 RMK AO2
KD25 140055Z AUTO 03008KT 10SM CLR 16/13 A2999 RMK AO2 T01620127
KMGC 140055Z AUTO 00000KT 3SM BR CLR 15/15 A2999 RMK AO2
KM40 140055Z AUTO 00000KT 9SM CLR 19/19 A2999 RMK AO2
KMQJ 140055Z AUTO 00000KT 10SM SCT027 BKN042 OVC048 17/17 A3001 RMK AO1
KD95 140055Z AUTO 00000KT 10SM CLR 18/11 A2992 RMK AO2 T01810113
KFYG 140055Z AUTO 00000KT 10SM CLR 19/15 A2997 RMK AO2
KAJZ 140055Z AUTO 08007KT 10SM SCT065 BKN095 OVC120 18/13 A3006 RMK AO2 LTG DSNT SE T01820133
KBGF 140055Z AUTO 18004KT 10SM CLR 19/15 A2999 RMK A01
KINF 140055Z AUTO 00000KT 7SM CLR 25/25 A2994 RMK AO2
KCKZ 140055Z AUTO 27004KT 10SM FEW060 18/13 A2985 RMK AO2
K6B0 140055Z AUTO 20003KT 10SM SCT020 OVC028 18/18 A2972 RMK AO2 T01830183 P0001
KPPO 140055Z AUTO 00000KT 10SM CLR 14/14 A2999 RMK AO2 T01390139
KTHA 140055Z AUTO 00000KT 10SM CLR 17/15 A2999 RMK A01
KE11 140055Z AUTO 18003KT 10SM CLR 27/13 A2996 RMK AO2 T02700134
KOLE 140055Z AUTO 00000KT 10SM SCT005 SCT031 BKN060 A2992 RMK AO2
K3R7 140055Z AUTO 10SM CLR 24/16 A2994 RMK AO2 T02380158
KIOB 140055Z AUTO 32003KT CLR 17/14 A3003 RMK AO2 PWINO
KSRB 140055Z AUTO 00000KT 10SM CLR 16/15 A3000 RMK A01
KFZG 140055Z AUTO 00000KT 10SM CLR 20/17 A2995 RMK AO2 T01980172
KAZE 140055Z AUTO 00000KT 10SM CLR 23/16 A2993 RMK AO2 T02280158
KFMM 140055Z AUTO 11008KT 10SM CLR 26/M00 A2989 RMK AO2
KF44 140055Z AUTO 00000KT 10SM CLR 24/16 A2993 RMK AO2
KF46 140055Z AUTO 13005KT 10SM CLR 26/14 A2994 RMK AO2 T02600137
KHAE 140055Z AUTO 12003KT 10SM CLR CLR A2998 RMK AO2
KPCW 140055Z AUTO 25007KT 10SM SCT060 18/16 A2993 RMK AO2
KOCQ 140055Z AUTO 00000KT 10SM CLR 17/17 A2991 RMK AO1 T01720172
KI69 140055Z AUTO 31004KT 10SM OVC060 19/14 A3001 RMK AO2 T01930140
KCFD 140055Z AUTO 00000KT 10SM CLR 28/18 A2993 RMK AO2 T02750181
KOPL 140055Z AUTO 00000KT 10SM CLR 20/17 A2996 RMK AO2 T01970167
K82V 140055Z AUTO 12009KT 10SM CLR 26/M06 A2994 RMK AO2
K1V6 140055Z AUTO 25005KT 7SM CLR 26/03 A2996 RMK AO2
KY23 140055Z AUTO 00000KT 10SM CLR 18/15 A2997 RMK AO2 T01770146
KPRS 140055Z AUTO 36013G18KT 10SM CLR 27/16 A2993 RMK AO2 LTG DSNT N AND SW T02730156
KCMD 140055Z AUTO 00000KT 10SM CLR 17/16 A3000 RMK AO2
KFBR 140055Z AUTO 00000KT 10SM SCT080 SCT085 16/12 A3006 RMK AO2 LTG DSNT W T01580115
KDYA 140055Z AUTO 00000KT 7SM CLR 19/18 A2997 RMK AO2 T01900175
KFWB 140055Z AUTO 00000KT 10SM CLR 21/17 A3000 RMK AO2
KLXY 140055Z AUTO 00000KT 10SM CLR 27/17 A2992 RMK AO2 T02720165
KC35 140055Z AUTO 00000KT 10SM CLR 18/15 A2997 RMK AO2 P0001 T01810153 PWINO
KD57 140055Z AUTO 08010KT 10SM CLR 18/07 A2992 RMK AO2
KIMM 140055Z AUTO 11005KT 10SM VCTS BKN050 25/23 A2993 RMK AO2 LTG DSNT ALQDS
KMMI 140055Z AUTO 00000KT 10SM CLR 18/15 A3000 RMK A01
KUSE 140055Z AUTO 27004KT 10SM SCT047 BKN055 BKN065 18/18 A2995 RMK AO2
K5M9 140055Z AUTO 00000KT 10SM CLR 19/15 A2999 RMK AO2 T01900146
KN03 140055Z AUTO 23004KT 10SM CLR 13/12 A2987 RMK AO2
KF70 140055Z AUTO 20010KT 10SM SCT050 26/16 A2984 RMK AO2
KOKZ 140055Z AUTO 00000KT 10SM CLR 18/16 A2995 RMK AO2 T01750161
KCVC 140055Z AUTO 00000KT 10SM CLR 18/15 A2997 RMK AO2
K28J 140055Z AUTO 14004KT 10SM FEW044 SCT060 BKN075 24/23 A2993 RMK AO2
KSEM 140055Z AUTO 00000KT 10SM FEW049 19/18 A2996 RMK AO2
K0R0 140055Z AUTO 00000KT 10SM -RA CLR 18/17 A2999 RMK AO2
KHHG 140055Z AUTO 00000KT 10SM SCT028 SCT033 OVC055 18/18 A2998 RMK AO2 T01770177
KHZL 140055Z AUTO 27003KT 10SM SCT080 18/11 A2992 RMK AO2
KSCD 140055Z AUTO 00000KT 10SM BKN110 18/16 A2998 RMK AO2 T01840161
KAXV 140055Z AUTO 25004KT 10SM BKN023 OVC060 17/15 A2999 RMK AO2
KL18 140055Z AUTO 21008KT 10SM CLR 25/14 A2984 RMK AO2
K24J 140055Z AUTO 00000KT 10SM 24/24 A2992 RMK A01
KAZC 140055Z AUTO 11011KT 10SM SCT044 SCT060 SCT070 19/14 A3003 RMK AO2 LTG DSNT NW
KSYM 140055Z AUTO 00000KT 10SM FEW038 SCT045 BKN060 18/13 A3001 RMK AO2
KPVE 140055Z AUTO 00000KT 9SM CLR 20/15 A2997 RMK A01
KN38 140055Z AUTO 19004KT 10SM CLR 12/12 A2990 RMK AO2
KRNC 140055Z AUTO 00000KT 10SM CLR 18/15 A2999 RMK A01
KSYI 140055Z AUTO 00000KT 10SM CLR 18/15 A2998 RMK A01
KMOR 140055Z AUTO 00000KT 10SM SCT055 OVC070 21/15 A2999 RMK A01
PAUT 140055Z AUTO 30023G27KT 10SM SCT016 BKN039 OVC049 09/07 A2995 RMK AO2
KMEV 140055Z AUTO 25010G17KT 10SM CLR 24/02 A2990 RMK AO2
KLCQ 140055Z AUTO 00000KT 10SM CLR 23/23 A2993 RMK AO2 LTG DSNT SE
KRZT 140055Z AUTO 00000KT 10SM SCT055 15/15 A2999 RMK AO2 PWINO
K1A9 140055Z AUTO 00000KT 10SM CLR 19/17 A2996 RMK AO2 T01910171
KGKT 140055Z AUTO 00000KT 10SM OVC070 20/15 A2999 RMK A01
KPOY 140055Z AUTO 07005KT 10SM CLR 25/M06 A2980 RMK AO2
KU68 140055Z AUTO 13005KT 10SM CLR 28/M01 A2974 RMK AO2
KEQA 140055Z AUTO 14008KT 10SM CLR 27/09 A2992 RMK AO2
PAAD 140055Z AUTO 08024G30KT 10SM OVC005 01/00 A2974 RMK AO2 T00130001
KBDG 140055Z AUTO 29009KT 10SM 20/07 A3012 RMK AO1 T01960074
KY49 140055Z AUTO 03003KT 10SM CLR 16/12 A3000 RMK AO2 T01640122
K3N8 140055Z AUTO 05005KT 10SM CLR 15/11 A3000 RMK AO2 T01520112
K6L4 140055Z AUTO 00000KT 10SM BKN055 17/14 A3002 RMK AO2
KW31 140055Z AUTO 00000KT 10SM CLR 17/16 A2991 RMK AO1 T01730156
KCLW 140055Z AUTO 00000KT 10SM CLR 27/23 A2993 RMK AO2
KEDN 140055Z AUTO 35003KT 10SM CLR 19/15 A2995 RMK AO2 T01870152
KFKR 140055Z AUTO 23003KT 10SM OVC055 18/17 A2999 RMK AO2
KFRR 140055Z AUTO 00000KT 10SM CLR 18/11 A2992 RMK AO1
KW78 140055Z AUTO 00000KT 10SM CLR 18/16 A2993 RMK AO1 T01780155
KASN 140055Z AUTO 00000KT 10SM CLR 19/15 A2998 RMK AO2 T01940152
KBKT 140055Z AUTO 00000KT 10SM CLR 19/14 A2992 RMK AO1 T01900137
KHVE 140055Z AUTO 21013G21KT 10SM BKN090 23/07 A2995 RMK AO2
KDTA 140055Z AUTO 19014KT 10SM SCT055 19/09 A2993 RMK AO1
KW81 140055Z AUTO 00000KT 10SM CLR 16/15 A2991 RMK AO1 T01600145
KOLG 140055Z AUTO 00000KT 10SM CLR 16/11 A2995 RMK AO1
KLVL 140055Z AUTO 00000KT 10SM CLR 19/16 A2992 RMK AO1 T01900161
KI67 140055Z AUTO 00000KT 10SM BKN050 18/14 A2999 RMK AO1
K66R 140055Z AUTO 10003KT 10SM CLR 28/19 A2992 RMK AO2 T02790188
K8W2 140055Z AUTO 33003KT 10SM CLR 16/14 A2995 RMK AO1 T01550137
KS39 140055Z AUTO 29014KT 9SM CLR 23/06 A2982 RMK AO2
K1K1 140055Z AUTO 15003KT 10SM CLR 26/09 A2991 RMK AO2 T02630089
K7W4 140055Z AUTO 00000KT 10SM CLR 18/16 A2989 RMK AO1 T01760162
KW96 140055Z AUTO 00000KT 10SM CLR 20/14 A2989 RMK AO1 T01960141
KELK 140055Z AUTO 17008KT 6SM HZ CLR 29/16 A2989 RMK AO2 SLP409 T02890155 $
KCXE 140055Z AUTO 00000KT 10SM CLR 18/16 A2992 RMK AO1 T01770161
KAQX 140055Z AUTO 00000KT 10SM CLR 22/16 A2991 RMK AO2
KM91 140055Z AUTO 04004KT 10SM FEW055 21/16 A2998 RMK A01
KMHL 140055Z AUTO 09003KT 10SM CLR 23/16 A2996 RMK AO2
KCFJ 140055Z AUTO 00000KT 10SM BKN060 16/13 A3000 RMK AO2 T01600129
K1S5 140055Z AUTO 00000KT 7SM CLR 25/14 A2971 RMK AO2 T02490138
KSCR 140055Z AUTO 00000KT 10SM CLR 16/16 A2994 RMK AO2 T01600155
KIMS 140055Z AUTO 00000KT 10SM SCT040 OVC049 18/18 A3003 RMK AO2
KOZS 140055Z AUTO 00000KT 10SM CLR 23/14 A2999 RMK AO2
KNOW 140055Z AUTO 29007KT 10SM OVC070 15/12 A2987 RMK AO2 T01510124
KHMZ 140055Z AUTO 29005KT 10SM CLR 16/10 A2995 RMK AO2 T01550098
KELA 140055Z AUTO 00000KT 10SM CLR 28/21 A2991 RMK AO2 T02750205
K5A6 140055Z AUTO 00000KT CLR 19/16 A2998 RMK AO2 T01880161 PWINO
KCXU 140055Z AUTO 00000KT 10SM CLR 21/17 A2994 RMK AO1 T02050170
KAVQ 140055Z AUTO 31004KT 10SM CLR 33/12 A2980 RMK AO2 T03270117
K18A 140055Z AUTO 00000KT 10SM CLR 18/15 A2996 RMK AO2 T01830154
KJZP 140055Z AUTO 00000KT 10SM CLR 18/15 A3004 RMK AO2 T01820150
K49A 140055Z AUTO 01003KT 10SM CLR 17/15 A3003 RMK AO2 T01650149
K9A5 140055Z AUTO 00000KT 10SM CLR 17/16 A2999 RMK AO2 T01700164
KEBA 140055Z AUTO 00000KT 10SM CLR 18/15 A2995 RMK AO2 T01800150
K0S9 140055Z AUTO 34004KT 10SM BKN080 OVC090 18/12 A2986 RMK AO2
KTVY 140055Z AUTO 15005KT 10SM OVC080 21/11 A2989 RMK AO2
KLUL 140055Z AUTO 32003KT 10SM CLR 18/16 A2997 RMK A02 T01820162
KEKS 140055Z AUTO 05012KT 3SM -RA SCT034 BKN050 OVC060 14/10 A3000 RMK AO2 P0004
KX60 140055Z AUTO 00000KT 10SM CLR 23/23 A2994 RMK AO2 LTG DSNT SE T02350231
KSIK 140055Z AUTO 00000KT 10SM CLR 21/14 A2997 RMK AO2
KPMU 140055Z AUTO 00000KT 10SM CLR 20/17 A2997 RMK AO2
KHQG 140055Z AUTO 17006KT 10SM CLR 26/06 A2988 RMK AO2 T02550059
K3K3 140055Z AUTO 13006KT 10SM CLR 27/03 A2988 RMK AO2
KJHN 140055Z AUTO 14010KT 10SM CLR 29/02 A2988 RMK AO2 T02940024
KRLD 140055Z AUTO 09006KT 7SM 27/13 A2971 RMK AO2 T02700128
KK88 140055Z AUTO 15006KT 10SM CLR 24/10 A2995 RMK AO1 T02440095
K22N 140055Z AUTO 00000KT 10SM CLR 15/13 A2985 RMK AO2
KTKX 140055Z AUTO 28003KT 10SM CLR 22/18 A2995 RMK AO2 TSNO
KI19 140055Z AUTO 30003KT 10SM BKN055 18/14 A2998 RMK AO2
K82C 140055Z AUTO 00000KT 10SM CLR 17/16 A2997 RMK AO2 T01650159
KJTC 140055Z AUTO 27008G13KT 10SM BKN110 20/09 A3014 RMK AO2 LTG DSNT E AND S
KMYJ 140055Z AUTO 00000KT 10SM CLR 16/15 A2998 RMK AO2
EHHW 140055Z AUTO 32013KT 280V350 9999 FEW026/// 17/10 Q1007
KM21 140055Z AUTO 00000KT 10SM CLR 18/16 A3000 RMK AO2 T01770160
K46U 140055Z AUTO 14006KT 10SM OVC050 19/07 A2997 RMK A01
KJCA 140055Z AUTO 28006KT 10SM CLR 19/15 A2998 RMK AO2 T01920147
KMAW 140055Z AUTO 00000KT 10SM CLR 23/15 A2998 RMK AO1
KTGI 140055Z AUTO 29003KT 10SM BKN044 OVC050 25/19 A2987 RMK AO1 T02510190
K2G9 140055Z AUTO 26007KT 10SM CLR 12/10 A2998 RMK AO2
KJAQ 140055Z AUTO 28010G14KT 10SM CLR 23/10 A2987 RMK AO1 T02330100
KPIM 140055Z AUTO 00000KT 10SM CLR 18/14 A2999 RMK AO2 T01830142
KDKX 140055Z AUTO 00000KT 10SM OVC070 20/17 A2999 RMK A01
K7W6 140055Z AUTO 00000KT 10SM BKN046 BKN055 24/24 A2989 RMK AO2 T02400240
K4V0 140055Z AUTO 10005KT 10SM BKN100 OVC120 18/12 A2999 RMK AO2 T01840122
KMNV 140055Z AUTO 33003KT 10SM FEW055 19/15 A2999 RMK A01
KGZS 140055Z AUTO 00000KT 10SM 18/17 RMK A01
KCPU 140055Z AUTO 32007KT 10SM CLR 25/10 A2985 RMK AO2 T02540097
K57C 140055Z AUTO 00000KT 10SM CLR 15/15 A2997 RMK AO2 T01540154
KC07 140055Z AUTO 30005KT 10SM BKN060 OVC100 09/05 A3036 RMK AO2 LTG DSNT N S AND SW
K6B9 140055Z AUTO 24006KT 10SM OVC085 15/15 A2985 RMK AO2
KPLR 140055Z AUTO 00000KT 10SM BKN050 BKN055 18/16 A2998 RMK A01
KA39 140055Z AUTO 30010KT 10SM CLR 34/13 A2980 RMK AO2
KM08 140055Z AUTO 00000KT 10SM CLR 20/16 A2997 RMK A01
K1M5 140055Z AUTO 00000KT 10SM CLR 20/16 A2999 RMK A01
K2P2 140055Z AUTO 05006KT 10SM BKN090 OVC110 18/17 A2992 RMK AO2 T01800170
KOWX 140055Z AUTO 26006KT 10SM OVC065 18/15 A2998 RMK AO1
K3F3 140055Z 00000KT 10SM CLR A3000 RMK AO2
KHFY 140055Z AUTO 00000KT 10SM SCT031 SCT037 OVC050 19/17 A3000 RMK AO2 T01890170
KHMP 140055Z AUTO 00000KT 10SM CLR 17/15 A3002 RMK AO2 T01720154
KCDI 140055Z AUTO 00000KT 10SM CLR 12/12 A2999 RMK AO2 T01200115
KEKX 140055Z AUTO 00000KT 10SM OVC050 20/15 A3001 RMK AO2 T01960151
KF00 140055Z AUTO 12007KT 10SM CLR 26/13 A2994 RMK AO2 T02580127
KIKG 140055Z AUTO 12003KT 10SM CLR 26/22 A2989 RMK AO2 T02610216
KLRY 140055Z AUTO 12004KT 10SM CLR 25/13 A2996 RMK AO2
KEVU 140055Z AUTO 12007KT 10SM CLR 25/17 A2992 RMK AO2 T02500180
K8B0 140055Z AUTO 13004KT 10SM OVC011 18/16 A2977 RMK AO2
KY31 140055Z AUTO 00000KT 10SM SCT036 BKN044 17/15 A2989 RMK AO2 T01660154
K24A 140055Z AUTO 30004KT 10SM CLR 17/11 A3006 RMK AO2 LTG DSNT SE T01720110
KGPC 140055Z AUTO 32005KT 10SM OVC060 19/17 A3000 RMK AO2 T01910169
KM75 140055Z AUTO 09012G19KT 10SM CLR 21/05 A2980 RMK A01
KBAM 140055Z AUTO 00000KT 10SM CLR 21/12 A2990 RMK AO1
KCXW 140055Z AUTO 18004KT 6SM HZ BKN090 22/16 A2995 RMK A01
KHTH 140055Z AUTO 18005KT 10SM FEW070 BKN100 BKN120 25/08 A2986 RMK A01
KKY8 140055Z AUTO 00000KT 10SM OVC055 20/20 A3000 RMK A01
KREG 140055Z AUTO 00000KT 10SM CLR 21/18 A2994 RMK AO2 T02140179
KI23 140055Z AUTO 00000KT 10SM SCT046 SCT055 15/13 A2999 RMK AO1
KS33 140055Z AUTO 32013KT 10SM CLR 21/08 A2982 RMK AO2
K4S2 140055Z AUTO 30005KT 10SM CLR 21/10 A2980 RMK AO2
KBEC 140055Z AUTO 13006KT 10SM CLR 28/11 A2990 RMK AO2 T02760107
KI68 140055Z AUTO 28005KT 10SM CLR 18/15 A3000 RMK AO1 T01750145
KSZY 140055Z AUTO 00000KT 10SM CLR 20/16 A2997 RMK A01
KGRN 140055Z AUTO 12005KT 10SM CLR 22/03 A2990 RMK AO2 T02150031
KM04 140055Z AUTO 00000KT 10SM FEW050 20/18 A2996 RMK A01
K2A0 140055Z AUTO 00000KT 10SM CLR 19/16 A2997 RMK A01
KLBO 140055Z AUTO 14003KT 10SM CLR 21/13 A3001 RMK AO2
K8A3 140055Z AUTO 35004KT 10SM FEW060 19/14 A3001 RMK A01
KHLB 140055Z AUTO 00000KT 10SM OVC042 17/17 A3000 RMK A01
KPCD 140055Z AUTO 00000KT 10SM CLR 17/17 A2998 RMK AO2 T01720165
KDNA 140055Z AUTO 14006KT 10SM BKN080 28/10 A2996 RMK AO2
K2J3 140055Z AUTO 32004KT 10SM CLR 21/15 A2995 RMK AO2 T02070149
KRAW 140055Z AUTO 15003KT 10SM CLR 22/16 A2997 RMK AO2
KFRH 140055Z AUTO 00000KT 10SM OVC049 18/17 A3000 RMK AO1
KMBY 140055Z AUTO 11004KT 10SM CLR 18/13 A2998 RMK AO2
KHCR 140055Z AUTO 04003KT 4SM RA SCT028 BKN037 OVC048 14/12 A2998 RMK AO2
KSDC 140055Z AUTO 23004KT 10SM SCT100 SCT120 15/12 A2984 RMK AO2
KDSF 140055Z AUTO 04014KT 10SM FEW042 BKN055 BKN065 29/22 A2992 RMK A01
KPTD 140055Z AUTO 22010KT 10SM BKN006 BKN019 OVC110 16/16 A2976 RMK AO2 P0005
KRKW 140055Z AUTO 32004KT 10SM BKN055 17/15 A3001 RMK A01
KLUG 140055Z AUTO 00000KT 10SM CLR 18/16 A2998 RMK A01
KMBT 140055Z AUTO 00000KT 10SM CLR 22/13 A2996 RMK A01
KO32 140055Z AUTO VRB03KT 10SM CLR 32/08 A2975 RMK AO2 T03180083
KGCY 140055Z AUTO 00000KT 10SM OVC060 19/13 A3000 RMK A01
KHPT 140055Z AUTO 00000KT 10SM CLR 14/12 A2998 RMK AO2
KEZZ 140055Z AUTO 10007KT 10SM CLR 23/16 A2994 RMK AO2 T02280165
KPMH 140055Z AUTO 00000KT 10SM CLR 16/13 A3000 RMK AO2 T01560132
KX07 140055Z AUTO 00000KT 10SM FEW039 FEW120 25/21 A2996 RMK A01
K2M2 140055Z AUTO 00000KT 10SM FEW055 BKN090 19/14 A2999 RMK A01
KL52 140055Z AUTO 7SM CLR 18/15 A2986 RMK A01
KAAS 140055Z AUTO 00000KT 10SM SCT036 BKN055 17/M11 A3006 RMK AO1
KLYO 140055Z AUTO 13007KT 10SM CLR 28/13 A2988 RMK AO2 T02800131
KXNX 140055Z AUTO 01006KT 10SM CLR 21/16 A3001 RMK A01
KC83 140055Z AUTO 27020G26KT 10SM CLR 22/10 A2983 RMK AO2
K06C 140055Z AUTO 00000KT 10SM CLR 19/16 A2998 RMK AO2 T01880161
KL08 140055Z AUTO 28008KT 10SM CLR 33/16 A2970 RMK AO2
KOXD 140055Z AUTO 00000KT 10SM CLR 18/15 A3000 RMK AO2 T01770149
K33N 140055Z AUTO 00000KT 10SM FEW055 18/16 A2985 RMK A01
KTCY 140055Z AUTO 25020G26KT 10SM CLR 23/09 A2980 RMK A01
KC65 140055Z AUTO 00000KT 7SM BKN095 16/16 A2998 RMK A01
KCCB 140055Z AUTO 24011G16KT 10SM CLR 26/15 A2984 RMK AO2
K6S0 140055Z AUTO 01005KT 10SM CLR 24/02 A2983 RMK A01
KDLO 140055Z AUTO 06005KT 10SM CLR 31/04 A2976 RMK AO2 T03060038
KSUZ 140055Z AUTO 00000KT 9SM CLR 20/16 A2997 RMK A01
K13K 140055Z AUTO 14006KT 10SM CLR 25/11 A2993 RMK AO2 T02490111
KTYL 140055Z AUTO 26009KT 10SM OVC110 21/10 A3007 RMK AO2
KBRG 140055Z AUTO 20007KT 10SM -RA SCT047 SCT065 OVC095 18/12 A3007 RMK AO2 LTG DSNT NE AND E P0023 T01750115
KI74 140055Z AUTO 00000KT 10SM 12/12 A2999 RMK AO2
K48A 140055Z AUTO 00000KT 10SM CLR 18/16 A2996 RMK AO2 T01830161
KKNB 140055Z AUTO 23006KT 10SM SCT043 20/12 A3005 RMK A01
KOEL 140055Z AUTO 16009KT 7SM CLR 29/00 A2987 RMK AO1 T02860001
KVNW 140055Z AUTO 23003KT 10SM BKN015 BKN024 OVC060 17/16 A2999 RMK AO2
KRVL 140055Z AUTO 26009KT 10SM CLR 17/12 A2990 RMK AO2
KSCX 140055Z AUTO 00000KT 10SM FEW050 OVC060 19/16 A3001 RMK A01
KHSD 140055Z AUTO 15009KT 10SM CLR 29/16 A2988 RMK A01
K41U 140055Z AUTO 23006KT 10SM BKN060 BKN070 OVC090 19/09 A2998 RMK AO1 T01900088
K2R9 140055Z AUTO 15004KT 10SM CLR 27/21 A2991 RMK AO2 T02750206
KBWW 140055Z AUTO 10011KT 10SM CLR 20/08 A2990 RMK AO2
K4F2 140055Z AUTO 00000KT 10SM CLR 20/16 A2996 RMK AO2 T01950161
KPZZ 140055Z AUTO 08011KT 10SM FEW035 28/21 A2992 RMK A01
KHMT 140055Z AUTO 21012KT 10SM SCT050 OVC065 24/19 A2984 RMK AO2 T02420186
KS21 140055Z AUTO VRB04G10KT 2SM HZ CLR 19/05 A2992 RMK AO2
KU55 140055Z AUTO 18013KT 10SM CLR 15/10 A3010 RMK A01
K00U 140055Z AUTO 01004KT 8SM CLR 29/07 A2968 RMK A01
KMIO 140055Z AUTO 00000KT 10SM CLR 24/11 A2994 RMK AO2
KPWD 140055Z AUTO 10017G23KT 10SM CLR 16/03 A2996 RMK AO2
K6S8 140055Z AUTO 01008KT 10SM 25/03 A2975 RMK A01 Laurel
KS85 140055Z AUTO 08016G22KT 10SM 19/02 A2989 RMK A01 Culbertson
KCII 140055Z AUTO 19004KT 10SM 18/10 A2986 RMK A01
KCPF 140055Z AUTO 00000KT 10SM CLR 17/16 A3002 RMK AO2
KE41 140055Z AUTO 19009KT 10SM CLR 28/14 A2996 RMK AO2 T02810143
K0A0 140055Z AUTO 19006KT 10SM CLR 27/11 A2996 RMK AO2 LTG DSNT S AND NW
KFPY 140055Z AUTO 00000KT 10SM BKN090 25/24 A2992 RMK AO2 T02500239
KMJD 140055Z AUTO 00000KT 9SM CLR 20/19 A2995 RMK AO2
KVGC 140055Z AUTO 00000KT 7SM SCT080 BKN100 14/14 A2984 RMK AO2 P0001
KLNA 140055Z AUTO 11005KT 10SM SCT032 SCT060 SCT080 30/25 A2994 RMK AO2 LTG DSNT ALQDS T02990245 PNO
KJSY 140055Z AUTO 10SM SCT080 SCT090 OVC110 16/09 A2987 RMK AO2 T01570092 TSNO
KK82 140055Z AUTO 15007KT 10SM CLR 26/07 A2986 RMK AO2
KT69 140055Z AUTO 17004KT 10SM CLR 27/23 A2989 RMK A01
KDWA 140055Z AUTO 19010KT 10SM CLR 27/09 A2978 RMK AO2
K63S 140055Z AUTO 30007KT 6SM HZ FEW031 FEW085 20/12 A2977 RMK A01 P0003
KOAR 140055Z AUTO 25013KT 10SM CLR 03/M06 A2989 RMK AO2 PWINO
KPJC 140055Z AUTO 00000KT 7SM +RA SCT048 BKN055 13/12 A2995 RMK AO2
K81R 140055Z AUTO 14007KT 10SM CLR 28/17 A2993 RMK AO2 T02850170
KGNG 140055Z AUTO 14007KT 10SM CLR 18/15 A2989 RMK AO2 LTG DSNT SE AND S AND NW
KT89 140055Z AUTO 01014KT 10SM CLR 31/11 A2986 RMK A01
KE42 140055Z AUTO 17016KT 10SM CLR 29/11 A2991 RMK AO2 T02890112
KU52 140055Z AUTO 16004KT 10SM FEW043 SCT055 OVC075 17/11 A3001 RMK AO2
K35A 140055Z AUTO 00000KT 4SM HZ CLR 18/15 A2998 RMK A02 T01840150
KRVF 140055Z AUTO 15010KT 5SM HZ FEW040 SCT055 BKN070 17/09 A2995 RMK AO2
KSPK 140055Z AUTO 11005KT 10SM CLR 18/15 A2993 RMK AO2
KO05 140055Z AUTO 19010G16KT 10SM CLR 22/M03 A2993 RMK A01
KLLN 140055Z AUTO 15007KT 10SM CLR 26/10 A2998 RMK AO2
KTWT 140055Z AUTO 00000KT 10SM SCT050 20/14 A2999 RMK AO2
KT78 140055Z AUTO 00000KT 10SM CLR 23/20 A2992 RMK AO2
KOIC 140055Z AUTO 21003KT 10SM OVC095 15/14 A2987 RMK AO2 T01450143
KBTN 140055Z AUTO 04009KT 9SM CLR 19/14 A2993 RMK AO2
KHRF 140055Z AUTO 00000KT 1 3/4SM HZ BKN060 14/11 A2992 RMK AO2
K1R8 140055Z AUTO 00000KT 10SM FEW033 21/16 A2995 RMK AO2
KIUA 140055Z AUTO 00000KT 10SM CLR 13/12 A2986 RMK AO2 T01310118
KTQV 140055Z AUTO 32004KT 10SM CLR 24/11 A2993 RMK A01
KK62 140055Z AUTO 30005KT 10SM CLR 16/13 A3000 RMK AO2
K8T6 140055Z AUTO 13004KT 10SM CLR 27/23 A2989 RMK AO2
K40U 140055Z AUTO 17013KT 10SM SCT070 SCT080 SCT100 19/08 A2999 RMK AO2 T01890076
KHDL 140055Z AUTO 00000KT 10SM CLR 19/19 A2995 RMK AO2 TSNO
K36K 140055Z AUTO 11009KT 10SM CLR 28/09 A2990 RMK AO2
KMPR 140055Z AUTO 13008KT 10SM CLR 28/11 A2989 RMK AO2 T02820109
KATA 140055Z AUTO 00000KT 10SM CLR 20/18 A2996 RMK AO2 SLP044 T01960177
KAGO 140055Z AUTO 00000KT 10SM CLR 19/17 A2996 RMK A01
KFSK 140055Z AUTO 16008KT 10SM CLR 26/11 A2994 RMK AO2 T02630108
K15M 140055Z AUTO 00000KT 10SM CLR 20/16 A2999 RMK AO2 T02010161 $
KJPX 140055Z AUTO 22007KT 10SM OVC007 23/22 A2975 RMK AO2 T02250224
K10G 140055Z AUTO 23004KT 10SM CLR 15/12 A2998 RMK AO2
KK70 140055Z AUTO 00000KT 10SM FEW030 SCT060 BKN075 27/26 A2992 RMK AO2 LTG DSNT ALQDS
OPFA 140055Z 00000KT 2000 BR NSC 28/25 Q1005 BECMG 1500
KW43 140055Z AUTO 11006KT 10SM CLR 20/07 A2988 RMK AO2
KPNA 140055Z AUTO 00000KT 10SM OVC060 15/05 A3005 RMK AO2
LIEB 140055Z 23008KT CAVOK 24/21 Q1014 RMK SKC QUK / QUL / VIS MAR 30 KM MON INVIS VIS MIN 9999
LIVT 140055Z AUTO 09004KT 060V140 //// 22/16 Q1013
KHII 140055Z AUTO 10008KT 10SM CLR 33/14 A2970 RMK AO2
KLMO 140055Z AUTO 00000KT 10SM CLR 23/10 A2993 RMK AO2 T02340099
TNCE 140055Z AUTO 06013KT 030V090 //// // ///////// 28/24 Q1015 RE//
KCPC 140055Z AUTO 00000KT 10SM SCT050 24/22 A2991 RMK AO2 T02420218
KHBV 140055Z AUTO 13006KT 10SM CLR 29/20 A2990 RMK AO2 T02850200
KOSA 140055Z AUTO 14003KT 10SM CLR 23/14 A2996 RMK AO2 T02290136
KPYX 140055Z AUTO 17009KT 10SM CLR 26/09 A2989 RMK AO2 T02630093
KUKF 140055Z AUTO 00000KT 10SM CLR 16/13 A3003 RMK AO2
LIBN 140055Z VRB02KT CAVOK 15/14 Q1014 RMK SKC VIS MIN 9999 WIND THR14 VRB02KT WIND THR32 VRB02KT BLU
LIBQ 140055Z AUTO VRB02KT //// 13/06 Q1023
LIVM 140055Z AUTO VRB02KT //// 22/16 Q1012
LIRE 140055Z 02002KT CAVOK 21/19 Q1015 RMK SKC VIS MIN 9999 WIND THR13 02001KT WIND THR31/////KT BLU
KFWZ 140055Z AUTO 18017G23KT 10SM BKN065 BKN075 OVC085 14/04 A3011 RMK AO2
KTBX 140055Z AUTO 10SM SCT120 18/M03 A3009 RMK AO2
EHFS 140055Z AUTO 05008KT 9999 -RA NSC 16/15 Q1008 RERA REDZ
KCHK 140055Z AUTO 14008KT 10SM CLR 28/18 A2986 RMK AO2 T02820177
KADH 140055Z AUTO 16006KT 10SM CLR 28/14 A2993 RMK AO2
KGLE 140055Z AUTO 13006KT 10SM CLR 25/16 A2993 RMK AO2 T02530155 PWINO
KBYY 140055Z AUTO 13003KT 10SM SCT050 26/22 A2992 RMK AO2 T02600224
KPSN 140055Z AUTO 07004KT 10SM CLR 26/11 A2992 RMK AO2
KRBO 140055Z AUTO 10SM CLR 28/22 A2989 RMK AO2 T02820217
KPEQ 140055Z AUTO 16009KT 10SM CLR 27/14 A2992 RMK AO2 LTG DSNT SW T02680137
KGNC 140055Z AUTO 19007KT 10SM CLR 29/10 A3001 RMK AO2 T02870098
KOCW 140055Z AUTO 00000KT 10SM CLR 22/17 A2990 RMK AO2 T02180168
KRAS 140055Z AUTO 11006KT 10SM CLR A2991 RMK AO2
KLZZ 140055Z AUTO 15003KT 10SM CLR 28/17 RMK AO2 T02810172
KOZA 140055Z AUTO 18008KT 10SM CLR 28/13 A2996 RMK AO2
K5C1 140055Z AUTO 18003KT 10SM CLR 28/16 A2993 RMK AO1
KASL 140055Z AUTO 00000KT 10SM CLR 20/15 A2998 RMK AO1 T01970151
KW22 140055Z AUTO 00000KT 10SM OVC055 15/12 A3001 RMK AO2
KAFP 140055Z AUTO 00000KT 7SM CLR 19/16 A2993 RMK AO2 T01850155
KTMK 140055Z AUTO 00000KT 10SM OVC060 17/13 A2990 RMK AO2
KGCD 140055Z AUTO 11005KT 10SM CLR 20/12 A2981 RMK AO2 LTG DSNT NE T01950120
KEHO 140055Z AUTO 00000KT 10SM CLR 21/13 A2996 RMK AO2 T02060128
KP58 140055Z AUTO 25004KT 17/16 A2988 RMK AO1 SLP114 T01720156
KPTT 140055Z AUTO 14008KT 10SM CLR 30/14 A2989 RMK AO2 T03000142
KVDI 140055Z AUTO 00000KT 10SM CLR 22/16 A2994 RMK AO2
KTBR 140055Z AUTO 00000KT 10SM CLR 21/16 A2993 RMK AO2 T02070157
KTMA 140055Z AUTO 00000KT 10SM 21/17 A2994 RMK AO2 T02080172
KDQH 140055Z AUTO 00000KT 10SM CLR 25/16 A2995 RMK AO2 T02480156
KTVI 140055Z AUTO 00000KT 10SM CLR 22/20 A2994 RMK AO2
KSBS 140055Z AUTO 00000KT 10SM OVC070 18/07 A3010 RMK AO1 T01800067
KPUJ 140055Z AUTO 00000KT 10SM CLR 17/13 A3000 RMK AO2
KHYW 140055Z AUTO 00000KT 10SM CLR 23/22 A2990 RMK AO2
KPSO 140055Z AUTO 16007KT 10SM SCT110 16/05 A3019 RMK AO2 LTG DSNT NW T01640053
KMMT 140055Z AUTO 00000KT 10SM CLR 20/19 A2989 RMK AO2 SLP123 T01950187 $
KE16 140055Z AUTO 32016G19KT 10SM CLR 23/10 A2988 RMK AO2 PWINO PNO
LIBA 140055Z VRB01KT CAVOK 18/13 Q1014 RMK SKC VIS MIN 9999 WIND THR11 VRB01KT WIND THR29 /////KT BLU
LICZ 140055Z /////KT CAVOK 22/22 Q1015 RMK SKC VIS MIN 9999 WIND THR28 26008KT WIND THR10 27007KT A2999 BLU
LIED 140055Z 09004KT CAVOK 23/21 Q1013 RMK SKC VIS MIN 9999 WIND THR35 /////KT WIND THR17 09004KT BLU
LIMH 140055Z AUTO 22014KT 180V270 //// 03/02 Q1028
LIQC 140055Z 22005KT CAVOK 24/20 Q1015 RMK SKC QUK / QUL / VIS MAR 30 KM VIS MIN 9999
LIRK 140055Z AUTO 33011KT //// 16/08 Q1025
LIRM 140055Z 36003KT CAVOK 18/18 Q1015
LIVC 140055Z AUTO 25013G28KT //// 13/05 Q1023
LIVE 140055Z 20004KT 9999 FEW030 14/11 Q1018 RMK BKN BKN180 VIS MIN 9999
LIVF 140055Z 00000KT CAVOK 21/12 Q1014
KQTZ 140055Z 36004KT 9999 SKC 30/09 A2961 RMK SLP024 WND DATA ESTMD ALSTG/SLP ESTMD
KTEX 140055Z AUTO 00000KT 10SM VCTS BKN065 BKN070 BKN080 12/06 A3026 RMK AO2 LTG DSNT ALQDS
KMNH 140055Z AUTO 15009KT 10SM CLR 20/M05 A3010 RMK AO2
K8A0 140055Z AUTO 00000KT 10SM CLR 20/15 A3000 RMK AO2
KSEZ 140055Z AUTO 01005KT 10SM -RA SCT041 OVC090 17/15 A3006 RMK AO2 P0001
KSNL 140055Z AUTO 17006KT 10SM CLR 27/12 A2991 RMK AO2 T02710120
KGIC 140055Z AUTO 06006KT 5SM CLR 19/12 A2983 RMK AO1
K11R 140055Z AUTO 14003KT 10SM CLR 28/18 A2992 RMK AO2 T02800182
KSEP 140055Z AUTO 11008KT 10SM SCT100 SCT120 29/17 A2994 RMK AO2 T02910165
KSOA 140055Z AUTO 16008KT 10SM CLR 30/15 A2998 RMK AO2
KT82 140055Z AUTO 10004KT 10SM CLR 24/20 A2995 RMK AO2 T02400195
KAXX 140055Z AUTO 10004KT 10SM SCT070 BKN085 OVC110 14/04 A3025 RMK AO2 T01400043
KRWV 140055Z AUTO 10003KT 7SM HZ CLR 28/19 A2992 RMK AO2 T02780189
KSTK 140055Z AUTO 09006KT 10SM CLR 28/M01 A2986 RMK AO2
KRBW 140055Z AUTO 00000KT 10SM CLR 23/22 A2992 RMK AO2
K5SM 140055Z AUTO 10004KT 10SM SCT041 OVC048 07/02 A3039 RMK AO2 LTG DSNT S AND W
KCTJ 140055Z AUTO 00000KT 10SM CLR 17/15 A3003 RMK AO2 T01660153
KRCR 140055Z AUTO 00000KT 7SM FEW020 FEW100 17/17 A2998 RMK AO2
KTYQ 140055Z AUTO 00000KT 10SM OVC048 18/16 A3000 RMK AO2 T01780162
KPRG 140055Z AUTO 00000KT 10SM OVC060 18/18 A3000 RMK AO2 T01820181
KMQB 140055Z AUTO 00000KT 10SM CLR 16/12 A3001 RMK AO2 T01550119
KRPJ 140055Z AUTO 00000KT 10SM CLR 15/15 A2999 RMK AO2 T01540153 TSNO
KPNT 140055Z AUTO 00000KT 10SM CLR 17/17 A2999 RMK AO2 T01690169
KTIF 140055Z AUTO 09007KT 10SM CLR 24/04 A2989 RMK AO2 T02410036
KMLE 140055Z AUTO 12003KT 10SM CLR 25/16 A2988 RMK AO2 T02520160
KSBO 140055Z AUTO 00000KT 10SM CLR 19/18 A2996 RMK AO2
KSME 140055Z AUTO 00000KT 10SM CLR 19/16 A2999 RMK AO2
KETC 140055Z AUTO 00000KT 7SM CLR 19/17 A2991 RMK AO2 T01860174
EBFN 140055Z AUTO 06007KT 7000 RA FEW070/// OVC080/// 16/15 Q1007 WHT
EBCV 140055Z AUTO 05006KT 9999 /// 17/16 Q1006 BLU
EBDT 140055Z AUTO 03006KT 9999 BKN060/// BKN120/// 15/14 Q1007 BLU
EBFS 140055Z AUTO 07005KT 9999 OVC028/// 17/16 Q1007 BLU
EBLB 140055Z AUTO 13003KT 1100 +RA OVC042/// 15/15 Q1008 AMB
KWRI 140055Z AUTO 26005KT 10SM CLR 22/13 A2982 RMK AO2 SLP097 T02150126 $
KAYS 140055Z AUTO 00000KT 10SM CLR 26/25 A2993 RMK AO2 T02550247
KOPN 140055Z AUTO 35003KT 10SM CLR 18/15 A2999 RMK AO2
KVPC 140055Z AUTO 00000KT 10SM CLR 19/16 A2999 RMK AO2
KWDR 140055Z AUTO 31003KT 10SM CLR 20/13 A2999 RMK AO2 LTG DSNT SE
KJES 140055Z AUTO 00000KT 10SM BKN039 BKN049 OVC065 27/23 A2995 RMK AO2
KBIJ 140055Z AUTO 00000KT 10SM CLR 18/16 A2995 RMK AO2
KBMT 140055Z AUTO 09003KT 10SM CLR 26/15 A2993 RMK AO2 T02590148
KSLB 140055Z AUTO 12006KT 10SM CLR 17/13 A2995 RMK AO2
KSDA 140055Z AUTO 11005KT 10SM CLR 23/17 A2988 RMK AO2
KRDK 140055Z AUTO 11005KT 10SM CLR 23/16 A2990 RMK AO2
KSHL 140055Z AUTO 11005KT 10SM CLR 20/12 A2992 RMK AO2
KTVK 140055Z AUTO 00000KT 10SM FEW039 FEW065 SCT085 16/12 A2997 RMK AO2
KEBS 140055Z AUTO 08005KT 10SM CLR 15/13 A2996 RMK AO2
KLNN 140055Z AUTO 26008KT 10SM SCT039 SCT085 18/11 A2992 RMK AO1 T01830107
EBBE 140055Z AUTO 04008KT 5000 SCT004/// OVC006/// 16/16 Q1007 YLO
EBBL 140055Z AUTO 04005KT 9999 SCT014/// OVC079/// 15/14 Q1007 GRN
KTIP 140055Z AUTO 00000KT 10SM CLR 18/15 A2999 RMK AO2 T01830151
KTAZ 140055Z AUTO 00000KT 10SM CLR 17/16 A3000 RMK AO2 T01690156
KTNU 140055Z AUTO 13005KT 10SM CLR 18/10 A2996 RMK A01
KVYS 140055Z AUTO 29003KT 10SM CLR 18/15 A2999 RMK AO2 T01750145
KAJG 140055Z AUTO 00000KT 10SM CLR 20/16 A2999 RMK AO2 T02020157
KAAA 140055Z AUTO 00000KT 10SM CLR 19/13 A2999 RMK AO2 T01900131
KSYF 140055Z AUTO 14008KT 7SM CLR 24/M02 A2988 RMK AO2 T02441021 PWINO
KGLW 140055Z AUTO 00000KT 10SM CLR 19/16 A3001 RMK AO2 T01860159
KSAA 140055Z AUTO 00000KT 10SM SCT065 SCT080 OVC100 17/03 A3007 RMK AO2 LTG DSNT NE
KUNI 140055Z AUTO 00000KT 10SM CLR 14/13 A2999 RMK AO2 T01350133
LIQO 140055Z AUTO 12006KT //// 20/19 Q1017
TNCB 140055Z 08012KT 050V110 9999 SCT017 29/25 Q1011
KHZR 140055Z AUTO 00000KT 10SM CLR 21/18 A2996 RMK AO2 T02140175
KDED 140055Z AUTO 11003KT 10SM CLR 26/24 A2995 RMK AO2 LTG DSNT SE T02570237
KT35 140055Z AUTO 12003KT 10SM CLR 28/18 A2991 RMK AO2 T02830182
KTOC 140055Z AUTO 28005KT 10SM CLR 21/14 A2997 RMK AO2 T02070137
KZPH 140055Z AUTO 00000KT 10SM CLR 26/24 A2995 RMK A02 LTG DSNT SE T02610240
K5R8 140055Z AUTO 00000KT 10SM CLR 22/15 A2995 RMK AO2 T02210153
KT20 140055Z AUTO 00000KT 10SM CLR 26/21 A2990 RMK AO2 P0004 T02550211
KDCY 140055Z AUTO 00000KT 10SM OVC060 20/17 A2999 RMK AO2 T02010168
KSJS 140055Z AUTO 00000KT 10SM SCT042 BKN060 18/14 A3002 RMK AO2 T01800135
KAFO 140055Z AUTO 00000KT 10SM OVC080 15/08 A2999 RMK AO2
KBHC 140055Z AUTO 35003KT 10SM CLR 24/14 A2993 RMK AO2
KFGX 140055Z AUTO 28003KT 10SM SCT045 OVC060 18/14 A3001 RMK AO2 T01780140
KPXE 140055Z AUTO 00000KT 10SM CLR A2996 RMK AO2
KUYF 140055Z AUTO 24003KT 10SM SCT060 13/12 A2999 RMK AO2
KRCV 140055Z AUTO 00000KT 10SM SCT070 OVC090 12/08 A3025 RMK AO2 LTG DSNT W T01150084
K6I2 140055Z AUTO 00000KT 10SM CLR 19/15 A3002 RMK AO2
K3AU 140055Z AUTO 13004KT 10SM CLR 26/08 A2991 RMK AO2
KI63 140055Z AUTO 00000KT 10SM CLR 16/13 A2998 RMK AO2 T01630126
KBYL 140055Z AUTO 00000KT 10SM FEW049 FEW060 18/17 A3002 RMK AO1
K2V6 140055Z AUTO 10007KT 10SM CLR 23/M15 A2990 RMK AO2
K6P9 140055Z AUTO 13006KT 10SM CLR 29/16 A2992 RMK AO2 T02890155
K19S 140055Z AUTO 13007KT 10SM CLR 28/06 A2988 RMK AO2 T02750056
KAPS 140055Z AUTO 00000KT 10SM CLR 22/17 A2995 RMK AO2
KETN 140055Z AUTO 13006KT 10SM CLR 29/15 A2991 RMK AO2 T02920153
KSEF 140055Z AUTO 11006KT 10SM VCTS SCT046 SCT055 26/25 A2996 RMK AO2 LTG DSNT E AND SE T02580248
KTMT 140055Z AUTO 22003KT 10SM -RA BKN080 A2999 RMK AO2 LTG DSNT E THRU S
K17J 140055Z AUTO 36005KT 10SM CLR 22/13 A2995 RMK AO2 T02220126
KD73 140055Z AUTO 00000KT 10SM CLR 19/17 A2998 RMK AO2 T01850165
KLUV 140055Z AUTO 16011KT 10SM CLR 28/12 A2996 RMK AO2
KS52 140055Z AUTO 34005KT 7SM SCT070 BKN090 OVC110 22/11 A2975 RMK AO2 T02190108
KJVY 140055Z AUTO 00000KT 10SM SCT045 OVC049 19/18 A3000 RMK AO2
K2J5 140055Z AUTO 28003KT 10SM CLR 20/16 A2994 RMK AO2 T01990162
KSXK 140055Z AUTO 11006KT 10SM CLR 22/13 A2990 RMK AO2
KT74 140055Z AUTO 11006KT 10SM CLR 29/19 A2991 RMK AO2 T02910187
KT41 140055Z AUTO 11005KT 10SM CLR 26/18 A2992 RMK AO2 T02590182
KVHN 140055Z AUTO 36005KT 10SM VCTS BKN085 22/18 A3006 RMK AO2 LTG DSNT SE AND W T02190178
KX26 140055Z AUTO 06018KT 10SM -TSRA SCT110 23/22 A2992 RMK AO2 LTG DSNT ALQDS P0016 T02310219
KRVJ 140055Z AUTO 32003KT 10SM CLR 22/14 A2993 RMK AO2 T02220144
KVVS 140055Z AUTO 22003KT 10SM OVC065 15/12 A2999 RMK AO2 T01530120
K9S5 140055Z AUTO 00000KT 10SM 21/06 A2989 RMK Three Forks
KUMP 140055Z AUTO 00000KT 10SM SCT032 OVC045 19/18 A3000 RMK AO2 T01850181
LIBV 140055Z VRB01KT CAVOK 15/07 Q1015 RMK SKC VIS MIN 9999 WIND THR32 27003KT WIND THR14 VRB01KT BLU
LICT 140055Z 12005KT CAVOK 21/16 Q1014 RMK SKC VIS MIN 9999 WIND THR13 13005KT BLU
LIPI 140055Z 04003KT 9999 FEW020 BKN050 20/19 Q1013 RMK BKN VIS MIN 9999 WIND THR06 11003KT WIND THR24 07004KT BLU
LIPC 140055Z 23002KT CAVOK 19/17 Q1012 RMK SKC VIS MIN 9999 WIND THR11 23003KT WIND THR29 23002KT BLU
LIPL 140055Z 03004KT CAVOK 21/20 Q1012 RMK SKC VIS MIN 9999 WIND THR31 02004KT WIND THR13 03004KT BLU
LIPS 140055Z /////KT CAVOK 21/19 Q1012 RMK BKN BKN120 VIS MIN 9999 WIND THR26 00000KT WIND THR08 00000KT BLU
LIRS 140055Z 04004KT CAVOK 19/16 Q1014 RMK SCT SCT200 VIS MIN 9999 WIND THR03 05005KT WIND THR21 05003KT BLU
LIVP 140055Z 19013KT 0000 FG VV/// 09/09 Q1020 RMK MON INVIS VAL INVIS VIS MIN 0000
KDMW 140055Z AUTO 28008KT 10SM CLR 22/11 A2990 RMK AO2
KCGE 140055Z AUTO 00000KT 10SM BKN060 OVC070 20/20 A2987 RMK A01
PACZ 140055Z AUTO VRB05KT 10SM BKN004 09/08 A2953 RMK AO2 SLP002 T00940081 TSNO $
PALU 140055Z AUTO 08004KT 1/4SM FG VV003 06/06 A2965 RMK AO2 SLP039 T00600056
KVBW 140055Z AUTO 30003KT 10SM CLR A2995 RMK AO1
KTFP 140055Z AUTO 14004KT 10SM CLR 27/23 A2988 RMK AO2 T02670226
LICF 140055Z 34002KT CAVOK 23/18 Q1015 RMK SKC QUK / QUL / VIS MAR 18 KM MON INVIS NC VIS MIN 9999
KMRJ 140055Z AUTO 00000KT 10SM CLR 18/12 A3001 RMK AO2
KS34 140055Z AUTO 00000KT 10SM 23/23 A2983 RMK Plains
KTHM 140055Z AUTO 05006KT 7SM 23/10 A2984 RMK Thompson Falls
K1U7 140055Z AUTO 16013KT 3SM BR FEW004 SCT030 BKN049 13/13 A2998 RMK A01 P0006
K2DP 140055Z AUTO 25004KT 10SM FEW050 SCT250 25/25 A2986 RMK AO2 SLPNO T02480248 $
K2G2 140055Z AUTO 27005KT 10SM BKN047 OVC055 14/12 A2998 RMK A01
K54A 140055Z AUTO 00000KT 10SM CLR 27/26 A2991 RMK AO2 LTG DSNT NE-SE
K65S 140055Z AUTO 00000G11KT 6SM HZ CLR 24/11 A2975 RMK AO2
KADW 140055Z AUTO 26004KT 10SM FEW075 22/13 A2986 RMK AO2 SLP117 T02190132 $
KAVK 140055Z AUTO 14011KT 10SM CLR 31/16 A2985 RMK AO2 PWINO
KBAD 140055Z AUTO 07003KT 10SM CLR 23/14 A2996 RMK AO2 SLP149 T02250138
BGTL 140055Z AUTO 36003KT 9999 SCT040 05/05 A2983 RMK AO2 SLP086 T00530053 TSNO $
KBIX 140055Z AUTO 03004KT 10SM CLR 24/16 A2992 RMK AO2 SLP135 T02370157
KCBM 140055Z AUTO 00000KT 10SM R31C/4500FT CLR 20/17 A2994 RMK AO2 SLP140 T02000174 TSNO $
KCEF 140055Z 00000KT 10SM FEW023 BKN055 20/20 A2972 RMK AO2A SLP069 P0000 T01970195
KCOF 140055Z AUTO 21005KT 8SM CLR 25/24 A2992 RMK AO2 LTG DSNT SE-S DZB2357E00RAB00E51 TSB09E26TSB32E51 SLP136 P0000 T02460237 $
KDAA 140055Z AUTO 00000KT 10SM BKN070 19/16 A2987 RMK AO2 SLP117 T01930156 $
KDBN 140055Z AUTO 00000KT 10SM CLR 18/16 A2997 RMK AO2
KDLF 140055Z AUTO 13006KT 10SM CLR 29/29 A2985 RMK AO2 SLP097 T02910289 $
KDOV 140055Z AUTO 27003KT 10SM CLR 21/14 A2984 RMK AO2 SLP108 T02140143 $
KDYS 140055Z AUTO 14008KT 10SM CLR 30/10 A2987 RMK AO2 SLP070 T03040103
KEGI 140055Z AUTO 01003KT 10SM CLR 21/16 A2993 RMK AO2 SLP135 T02090161 $
EGUL 140055Z AUTO 03005KT 9999 SCT180 12/12 A2978 RMK AO2 SLP088 T01190117 $
EGUN 140055Z 05003KT 9999 FEW090 SCT180 BKN300 13/13 A2978 RMK AO2A SLP088 T01270127 $
KEKM 140055Z AUTO 28003KT 10SM CLR 16/16 A2999 RMK AO2 T01640164 $
KEND 140055Z AUTO 13010KT 10SM CLR 29/17 A2987 RMK AO2 SLP105 T02920167 $
KESN 140055Z 00000KT 10SM CLR 20/19 A2990
ETAD 140055Z AUTO 02007KT 5000 +RA FEW032 BKN042 OVC050 17/17 A2974 RMK AO2 RAB00 PRESFR SLP050 P0019 T01670165 $
ETAR 140055Z 06003KT 9999 -RA BKN033 BKN110 17/17 A2973 RMK AO2A SLP062 P0015 T01670167 $
ETIC 140055Z AUTO 00000KT 9999 OVC090 14/14 A2978 RMK AO2 SLP075 T01440138 $
ETIH 140055Z AUTO 00000KT 9999 OVC095 14/14 A2981 RMK AO2 SLP086 T01440136 PWINO $
ETIK 140055Z AUTO 00000KT 9999 OVC100 16/16 A2977 RMK AO2 DZB08E30 SLP073 P0000 T01580156 $
ETOU 140055Z AUTO 27006KT 9999 RA FEW005 BKN060 OVC075 18/17 A2978 RMK AO2 DZB14E18RAB18E39DZB39E42RAB48 SLP083 P0002 T01760174 $
KFAF 140055Z 29006KT 10SM FEW060 SCT170 24/14 A2986 RMK AO2A SLP115 T02400144 $
KFBG 140055Z AUTO 00000KT 10SM CLR 23/16 A2990 RMK AO2 SLP126 T02320160 $
KFEW 140055Z 14007KT 7SM BKN150 23/M04 A2999 RMK AO2A WND DATA ESTMD ALSTG/ ESTMD
KFFO 140055Z 27003KT 10SM BKN047 OVC055 19/14 A2996 RMK AO2A SLP146 T01850140
KFMH 140055Z 22013KT 7SM OVC005 23/23 A2974
KFRI 140055Z AUTO 14009KT 10SM CLR 28/14 A2987 RMK AO2 SLP107 T02750141 FZRANO $
KFTK 140055Z AUTO 00000KT 10SM OVC050 19/17 A2999 RMK AO2 SLP155 T01880166
KGRK 140055Z AUTO 11008KT 9SM CLR 29/18 A2988 RMK AO2 SLP108 T02910176
KGRY 140055Z AUTO 07009KT 10SM FEW031 BKN041 BKN050 28/22 A2992 RMK A01
KGSB 140055Z 00000KT 10SM SCT060 BKN250 23/18 A2988 RMK AO2A SLP121 T02250112 $
KGTB 140055Z AUTO 18004KT 10SM TS -DZ FEW022 FEW027 BKN060 OVC100 16/16 A2975 RMK AO2 DZB2355E11DZB19E26RAB39E40DZB40 TSB52 SLP073 P0000 T01640156 $
KGUS 140055Z AUTO 00000KT 10SM CLR 17/16 A2997 RMK AO2 SLP151 T01710156
KGYI 140055Z AUTO 12005KT 10SM CLR 28/13 A2994 RMK AO2 T02800127 TSNO
KHEY 140055Z AUTO 34004KT 10SM CLR 20/17 A2993 RMK AO2 SLP135 T02000170
KHFF 140055Z AUTO 00000KT 10SM CLR 20/18 A2990 RMK AO2 SLP125 T01950183 $
KHLR 140055Z AUTO 13007KT 8SM CLR 30/18 A2991 RMK AO2 SLP118 T02950179
KHOB 140055Z AUTO 26007KT 10SM CLR 26/12 A2998 RMK AO2
KHOP 140055Z AUTO 00000KT 10SM CLR 21/17 A2997 RMK AO2 SLP148 T02050167
KHRT 140055Z 05004KT 10SM CLR 24/16 A2992 RMK AO2A SLP134 T02410163 $
KHST 140055Z AUTO 30003KT 10SM VCTS SCT031 BKN045 27/23 A2992 RMK AO2 SLP135 T02660226
KIAB 140055Z AUTO 00000KT 10SM CLR 28/11 A2987 RMK AO2 SLP107 T02840110
KIKK 140055Z AUTO 25003KT 10SM CLR 18/15 A2999 RMK AO2 T01760149
KLFI 140055Z 30007KT 10SM FEW080 24/14 A2987 RMK AO2A SLP121 T02390143 $
KLHW 140055Z AUTO 00000KT 10SM CLR 25/23 A2989 RMK AO2 SLP124 T02480226 $
KLOR 140055Z AUTO 00000KT 10SM CLR 17/16 A2995 RMK AO2 SLP125 T01740157
KLRF 140055Z AUTO 00000KT 10SM CLR 21/17 A2994 RMK AO2 SLP140 T02080172 $
KLSF 140055Z AUTO 00000KT 10SM CLR 18/17 A2993 RMK AO2 SLP139 T01770165 $
KLTS 140055Z AUTO 15010KT 10SM CLR 31/15 A2984 RMK AO2 SLP090 T03060146 $
KMCF 140055Z AUTO 00000KT 10SM CLR 26/24 A2989 RMK AO2 SLP124 T02590235 FZRANO $
KMGE 140055Z 32002KT 10SM FEW250 20/13 A2997 RMK AO2A SLP145 T01990126 $
KMIB 140055Z AUTO 11010KT 10SM OVC210 16/03 A2999 RMK AO2 SLP165 T01550033 $
MMQT 140055Z 07010KT 10SM FEW020 21/08 A3019 RMK 8/500
KMUI 140055Z 29012KT 10SM FEW090 21/11 A2986 RMK AO2A SLP112 T02070105
KMVH 140055Z AUTO 05004KT 10SM CLR 23/02 A2985 RMK AO2 PWINO
KMWN 140055Z 16035G46KT 1/4SM RA FG VV001 08/08 RMK DZE30
KMXF 140055Z AUTO 00000KT 10SM CLR 20/16 A2994 RMK AO2 SLP140 T01970155 $
KNTD 140055Z 26007KT 7SM FEW060 FEW140 23/17 A2982 RMK AO2 SLP099 T02280172 VISNO N $
KOFF 140055Z 10004KT 10SM CLR 25/15 A2990 RMK AO2A SLP124 T02450154 PWINO PNO FZRANO TSNO VISNO RWY12 CHINO RWY12 $
OKAS 140055Z 14003KT 9999 CLR 31/15 A2961 RMK AO2A SLP018 $
OTBH 140055Z 00000KT 8000 HZ CLR 28/25 A2959 RMK AO2A SLP021 T02780246 PWINO FZRANO TSNO CHINO RWY34 $
KOZR 140055Z AUTO 34005KT 10SM CLR 22/12 A2994 RMK AO2 SLP139 T02220116 $
PAED 140055Z 35003KT 10SM FEW007 BKN050 BKN120 13/08 A2952 RMK AO2A SLP993 T01330081 $
PAEI 140055Z 04005KT 10SM FEW090 OVC120 18/04 A2944 RMK AO2A SLP974 T01790037 $
PAFB 140055Z AUTO 09004KT 9SM BKN150 18/04 A2947 RMK AO2 SLP986 T01810036
PAFR 140055Z AUTO 31003KT 10SM FEW041 OVC060 12/08 M RMK AO2 SLPNO T01160084 FZRANO VISNO RWY35 CHINO RWY35 $
KPAM 140055Z AUTO 36009KT 10SM CLR 26/18 A2991 RMK AO2 SLP131 T02620183 $
PAPT 140055Z 03003KT 15SM -RA SCT018 BKN027 09/08 A2950 RMK NO SPECI
KPOB 140055Z AUTO 26003KT 10SM CLR 23/15 A2991 RMK AO2 SLP130 T02340149 $
KPOE 140055Z AUTO 05003KT 5SM HZ CLR 22/16 A2994 RMK AO2 SLP139 T02190157
KPSM 140055Z 12007KT 5SM BR OVC002 20/20 A2971 RMK AO2A SLP063 T01980198
PTRO 140055Z 21007KT 15SM BKN016 BKN130 BKN300 30/25 A2987
PTTP 140055Z 25002KT 15SM FEW018 BKN300 32/25 A2992 RMK SLP130 T03240249
KQAJ 140055Z 18005KT 9999 CLR 30/14 A2964 RMK SLPNO WND DATA ESTMD ALSTG ESTMD
KQAZ 140055Z AUTO 24008KT 9999 CLR 29/18 A2987 RMK AO2 SLP108 WND DATA ESTMD T02940183
KQD3 140055Z AUTO 00000KT 9999 FEW180 33/19 A2965 RMK AO2 SLP025 WND DATA ESTMD T03250186
KQN3 140055Z 19004KT 9000 HZ FEW100 28/23 A2990 RMK AO2A SLP111 T02820229 $
KQRH 140055Z AUTO 00000KT 9999 SCT150 34/20 A2960 RMK AO2 SLP026 WND DATA ESTMD T03360197
KQVF 140055Z AUTO 19007KT 9999 FEW018 SCT023 24/22 A2997 RMK AO2 SLP151 WND DATA ESTMD T02440216
KRCA 140055Z 10009KT 5SM FU CLR 22/08 A2986 RMK AO2A SLP100 T02240081 $
KRDR 140055Z 36007KT 10SM FEW200 12/06 A3000 RMK AO2A SLP168 T01220058 $
KRND 140055Z AUTO 15005KT 10SM CLR 26/19 A2989 RMK AO2 RAE2359DZB2359E09 SLP114 P0000 T02560192
KRYM 140055Z AUTO 02005KT 10SM FEW210 20/14 A2994 RMK AO2 SLP144 T02020143 $
KSEQ 140055Z AUTO 10004KT 9SM CLR 26/17 A2989 RMK AO2 SLP118 T02580166 $
KSKF 140055Z AUTO 15012KT 10SM CLR 30/20 A2987 RMK AO2 SLP107 T02990198 $
KSLI 140055Z 23008KT 10SM FEW010 FEW040 25/18 A2979 RMK AO2A SLP091 T02470179
KSSC 140055Z 28006KT 10SM FEW150 24/13 A2990 RMK AO2A SLP125 T02390131 $
KSVN 140055Z AUTO 00000KT 10SM CLR 26/22 A2989 RMK AO2 SLP125 T02570215 $
KSXS 140055Z AUTO 36003KT 10SM CLR 21/14 A2994 RMK AO2 SLP138 T02140141
KSZL 140055Z 15003KT 10SM CLR 23/16 A2990 RMK AO2A SLP124 T02270162 $
KTBN 140055Z AUTO 00000KT 10SM CLR 20/17 A2999 RMK AO2 SLP153 T02000166
KTDR 140055Z AUTO 35005KT 10SM CLR 27/20 A2988 RMK AO2 SLP122 T02660202 $
KTIK 140055Z AUTO 16004KT 10SM CLR 27/17 A2987 RMK AO2 SLP111 T02670172
KVAD 140055Z AUTO 33005KT 10SM CLR 24/21 A2991 RMK AO2 SLP129 T02400207 $
KVES 140055Z AUTO 00000KT 10SM SCT027 OVC046 17/15 A2999 RMK AO2
KVOK 140055Z 28003KT 10SM CLR 15/15 A2995 RMK AO2A SLP147
KVPS 140055Z AUTO 01006KT 10SM CLR 24/17 A2991 RMK AO2 SLPNO T02390167 VISNO RWY12 CHINO RWY12 $
KWHP 140055Z 00000KT 10SM SKC 25/13 A2986
KWRB 140055Z 00000KT 10SM CLR 19/17 A2994 RMK AO2A SLP140 T01880173
KXBP 140055Z AUTO 13004KT 10SM CLR 28/17 A2992 RMK AO2 T02760170
KXIF 140055Z AUTO 23003KT 10SM CLR 18/11 A2990 RMK AO2 PK WND 33029/47 SLP125 T01810105 $
KXMR 140055Z AUTO 21004KT 10SM -RA OVC090 25/23 A2992 RMK AO2 LTG DSNT S DZB21E29RAB29 TSB18E44 SLP135 P0002 T02490226 $
KXNO 140055Z AUTO 00000KT 10SM CLR 22/22 A2993 RMK AO2 SLP136 T02170217 $
PASK 140056Z AUTO 06007KT 10SM CLR 14/08 A2960 RMK AO2 SLP020 T01390078
PASX 140056Z AUTO 22003KT 10SM -RA FEW029 BKN039 BKN046 11/09 A2958 RMK AO2 SLP022 P0003 T01110094
PATE 140056Z AUTO 31009KT 10SM CLR 13/09 A2954 RMK AO2 SLP007 T01280089
PAOU 140056Z AUTO 28019KT 8SM SCT041 09/05 A2978 RMK AO2 PK WND 28027/0015 SLP083 T00940050 PNO $
PAPN 140056Z AUTO 27018G26KT 8SM BKN012 BKN021 OVC025 11/08 A2960 RMK AO2 PK WND 27026/0049 RAE07 SLP027 P0000 T01060083
PARS 140056Z AUTO 04007KT 10SM FEW041 OVC060 13/07 A2949 RMK AO2 SLP989 T01330072 PNO $
PAVC 140056Z AUTO 27014G21KT 10SM -RA FEW025 BKN031 OVC049 08/05 A2984 RMK AO2 PK WND 26027/0001 SLP106 T00830050 PNO $
PAPM 140056Z AUTO 29019G23KT 8SM BKN013 BKN020 OVC055 11/09 A2951 RMK AO2 RAB22E32 SLP995 P0000 T01110094
PAKP 140056Z AUTO 19006KT 10SM SCT043 OVC050 09/04 A2961 RMK AO2 SLP056 T00940044
PARC 140056Z AUTO 32004KT 10SM OVC090 12/04 A2959 RMK AO2 SLP050 T01220039
PAKF 140056Z AUTO 28015G24KT 5SM -RA OVC026 A2985 RMK AO2 PK WND 30029/0028 RAB21E25B46UPB26E46 SLPNO P0001 FZRANO $
PAOO 140056Z AUTO 32010KT OVC019 12/08 A2956 RMK AO2 SLP016 T01220078 PWINO TSNO $
KFLP 140056Z AUTO 00000KT 3SM HZ CLR 22/17 A2998 RMK AO2 SLP149 T02220167
PAGL 140056Z AUTO 13007KT 10SM FEW023 OVC029 12/08 A2956 RMK AO2 SLP005 T01220078 PWINO $
KEKO 140056Z AUTO 22005KT 10SM CLR 19/11 A2992 RMK AO2 SLP090 T01890106
K2WX 140056Z AUTO 11010KT 22/06 A2984 RMK AO1 SLP095 T02220061
K8D3 140056Z AUTO 00000KT 19/13 A2993 RMK AO1 SLP130 T01890128
KBTP 140056Z AUTO 00000KT 10SM CLR 13/12 A2997 RMK AO2 SLP153 T01330122 TSNO
KCAE 140056Z 27005KT 10SM SCT150 21/14 A2991 RMK AO2 SLP127 T02060139
KEAU 140056Z 00000KT 10SM CLR 18/14 A2996 RMK AO2 SLP146 T01780139
KFAM 140056Z AUTO 02003KT 10SM CLR 19/13 A3001 RMK AO2 SLP169 T01890128 PNO $
KGXY 140056Z 16004KT 10SM CLR 24/02 A2989 RMK AO2 SLP097 T02440022 $
KJAX 140056Z 00000KT 10SM FEW020 BKN200 OVC250 26/24 A2991 RMK AO2 SLP130 T02560239
KLWS 140056Z 18005KT 3SM HZ OVC020 27/06 A2973 RMK AO2 SLP057 T02670056
KSHV 140056Z 14003KT 10SM CLR 23/16 A2996 RMK AO2 SLP142 T02330156
KSKX 140056Z AUTO 09011KT 10SM FEW070 BKN110 16/09 A3017 RMK AO2 SLP177 T01560089
KSPD 140056Z AUTO 11008KT 23/11 A2993 RMK AO1 SLP082 T02330106 PNO
PAPG 140056Z 10004KT 10SM SCT050 16/08 A2995 RMK AO2 SLP147 T01610083
PAWN 140056Z AUTO 04005KT 10SM OVC065 13/09 A2961 RMK AO2 SLP040 T01330089
PHHI 140056Z AUTO 09010KT 10SM BKN070 28/19 A3002 RMK AO2 SLP155 T02780190 $
PHNY 140056Z AUTO 16003KT 10SM FEW024 BKN038 OVC045 23/21 A3006 RMK AO2 RAE20 SLP157 P0005 T02330211 $
PAHY 140056Z AUTO 22004KT 10SM CLR 17/11 A2994 RMK AO2 SLP135 T01720106 $
RJOI 140056Z 03009KT 9999 FEW020 SCT070 BKN250 30/21 A2996 RMK SLP145 T03000211
KNYG 140056Z AUTO 29007KT 8SM CLR 21/18 A2989 RMK AO2 SLP122 T02060183
PAGA 140056Z AUTO 10SM CLR 16/07 A2954 RMK AO2 SLP004 T01610067 $
KMEH 140056Z AUTO 00000KT 7SM FEW040 19/09 A2984 RMK AO2 SLP094 T01890089
KLRD 140056Z 10010KT 10SM CLR 31/19 A2987 RMK AO2 SLP110 T03060189
RJTY 140056Z 04006KT 10SM BKN040 BKN065 28/22 A3004 RMK AO2A SLP172 T02820224 $
RKJK 140056Z 06012G19KT 10SM SCT080 BKN150 26/13 A2992 RMK AO2A SLP136 T02630134 $
RODN 140056Z AUTO 12008KT 10SM CLR 30/25 A2968 RMK AO2 SLP055 T03030249
ROTM 140056Z 13009KT 9999 SCT015 SCT200 30/26 A2966 RMK SLP046 T02990263
KMRF 140056Z AUTO 01004KT 10SM BKN095 OVC110 21/15 A3009 RMK AO2 LTG DSNT NW SLP138 T02060150
RKSG 140056Z AUTO 07006KT 10SM SCT095 BKN120 25/15 A3002 RMK AO2 SLP168 T02450151 $
KSLE 140056Z 28008KT 10SM OVC075 21/09 A2985 RMK AO2 SLP108 T02110089
KLGD 140056Z AUTO 14010KT 10SM CLR 23/09 A2979 RMK AO2 SLP076 T02280089
KGTU 140056Z 10003KT 10SM CLR 29/18 A2993 RMK AO2 SLP127 T02940183
KPRX 140056Z AUTO 12007KT 10SM CLR 23/12 A2996 RMK AO2 SLP143 T02330117
KUCP 140056Z AUTO 21003KT 10SM SCT050 SCT080 14/13 RMK AO2 SLPNO T01440133 $
KOTH 140056Z 26006KT 10SM CLR 16/14 A2992 RMK AO2 SLP130 VIS S - SW 3/4SM BR T01610144
KCVN 140056Z AUTO 14010KT 10SM CLR 26/08 A3000 RMK AO2 SLP124 T02610083
PASL 140056Z AUTO VRB03KT 10SM -RA FEW032 BKN048 OVC060 12/09 A2955 RMK AO2 RAB44 SLP997 P0000 T01170094
PAIW 140056Z AUTO 35005KT 1/4SM -RA FG OVC003 09/09 A2958 RMK AO2 RAB35 SLP016 T00940094 PNO $
PASM 140056Z AUTO 33005KT 10SM OVC060 11/09 A2954 RMK AO2 RAB09E21 SLP007 P0000 T01110094
PAPH 140056Z AUTO 27019G26KT 9SM -RA BKN010 OVC017 09/08 A2969 RMK AO2 PK WND 27026/0054 CIG 009V013 SLP052 P0001 T00940083
KEHR 140056Z AUTO 00000KT 10SM CLR 17/16 A2999 RMK AO2 SLP156 T01720161
KIWD 140056Z AUTO 06007KT 10SM CLR 15/12 A3001 RMK AO2 SLP166 T01500117
KMBL 140056Z AUTO 00000KT 1 1/4SM BR CLR 14/14 A2994 RMK AO2 SLP138 T01440144 PNO $
KMTC 140056Z 28005KT 10SM SCT055 17/12 A2988 RMK AO2A SLP122 T01700124
PANW 140056Z AUTO 19006KT 10SM RA FEW015 OVC050 10/09 A2951 RMK AO2 RAB24 SLP998 P0004 T01000089
PAHP 140056Z AUTO 31012KT 10SM OVC004 10/09 A2954 RMK AO2 SLP004 T01000094 PNO $
PALG 140056Z AUTO VRB04KT 10SM SCT039 SCT110 13/06 A2947 RMK AO2 SLP981 T01330061
KCIU 140056Z AUTO 33008KT 10SM CLR 15/13 A2990 RMK AO2 SLP124 T01500133
KHNB 140056Z AUTO 00000KT 10SM OVC055 21/17 A3000 RMK AO2 SLP157 T02110172
KD07 140056Z AUTO 12009KT 23/08 A2988 RMK AO1 SLP115 T02280078
KHDN 140056Z AUTO 31004KT 10SM -RA FEW050 OVC090 16/11 A3011 RMK AO2 RAB45 SLP142 P0000 T01610111
KGUC 140056Z AUTO 27004KT 10SM BKN085 14/08 A3020 RMK AO2 RAE24 SLP181 P0000 T01390083
KCVO 140056Z AUTO 29007KT 10SM OVC070 20/12 A2988 RMK AO2 SLP118 T02000117
PAWS 140056Z AUTO 07005KT 10SM BKN010 OVC046 10/08 A2956 RMK AO2 SLP012 T01000078
KFNL 140056Z 00000KT 10SM CLR 24/07 A2991 RMK AO2 SLP077 T02440067
PFSH 140056Z AUTO 13005KT 10SM OVC041 13/07 A2954 RMK AO2 SLP002 T01330067
PADM 140056Z AUTO 04005KT 10SM BKN026 OVC031 13/07 A2954 RMK AO2 SLPNO T01280067
KBOK 140056Z AUTO 00000KT 3/4SM -RA BR OVC002 13/13 A2992 RMK AO2 RAB46 SLP132 P0000 T01330133 $
KKLS 140056Z AUTO 29005KT 10SM OVC070 19/13 A2987 RMK AO2 SLP119 T01940128
KAWO 140056Z AUTO 28007KT 10SM OVC075 19/13 A2987 RMK AO2 SLP117 T01940128
KPWT 140056Z AUTO 04004KT 10SM SCT080 20/12 A2987 RMK AO2 SLP116 T02000117
KSMP 140056Z AUTO VRB05KT 6SM BR OVC005 11/09 A2992 RMK AO2 SLP123 T01110094
KARG 140056Z AUTO 00000KT 10SM CLR 23/17 A2996 RMK AO2 SLP146 T02330172
KMYR 140056Z 24004KT 10SM CLR 27/23 A2990 RMK AO2 SLP125 T02670233
KNBC 140056Z 00000KT 10SM CLR 25/23 A2990 RMK AO2 SLP126 T02500228 $
KWMC 140056Z AUTO 13005KT 10SM CLR 23/12 A2986 RMK AO2 SLP065 T02330117
K1M4 140056Z AUTO 00000KT 10SM CLR 19/17 A3002 RMK AO2 SLP154 T01890167
KMOB 140056Z 00000KT 10SM FEW250 22/16 A2996 RMK AO2 SLP143 T02170156
KNLC 140056Z 36013KT 10SM FEW130 FEW200 32/08 A2975 RMK AO2 SLP073 MTNS OBSC HZ DSNT N-E-S RH/21 T03220078
KNUC 140056Z 29008KT 10SM OVC013 20/18 A2985 RMK AO2 SLP106 T02000178
KLPC 140056Z AUTO 29012KT 10SM CLR 20/13 A2988 RMK AO2 SLP120 T02000133
KNXP 140056Z AUTO 23013KT 10SM BKN100 31/13 A2983 RMK AO2 SLP067 T03060128 $
KVIS 140056Z AUTO 00000KT 10SM CLR 32/08 A2976 RMK AO2 SLP081 T03220083
KGAD 140056Z AUTO 00000KT 10SM CLR 18/17 A2999 RMK AO2 SLP157 T01830167 PNO $
KCOE 140056Z AUTO 19003KT 7SM CLR 25/09 A2978 RMK AO2 SLP089 T02500089 PNO $
KEUL 140056Z AUTO 10010KT 10SM CLR 24/13 A2977 RMK AO2 SLP063 T02390128
KSMN 140056Z AUTO 09003KT 1SM -RA BR FEW044 BKN110 14/13 A2993 RMK AO2 RAE21B47 SLP832 P0000 T01390128
KBZN 140056Z 26012KT 6SM -RA FU FEW034 BKN100 OVC110 21/04 A2988 RMK AO2 RAB53 SLP093 P0000 T02110039
KSOP 140056Z AUTO 00000KT 10SM CLR 19/16 A2994 RMK AO2 SLP140 T01890156 TSNO
KAUO 140056Z AUTO 00000KT 10SM CLR 20/16 A2999 RMK AO2 SLP172 T02000156
KDIJ 140056Z AUTO 33009KT 10SM BKN110 18/06 A3000 RMK AO2 SLP124 T01780056
KGON 140056Z 23006KT 10SM OVC010 24/22 A2973 RMK AO2 SLP068 T02390217
KBHB 140056Z AUTO 11005KT 1/4SM FG OVC001 17/17 A2979 RMK AO2 RAB03E30 SLP090 T01670167 RVRNO PNO $
KLEW 140056Z AUTO 15003KT 10SM OVC006 19/19 A2975 RMK AO2 SLP078 T01940194
KNFL 140056Z 25007KT 10SM BKN080 BKN120 BKN250 28/03 A2981 RMK AO2 SLP071 CB DSNT E-SE FU VC ALQDS T02830028
KRKD 140056Z AUTO 13004KT 1/2SM FG OVC002 18/18 A2976 RMK AO2 SLP079 T01830183
KSFM 140056Z AUTO 12004KT 1 1/4SM -RA BR OVC002 19/19 A2972 RMK AO2 RAB56 SLP066 P0000 T01940194
KWVL 140056Z AUTO 00000KT 10SM BKN007 OVC010 19/19 A2973 RMK AO2 SLP092 T01940189
KINW 140056Z AUTO 33009KT 10SM TS BKN075 BKN095 18/14 A3004 RMK AO2 TSB47 SLP118 T01780139
KCGZ 140056Z AUTO 30007KT 10SM FEW090 33/16 RMK AO2 LTG DSNT N SLPNO T03280156 $
KNID 140056Z 28009KT 10SM FEW100 FEW150 32/08 A2972 RMK AO2 SLP043 T03220078 $
KSLG 140056Z AUTO 11005KT 10SM CLR 22/14 A2998 RMK AO2 SLP145 T02220139
KM19 140056Z AUTO 00000KT 10SM CLR 23/14 A2997 RMK AO2 SLP147 T02330139
KPWG 140056Z AUTO 12007KT 10SM 29/18 A2991 RMK AO2 SLP120 T02940178
KGAI 140056Z AUTO FEW070 19/12 A2991 RMK AO2 SLP139 T01940122 PWINO $
KNFE 140056Z AUTO 00000KT 10SM CLR 25/16 A2988 RMK AO2 SLP120 T02500161
KHYA 140056Z 20008KT 7SM OVC005 23/22 A2974 RMK AO2 SLP071 T02330222
KUDG 140056Z AUTO 10SM SCT055 22/20 A2992 RMK AO2 SLP132 T02170200
KGRD 140056Z AUTO 29003KT 10SM CLR 18/14 A2996 RMK AO2 SLP141 T01780139
KISO 140056Z 00000KT 10SM CLR 22/18 A2991
KLBT 140056Z AUTO 34005KT 10SM CLR 24/18 A2990 RMK AO2 SLP124 T02440178 TSNO
KNTU 140056Z 29011KT 10SM FEW050 SCT250 26/13 A2987 RMK AO2 SLP116 T02560128 $
KRDM 140056Z 31016G22KT 2SM HZ FU CLR 21/07 A2981 RMK AO2 SLP080 T02110072
KNCA 140056Z 34008KT 10SM SCT050 BKN065 25/24 A2988 RMK AO2 SLP122 T02500239
KOAJ 140056Z 00000KT 10SM CLR 23/22 A2990 RMK AO2 SLP128 T02330217
KSGJ 140056Z AUTO 18003KT 10SM FEW043 SCT055 BKN075 RMK AO2 SLPNO FZRANO $
KISM 140056Z 00000KT 10SM CLR 28/23 A2996 RMK AO2 SLP143 T02830233 PNO $
KPQI 140056Z AUTO 16003KT 10SM OVC100 19/18 A2977 RMK AO2 SLP103 T01940183
KART 140056Z AUTO 25008KT 10SM CLR 19/16 A2977 RMK AO2 SLP077 T01890161 TSNO
KHPN 140056Z 27006KT 10SM CLR 22/13 A2978 RMK AO2 SLP080 T02220133
KISP 140056Z 26006KT 10SM CLR 23/21 A2976 RMK AO2 SLP077 T02330206
KRUT 140056Z AUTO 13004KT 10SM OVC016 19/19 A2974 RMK AO2 RAB12E34 SLP061 P0000 T01890189 $
KDYR 140056Z AUTO 00000KT 10SM CLR 21/18 A2998 RMK AO2 SLP154 T02060178
KVBT 140056Z AUTO 12005KT 10SM CLR 24/12 RMK AO2 SLPNO T02390122 $
KSRC 140056Z AUTO 00000KT 10SM CLR 22/14 A2997 RMK AO2 SLP148 T02220144
KSGT 140056Z AUTO 14004KT 10SM CLR 27/12 A2997 RMK AO2 SLP149 T02670122
KBVX 140056Z AUTO 00000KT 9SM CLR 23/16 A2998 RMK AO2 SLP150 T02330156
KEGE 140056Z AUTO 28015G21KT 10SM BKN085 OVC110 17/07 A3014 RMK AO2 SLP111 T01720072
KHND 140056Z 22009KT 10SM CLR 31/12 A2979 RMK AO2 SLP075 T03060122
KCTB 140056Z AUTO 22003KT 4SM HZ FEW100 20/07 A2984 RMK AO2 SLP081 T02000072
KLCI 140056Z AUTO 28006KT 6SM VCTS +RA BR FEW009 BKN026 OVC034 19/19 A2975 RMK AO2 LTG DSNT ALQDS TSB10E43B44RAB24 SLP073 P0012 T01890189
KEEN 140056Z AUTO 00000KT 10SM -RA FEW003 BKN060 OVC090 19/19 RMK AO2 LTG DSNT E RAE17B46 SLPNO P0000 T01890189 $
KASH 140056Z VRB04KT 7SM RA OVC011 22/22 A2971 RMK AO2 LTG DSNT N AND NW TSB37E56RAB46 CIG 010V014 SLP063 P0002 T02220222 $
KCHS 140056Z 18004KT 10SM BKN150 25/23 A2989 RMK AO2 SLP122 T02500233
KFKL 140056Z AUTO 25006KT 10SM CLR 14/13 A2996 RMK AO2 SLP144 T01390133
KBID 140056Z AUTO 22012KT 9SM OVC004 22/22 A2976 RMK AO2 SLP079 T02220217
KSFZ 140056Z AUTO 21004KT 9SM FEW026 21/21 A2975 RMK AO2 SLP069 T02110211 $
KAJO 140056Z AUTO 26011G19KT 10SM CLR 27/17 A2980 RMK AO2 SLP084 T02720167
KALK 140056Z AUTO VRB03KT 10SM CLR 24/13 A3002 RMK AO2 SLP081 T02440133
KOCH 140056Z AUTO 07004KT 10SM CLR 23/13 A2996 RMK AO2 SLP148 T02330133
KILE 140056Z AUTO 12007KT 10SM CLR 29/19 A2992 RMK AO2 SLP119 T02890194
KGDV 140056Z AUTO 10014KT CLR 22/08 A2986 RMK AO2 SLP106 T02170078 PWINO $
KHYI 140056Z 16009KT 10SM CLR RMK AO2 SLPNO $
KSDY 140056Z AUTO 08011KT 10SM CLR 20/06 A2990 RMK AO2 SLP127 T02000056
KPVG 140056Z AUTO 27003KT 10SM CLR 17/16 A2990 RMK AO2 SLP126 T01720161
KNGP 140056Z 12007KT 10SM FEW025 FEW250 29/22 A2989 RMK AO2 SLP121 T02890222 $
KNDZ 140056Z 35010KT 10SM FEW150 23/15 A2994 RMK AO2 SLP126 T02280150 $
KFCI 140056Z AUTO 00000KT 10SM CLR 19/14 A2991 RMK AO2 SLP136 T01890144
KITH 140056Z 00000KT 10SM CLR 13/13 A2988 RMK AO2 SLPNO T01280128 $
KELZ 140056Z AUTO 26005KT 10SM FEW028 FEW039 BKN080 14/11 A2992 RMK AO2 SLP128 T01390111 TSNO
KJHW 140056Z AUTO 26008KT 10SM FEW017 SCT022 BKN070 13/13 A2992 RMK AO2 SLP137 T01330128
KMSV 140056Z AUTO 30012G18KT 10SM FEW030 SCT070 BKN085 17/16 A2985 RMK AO2 SLP103 T01720156
KNMM 140056Z 00000KT 10SM CLR 19/17 A2999 RMK AO2 SLP163 T01940167
KPTN 140056Z AUTO 09003KT 10SM CLR RMK AO2 SLPNO FZRANO $
KPTV 140056Z AUTO 34004KT 10SM CLR 32/08 A2977 RMK AO2 SLP079 T03220078
KWWD 140056Z AUTO 27006KT 10SM CLR 23/17 A2986 RMK AO2 SLP112 T02330172 $
PMDY 140056Z AUTO 09010KT 10SM SCT025 31/22 A3015 RMK AO2 SLP210 T03060222 TSNO
PARY 140056Z AUTO 00000KT 10SM CLR 14/06 A2952 RMK AO2 SLP004 T01390061
PAKI 140056Z AUTO 29013KT 10SM SCT030 12/09 A2953 RMK AO2 SLP001 T01170094 PNO $
PAHL 140056Z AUTO 06009KT 10SM CLR 16/08 A2955 RMK AO2 SLP010 T01560078
PAVA 140056Z AUTO 32010KT 10SM FEW015 BKN060 12/09 A2954 RMK AO2 RAE15 SLP008 T01170089 PNO $
KAFJ 140056Z AUTO 24003KT 10SM CLR 14/11 A3001 RMK AO2 SLP161 T01440111 $
PADU 140056Z 29014G22KT 10SM BKN043 11/05 A3000 RMK AO2 SLP163 T01110050
PAGS 140056Z AUTO 13012KT 10SM -RA BKN037 BKN045 OVC055 13/11 A2990 RMK AO2 RAB17 SLP124 P0000 T01330106
PAVD 140056Z 00000KT 10SM FEW028 FEW039 OVC050 09/ A2970 RMK AO2 RAE48 SLP056 09/09 P0001 T0089 $
PAZK 140056Z AUTO 22007KT 10SM -RA SCT004 BKN008 OVC012 04/04 A2949 RMK AO2 CIG 006V010 SLP020 P0006 T00440039
PPIZ 140056Z AUTO 08013KT 10SM BKN010 OVC045 08/06 A2966 RMK AO2 SLP048 T00830056 PNO $
KOKK 140056Z AUTO 22003KT 10SM FEW045 17/ A3000 RMK AO2 SLP157 T0172
KOTG 140056Z AUTO 10004KT 1 3/4SM HZ CLR 18/12 A2997 RMK AO2 VIS 1V5 SLP151 T01780117
KTVF 140056Z AUTO 05007KT 10SM CLR 14/06 A3004 RMK AO2 SLP178 T01440061
KFSD 140056Z 10008KT 10SM BKN250 23/13 A2991 RMK AO2 SLP127 T02280133
KGPZ 140056Z AUTO 02003KT 10SM CLR 17/13 A3002 RMK AO2 SLP169 T01670128
KMKT 140056Z AUTO 12003KT 5SM HZ CLR 19/12 A2997 RMK AO2 SLP153 T01890122
KAIZ 140056Z AUTO 00000KT 10SM CLR 20/18 RMK AO2 SLPNO T02000183 $
KBKX 140056Z AUTO 08007KT 10SM CLR A2994 RMK AO2 SLPNO FZRANO $
KOLU 140056Z AUTO 12006KT 10SM CLR 26/16 A2986 RMK AO2 SLP108 T02610161
KEAR 140056Z AUTO 15009KT 10SM CLR 24/14 A2986 RMK AO2 SLP101 T02390144
KGNA 140056Z AUTO VRB03KT 16/09 A3002 RMK AO1 SLP161 T01560094
KOFK 140056Z AUTO 12009KT 10SM CLR 26/14 A2986 RMK AO2 SLP104 T02610144
KOWB 140056Z 00000KT 10SM CLR 22/16 A2999 RMK AO2 SLP155 T02170156
KSDF 140056Z 27004KT 10SM OVC050 22/16 A2999 RMK AO2 SLP154 T02170156
KBMI 140056Z 30004KT 10SM CLR 19/14 A3001 RMK AO2 SLP156 T01940139
KPVC 140056Z AUTO 18009KT 10SM FEW004 OVC012 22/22 A2975 RMK AO2 SLP072 T02170217
KNXF 140056Z AUTO 23005KT 10SM 23/ A2982 RMK AO2 RAE31 SLP183 P0000 T0228 $
KGTR 140056Z AUTO 00000KT 10SM CLR 21/18 A2998 RMK AO2 SLP160 T02060183 PNO $
KHEZ 140056Z AUTO 07005KT 10SM CLR 19/18 A2998 RMK AO2 SLP152 T01940178
KPIB 140056Z AUTO 00000KT 10SM CLR 18/18 A2999 RMK AO2 SLP153 T01830178
KLZU 140056Z AUTO 00000KT 10SM CLR 21/14 A2998 RMK AO2 SLP158 T02060139
EGVA 140056Z AUTO 01005KT 9999 FEW020 14/14 A2975 RMK AO2 DZE55 SLP076 $
KCXY 140056Z 28007KT 10SM BKN085 21/11 A2988 RMK AO2 SLP117 T02110106
KMDT 140056Z 28007KT 10SM FEW085 22/12 A2987 RMK AO2 SLP113 T02170117
PFNO 140056Z AUTO 05009KT 10SM -RA FEW033 BKN045 OVC110 13/10 A2960 RMK AO2 RAB32 SLP103 P0005 T01330100
PACM 140056Z AUTO 26008KT 10SM OVC005 11/11 A2957 RMK AO2 SLP009 T01060106 PNO $
PAHC 140056Z AUTO 24005KT 10SM OVC036 13/08 A2950 RMK AO2 RAB22E41 SLP993 P0000 T01280083 $
PAJZ 140056Z AUTO 19011KT 8SM FEW023 13/08 A2954 RMK AO2 SLP011 T01280078 PNO $
PAMB 140056Z AUTO 25009KT FEW014 SCT023 12/09 A2949 RMK AO2 SLP990 T01170094 PWINO $
PAGN 140056Z AUTO 00000KT 10SM FEW090 13/09 A2996 RMK AO2 SLP134 T01330094
KBIH 140056Z AUTO 16010KT 10SM BKN100 24/12 A2984 RMK AO2 LTG DSNT N SLP060 T02440122
KTPH 140056Z AUTO 31020G34KT 10SM VCTS FEW043 BKN090 18/11 A2998 RMK AO2 PK WND 32034/0056 WSHFT 0038 LTG DSNT W-NE PRESRR SLP098 T01780111
PANI 140056Z AUTO VRB05KT 10SM BKN041 OVC049 13/06 A2952 RMK AO2 SLP990 T01280061 $
PFYU 140056Z 00000KT 10SM CLR 14/06 A2956 RMK AO2 SLP020 T01440056 $
PAKK 140056Z AUTO 13003KT 10SM SCT055 BKN075 14/06 A2951 RMK AO2 SLP002 T01390061
PATG 140056Z AUTO 24010KT 10SM SCT022 BKN028 OVC046 13/09 A2948 RMK AO2 SLP984 T01280094
KMQY 140056Z 00000KT 10SM CLR 21/14 A2999 RMK AO2 SLP162 T02110144
KENV 140056Z AUTO 02009KT 10SM OVC100 19/14 A2990 RMK AO2 RAE21 SLP093 P0000 T01940144 $
KSBP 140056Z 31018KT 10SM CLR 19/13 A2987 RMK AO2 SLP114 T01940128
KPVU 140056Z VRB05KT 10SM SCT065 OVC090 17/16 A2994 RMK AO2 SLP097 T01720156
KSGU 140056Z AUTO 01005KT 10SM FEW085 24/16 A2989 RMK AO2 SLP093 T02390161
KJMS 140056Z AUTO 06005KT 10SM CLR 14/06 A2999 RMK AO2 SLP160 T01390061
KMTW 140056Z AUTO 25003KT 10SM CLR 19/15 A2994 RMK AO2 SLP138 T01940150
KY50 140056Z AUTO 00000KT 10SM CLR 17/16 A2996 RMK AO2 SLP144 T01670161 $
KCWI 140056Z AUTO 00000KT 10SM CLR 17/14 A2999 RMK AO2 SLP160 T01670144
KCOD 140056Z AUTO 25004KT 10SM FEW110 25/01 A2982 RMK AO2 SLP059 T02500006
KJAC 140056Z 22007KT 10SM SCT100 19/04 A2997 RMK AO2 SLP124 T01890039
KP60 140056Z AUTO 26005KT 15/04 A3007 RMK AO1 SLP132 T01500044
PASA 140056Z AUTO 33006KT 3SM -RA BR OVC003 07/07 A2959 RMK AO2 RAB55 SLP021 P0000 T00670067
PASH 140056Z AUTO 03008KT 10SM FEW028 OVC070 11/09 A2956 RMK AO2 SLP010 T01060094 PNO $
PAMH 140056Z AUTO 00000KT 7SM CLR 13/07 A2949 RMK AO2 SLP986 T01330067
PAUN 140056Z AUTO 09007KT 10SM OVC042 13/07 A2954 RMK AO2 SLP008 T01330067 PNO $
PAPO 140056Z AUTO 03008KT 10SM OVC039 09/08 A2964 RMK AO2 SLP036 T00940083 PNO $
PAIK 140056Z AUTO 09004KT 10SM OVC100 14/08 A2962 RMK AO2 SLPNO T01390078
KDAY 140056Z 27005KT 10SM BKN041 BKN055 18/14 A3000 RMK AO2 SLP157 T01780139
KSGH 140056Z AUTO 30003KT 10SM BKN046 17/16 A3000 RMK AO2 SLP159 T01670156 $
KMVN 140056Z AUTO 00000KT 10SM CLR 16/16 A2999 RMK AO2 SLP160 T01610156
KUKI 140056Z AUTO 31009KT 10SM CLR 23/08 A2984 RMK AO2 SLP099 T02280083
KLAS 140056Z 20009G15KT 10SM SCT080 BKN120TCU BKN220 31/12 A2975 RMK AO2 LTG DSNT NW SLP049 TCU ALQDS CB DSNT NW T03110117
KMHS 140056Z AUTO 00000KT 10SM CLR 22/04 A2985 RMK AO2 SLP104 T02220044
KWJF 140056Z 23016KT 10SM CLR 27/14 A2984 RMK AO2 SLP086 T02720144
KEED 140056Z AUTO 14014KT 10SM CLR 34/14 A2970 RMK AO2 SLP024 T03390144
KSFO 140056Z 27014KT 10SM FEW009 SCT016 20/14 A2988 RMK AO2 SLP117 T02000139
KFOD 140056Z AUTO 10005KT 10SM CLR 17/12 A2997 RMK AO2 SLP164 T01670117
KAND 140056Z AUTO 00000KT 10SM CLR 20/16 A2995 RMK AO2 SLP135 T02000156
KP53 140056Z AUTO 35016KT 16/13 A2995 RMK AO1 SLP142 T01610128
KLBL 140056Z AUTO 17008KT 10SM CLR 28/04 A2988 RMK AO2 SLP090 T02780039
KP28 140056Z AUTO 13009KT 30/16 A2986 RMK AO1 SLP097 T03000161 $
KEWK 140056Z AUTO 13008KT 10SM CLR 24/12 A2992 RMK AO2 SLP119 T02440117
KGBD 140056Z AUTO 13009KT 10SM CLR 28/14 A2988 RMK AO2 SLP102 T02780139
PADK 140056Z AUTO 24019G26KT OVC006 11/09 A3014 RMK AO2 PK WND 25027/0027 SLP208 T01060089 PWINO $
PADL 140056Z VRB03KT 10SM SCT014 SCT060 12/10 A2949 RMK AO2 SLP987 T01170100
PAFM 140056Z AUTO 00000KT 10SM CLR 15/06 A2963 RMK AO2 SLPNO T01500056
PABV 140056Z AUTO 03004KT 10SM FEW009 BKN050 OVC060 12/09 A2955 RMK AO2 SLP013 T01170089
PAFE 140056Z AUTO 20003KT 10SM SCT060 BKN090 BKN110 12/09 A2998 RMK AO2 SLP163 T01220089
PABL 140056Z AUTO VRB04KT 10SM FEW070 15/07 A2957 RMK AO2 SLP013 T01500067
KBJJ 140056Z AUTO 24004KT 10SM CLR 14/12 A2997 RMK AO2 SLP148 T01390122
PAMK 140056Z AUTO 00000KT 10SM BKN032 OVC060 12/08 A2953 RMK AO2 SLP000 T01170078 PNO $
PAAK 140056Z AUTO 24008KT 10SM BKN070 OVC090 A3016 RMK AO2 SLPNO FZRANO $
PAIG 140056Z AUTO 17010KT 10SM BKN025 14/08 A2953 RMK AO2 RAE2358 SLP009 P0000 T01390078 $
PATQ 140056Z AUTO 08018KT 10SM UP OVC006 03/02 A2975 RMK AO2 RAE18UPB46 SLP077 P0000 T00280017 TSNO
KLNR 140056Z AUTO 00000KT 6SM HZ CLR 19/15 A2997 RMK AO2 SLP144 T01890150
KVPZ 140056Z AUTO 00000KT 10SM CLR 17/15 A2999 RMK AO2 SLP153 T01720150
TJSJ 140056Z 13006KT 10SM FEW042 FEW060 28/24 A2997 RMK AO2 SLP145 OCNL LTGIC DSNT W CB DSNT W T02830239 $
KESC 140056Z AUTO 36007KT 10SM CLR 17/14 A2995 RMK AO2 SLP143 T01720139 PNO $
KHYS 140056Z AUTO 13010KT 10SM CLR 29/11 A2986 RMK AO2 SLP098 T02890111 $
KSUE 140056Z AUTO 23005KT 10SM CLR 21/15 A2992 RMK AO2 SLP130 T02060150
KMML 140056Z AUTO 11007KT 10SM CLR 22/11 A2994 RMK AO2 SLP140 T02170106
KJXN 140056Z 00000KT 10SM OVC055 17/16 A2994 RMK AO2 SLP138 T01720156
KMNM 140056Z AUTO 24005KT 10SM CLR 19/16 A2991 RMK AO2 SLP128 T01940161 PNO $
KSQI 140056Z AUTO 00000KT 8SM CLR 16/16 A2999 RMK AO2 SLP022 T01610156
KYKN 140056Z AUTO 08006KT 10SM CLR 24/14 A2987 RMK AO2 SLP122 T02390139
KBLM 140056Z AUTO 27005KT 10SM CLR 22/16 A2983 RMK AO2 SLP101 T02170156
PGUA 140056Z AUTO 29010KT 8SM RA BKN085 24/22 A2990 RMK AO2 VIS 2 1/4 RWY06L VIS 2 3/4 RWY24R SLP115 P0018 T02380222 $
PAWM 140056Z AUTO 12008KT 9SM OVC047 12/08 A2955 RMK AO2 SLP011 T01170083 PNO $
KJRB 140056Z AUTO VRB05KT 10SM CLR A2980 RMK AO2 SLPNO FZRANO $
PFEL 140056Z AUTO 14003KT 10SM FEW041 BKN090 12/08 A2959 RMK AO2 SLP020 T01220078
KADF 140056Z AUTO 00000KT 10SM CLR 20/17 A2997 RMK AO2 SLPNO T02000172
PFKT 140056Z AUTO 26005KT 10SM CLR 12/09 A2955 RMK AO2 SLP007 T01220094
KMKY 140056Z AUTO 07004KT 10SM CLR 25/22 A2994 RMK AO2 SLP139 T02500217 TSNO PNO $
KDWU 140056Z AUTO 00000KT 10SM FEW065 16/16 A3000 RMK AO2 SLP158 T01610161
PFWS 140056Z AUTO 26013G20KT 10SM -RA BKN012 BKN021 OVC035 11/09 A2955 RMK AO2 SLP047 P0002 T01110094
PFCL 140056Z AUTO 24012G19KT 10SM SCT013 SCT020 12/10 A2950 RMK AO2 RAB16E47 SLP984 P0000 T01170100 TSNO
PANA 140056Z AUTO 03006KT 10SM FEW028 OVC044 12/08 A2948 RMK AO2 RAB14E27 SLP983 P0001 T01220078 TSNO $
PPIT 140056Z AUTO 01010KT 10SM FEW018 OVC048 13/08 A2949 RMK AO2 SLP990 P0001 T01280083 TSNO
KQDG 140056Z AUTO 05013KT 9999 CLR 22/14 A3008 RMK AO2 SLP188 T02230139 $
K7N0 140056Z AUTO 02005KT 10SM CLR 27/15 A2996 RMK AO2 SLP142 T02670150 PNO $
KEKY 140056Z AUTO 00000KT 10SM CLR 18/16 A3000 RMK AO2 SLP005 T01780161
KGVQ 140056Z AUTO 22005KT 10SM CLR 14/13 A2985 RMK AO2 SLP106 T01440133
K79J 140056Z AUTO 03004KT 10SM CLR 23/13 A2996 RMK AO2 SLP140 T02330128
KGNR 140056Z AUTO 13006KT 17/16 A2975 RMK AO1 SLP073 T01720161
KHWV 140056Z AUTO 24005KT 10SM CLR 23/21 A2977 RMK AO2 SLP078 T02330206
KNSE 140056Z 35008KT 10SM FEW080 FEW250 21/14 A2995 RMK SLP126 T02110144
OEPS 140056Z 00000KT 9999 CLR 31/02 A2981 RMK AO2A SLP060 WND DATA ESTMD T03100019
KNJK 140056Z COR 17007KT 10SM FEW080 SCT150 36/17 A2968 RMK AO2 SLP065 T03610167 $
KNQI 140056Z COR 12005KT 10SM FEW090 27/22 A2989 RMK AO2 SLP116 T02720222 $
KNKT 140056Z 00000KT 7SM SCT050 25/23 A2989 RMK SLP120 T02500228
KNPA 140056Z 01003KT 10SM FEW250 24/16 A2993 RMK SLP136 T02390156
K1AW 140056Z AUTO 13011KT 10SM CLR 25/M05 A2993 RMK AO2 SLP086 T02521052 $
K1BW 140056Z AUTO 13010KT 10SM FEW210 25/M07 A2993 RMK AO2 SLP079 T02461067 $
K1CW 140056Z AUTO 16012KT 10SM CLR 26/M08 A2988 RMK AO2 SLP075 T02631078 $
K1DM 140056Z AUTO 36008KT 9SM BKN130 22/03 A2981 RMK AO2 SLP089 T02220028 $
K1DW 140056Z AUTO 12011KT 10SM CLR 25/M06 A2995 RMK AO2 SLP091 T02511063 $
K1EM 140056Z AUTO 06010KT 10SM BKN160 23/05 A2979 RMK AO2 SLP076 T02270051 $
K1EW 140056Z AUTO 30008KT 10SM FEW240 25/M06 A2993 RMK AO2 SLP091 T02521062 $
K1FW 140056Z AUTO 13011KT 10SM CLR 25/M02 A2991 RMK AO2 SLP084 T02481019 $
K1GM 140056Z AUTO 29011KT 10SM CLR 17/09 A2984 RMK AO2 RAB05E23 SLP090 P0000 T01650085 $
K1HM 140056Z AUTO 27009KT 10SM -RA OVC085 17/10 A2984 RMK AO2 RAB45 SLP094 P0000 T01680104 $
K1HW 140056Z AUTO 13007KT 10SM CLR 24/M02 A2988 RMK AO2 SLP092 T02441022 $
K1IM 140056Z AUTO 00000KT 10SM BKN095 21/06 A2981 RMK AO2 SLP090 T02050057 $
K1IW 140056Z AUTO 12009KT 10SM CLR 26/M02 A2988 RMK AO2 SLP084 T02591019 $
K1JM 140056Z AUTO 00000KT 10SM BKN080 OVC090 20/05 A2983 RMK AO2 SLP097 T01960049 $
K1KM 140056Z AUTO 36012KT 10SM CLR 22/02 A2981 RMK AO2 SLP072 T02210022 $
K1MW 140056Z AUTO 11010KT 10SM M 27/M06 A2986 RMK AO2 SLP076 T02651064 $
K1NW 140056Z AUTO 12010KT 10SM CLR 26/M03 A2987 RMK AO2 SLP070 T02631033 $
K1OM 140056Z AUTO 06011KT 10SM CLR 24/04 A2978 RMK AO2 SLP065 T02350044 $
K1OW 140056Z AUTO 12012KT 10SM CLR 24/M06 A2994 RMK AO2 SLP089 T02441058 $
K4BM 140056Z AUTO 16004KT 10SM SCT065 OVC085 11/M06 A3043 RMK AO2
K4MR 140056Z AUTO 21012KT 10SM BKN140 22/13 A2996 RMK AO2 SLP093 T02190130 $
KABH 140056Z AUTO 12007KT 10SM BKN160 24/M04 A3003 RMK AO2 SLP102 T02361037
KADC 140056Z AUTO 06007KT 10SM CLR 19/14 A2997 RMK AO2 TSNO
KAFF 140056Z AUTO 14007KT 10SM FEW140 23/M05 A3003 RMK AO2 SLP102 T02311050
KBAB 140056Z AUTO 17014KT 10SM CLR 27/10 A2976 RMK AO2 SLP080 T02660103 $
KBIF 140056Z AUTO 08005KT 9SM FEW080 29/11 A2996 RMK AO2 SLP083 T02890110 $
KBYS 140056Z AUTO 21013G19KT 10SM CLR 30/11 A2976 RMK AO2 SLP053 T02960111 $
KCQM 140056Z AUTO 00000KT 10SM 13/09 A3002 RMK AO2
KCVS 140056Z AUTO 24008KT 10SM SCT160 BKN190 26/08 A2999 RMK AO2 SLP102 T02570078 $
KCWN 140056Z AUTO 19009KT 10SM BKN140 23/M02 A2973 RMK AO2 SLP877 T02321024 $
KDMA 140056Z AUTO 33009KT 10SM CLR 30/13 A2983 RMK AO2 DZE2356 TSB2359E21 SLP061 T02960125 $
KDUB 140056Z AUTO 34003KT 10SM OVC070 15/03 A3003 RMK AO2
KEDW 140056Z 24016KT 40SM FEW060 29/06 A2980 RMK AO2A PK WND 24029/22 SLP069 T02890063
KFCS 140056Z AUTO 13006KT 10SM OVC140 25/M01 A2996 RMK AO2 SLP093 T02461013 $
KFHU 140056Z 09003KT 10SM CLR 25/14 A3001 RMK AO2A SLP105 T02460144
KGFA 140056Z AUTO 00000KT 10SM -RA OVC095 21/08 A2984 RMK AO2 RAB42 SLP098 P0000 T02050075 $
KGRF 140056Z AUTO 31005KT 10SM SCT070 BKN085 20/11 A2983 RMK AO2 SLP104 T02000112
KGXF 140056Z COR 27007KT 10SM BKN080 BKN150 BKN200 34/15 A2973 RMK AO2A LTG DSNT N-E CB DSNT NE ACSL W-N-NE MDT CU ALQDS SLP055 T03440148 COR 0103
KHIF 140056Z COR 10004KT 5SM -RA SCT004 BKN055 OVC070 16/16 A2991 RMK AO2A RAB0020 SLP078 P0000 T01580156 COR 0115
KHMN 140056Z AUTO 16006KT 10SM CLR 28/10 A2996 RMK AO2A SLP086 ALSTG/SLP ESTMD T02810103 $
KINS 140056Z AUTO 34006KT 10SM BKN080 OVC095 24/12 A2983 RMK AO2 SLP061 T02390122 $
KLSV 140056Z AUTO 11011KT 10SM SCT120 BKN160 30/14 A2972 RMK AO2 LTG DSNT SW RAB03E17DZB17E20 SLP041 P0000 T03020139 $
KLUF 140056Z AUTO 26008KT 10SM CLR 34/13 A2973 RMK AO2 SLP054 T03390128 $
KRIV 140056Z AUTO 31009KT 10SM CLR 27/17 A2983 RMK AO2 SLP088 T02730174
RKSO 140056Z AUTO 07004KT 10SM BKN100 BKN110 24/18 A3004 RMK AO2 SLP176 T02420179 TSNO CHINO RWY09 $
KSUU 140056Z AUTO 24024G28KT 10SM CLR 22/11 A2979 RMK AO2 PK WND 26034/10 SLP094 T02200108 $
KTCM 140056Z AUTO 27006KT 10SM OVC070 20/10 A2985 RMK AO2 RAB01E20 SLP111 P0000 T02030104 $
KVBG 140056Z AUTO 35014KT 10SM CLR 18/14 A2990 RMK AO2 SLP127 T01770140 FZRANO TSNO $
KAQV 140057Z AUTO 00000KT 10SM CLR 20/17 A2995 RMK AO2 SLP139 T02000167
PHNG 140057Z 06008KT 10SM OVC080 29/21 A2998 RMK AO2 SLP148 T02890211 $
KFLG 140057Z 00000KT 10SM -RA FEW031 BKN060 OVC090 13/12 A3017 RMK AO2 RAE31B51 SLP140 P0002 T01330117 $
KNYL 140057Z 17011KT 7SM SCT080 SCT100 34/15 A2969 RMK AO2 SLP049 T03390150
KNJW 140057Z AUTO 00000KT 10SM FEW002 19/16 A3002 RMK AO2 SLP079 T01940156 $
KAUM 140057Z AUTO 00000KT 10SM CLR 19/13 A3000 RMK AO2
KBBB 140057Z AUTO 17003KT 10SM CLR 19/12 A2995 RMK AO2
KBJC 140057Z 05003KT 20SM SCT080 BKN200 25/01 A2995
KHDC 140057Z AUTO 00000KT 10SM CLR 21/18 A2996 RMK AO2
PASD 140057Z 29016G20KT 10SM FEW025 BKN037 BKN055 11/04 A2980 RMK AO2 $
KRGA 140057Z AUTO 00000KT 10SM CLR 17/15 A3002 RMK AO2
KSKA 140057Z 18006KT 6SM FU CLR 24/08 A2976 RMK AO2A FU SLP071 T02440075 $
KTTS 140057Z AUTO 00000KT 10SM CLR 25/22 A2992 RMK AO2 RAE57 SLP136 $
K9L2 140058Z AUTO 25018KT 8SM CLR 29/04 A2980 RMK AO2 SLP067 T02930043 $
KBKF 140058Z 15011KT 10SM FEW090 SCT140 BKN220 26/M05 A2996 RMK AO2A SLP076 T02581047
KROG 140058Z AUTO 10SM CLR 23/14 A3000 RMK AO2 SLP148 T02280139 $
KEUF 140058Z AUTO 00000KT 10SM CLR 17/16 A2997 RMK AO2 SLP145 T01720161 PNO $
PHSF 140058Z AUTO 27007KT 10SM FEW007 SCT039 20/14 A3030 RMK AO2 SLP143 T01960144 $
PASY 140058Z AUTO M 6SM HZ FEW180 M M RMK AO2 SLPNO PNO FZRANO $
KBCR 140058Z AUTO 00000KT 10SM CLR 19/18 A2995 RMK AO2 SLP100 T01940178 $
KMRH 140058Z AUTO 23007KT 10SM CLR 27/23 A2989 RMK AO2 SLP121 T02720233
KMEI 140058Z 00000KT 10SM CLR 20/16 A2999 RMK AO2 SLP152 T02000161
KCMY 140058Z AUTO 00000KT 9SM R29/5500FT CLR 15/15 A2999 RMK AO2 SLP161 T01470146 $
KGOV 140058Z AUTO 31004KT 9SM M 17/16 A2992 RMK AO2 SLP137 T01660155 $
ETEB 140058Z AUTO 00000KT 9999 -DZ FEW100 17/16 A2978 RMK AO2 DZB58 SLP083 $
KJKA 140058Z VRB05KT 10SM CLR 24/16 A2994
KSQL 140058Z 23009KT 10SM FEW015 19/12 A2990
KP92 140059Z AUTO 00000KT 24/18 A2992 RMK AO1 SLP132 T02390183
KNGU 140059Z 28012KT 10SM FEW280 26/13 A2989 RMK AO2 SLP123 T02610128 $
MUCF 140059Z AUTO 06003KT 23/22 Q1013
KFME 140059Z AUTO 00000KT 10SM BKN075 A2990 RMK AO1
KHHW 140059Z AUTO 15006KT 10SM CLR 24/10 A2995 RMK AO2
PTSA 140059Z VRB03KT 10SM SCT021 SCT130 BKN300 30/22 A2989
KSFY 140059Z AUTO 14003KT 10SM CLR 16/16 A2999 RMK AO2
YLEC 140059Z AUTO 01023G33KT 9999 // BKN120 22/03 Q1014
